USDOT,MC_docket#,entity_type,operating_status,out_of_service,legal_name,dba_name,contact_name,physical_address,business_phone,mobile_number,email_address,mailnig_address,power units,drivers,mcs 150,Mileage (Year),operation_classification,carrier_operation,cargo_carried
3342317,,CARRIER,NOT AUTHORIZED,None,BRADLEY J NEWMAN & JOHN NEWMAN,BP TRANSPORT,JOHN NEWMAN,"3550 S SENATOR HWY UNIT 16
PRESCOTT, AZ   86303",(858) 663-9367,(858) 663-9367,60JNEWMAN@GMAIL.COM,"3550 S SENATOR HWY UNIT 16
PRESCOTT, AZ   86303-8428",1,1,2019-11-14,1 (2018),"Auth. For Hire, ","Interstate, ","Motor Vehicles, "
3351231,,CARRIER,NOT AUTHORIZED,None,ERNIE'S LOGISTICS LLC,NONE,ERNIE'S LOGISTICS LLC,"1947 S SYLVESTER DR
TUCSON, AZ   85713",(520) 519-9575,(520) 519-9575,ERALCALA@LIVE.COM,"1947 S SYLVESTER DR
TUCSON, AZ   85713-2619",1,1,2019-11-13,,"Auth. For Hire, ","Interstate, ","General Freight, "
3352641,,CARRIER,NOT AUTHORIZED,None,O&A TRANSPORT LLC,,O&A TRANSPORT LLC,"135 S 107TH DR
AVONDALE, AZ   85323",(602) 718-4235,(602) 718-4235,OATRANSPORTLLC@GMAIL.COM,"135 S 107TH DR
AVONDALE, AZ   85323",1,1,2019-11-12,1 (2018),"Auth. For Hire, ","Interstate, ","General Freight, OTHER, "
3353185,,CARRIER,ACTIVE,None,TRES T BROTHERS TRUCKING LLC,,TRES T BROTHERS TRUCKING LLC,"2827 N 57TH AVE
PHOENIX, AZ   85035-1703",(602) 573-5953,(602) 573-5953,TRESTBROTHERSTRUCKING19@GMAIL.COM,"2827 N 57TH AVE
PHOENIX, AZ   85035-1703",1,1,2019-11-22,,"Auth. For Hire, ","Intrastate Only (Non-HM), ","OTHER, "
3353479,,CARRIER,NOT AUTHORIZED,None,AYA TRANSPORTATION LLC,,AYA TRANSPORTATION LLC,"6128 W BEVERLY LN
GLENDALE, AZ   85306",(480) 553-1518,(480) 553-1518,AYATRANSPORTLLC@HOTMAIL.COM,"6128 W BEVERLY LN
GLENDALE, AZ   85306-1716",2,2,2019-11-14,1 (2018),"Auth. For Hire, ","Interstate, ","General Freight, "
3354602,,CARRIER,ACTIVE,None,BRIAN PORTER,FINAL DRIVE EXPRESS,BRIAN PORTER,"417 S AGASSIZ ST
FLAGSTAFF, AZ   86001-5708",(928) 637-8917,(928) 637-8917,PORTERDRUMS35@GMAIL.COM,"PO BOX 2908
FLAGSTAFF, AZ   86003-2908",1,1,2019-11-20,1 (2019),"Auth. For Hire, ","Intrastate Only (Non-HM), ","General Freight, "
3354806,,CARRIER,ACTIVE,None,BUSTILLOS AND SONS LLC,,BUSTILLOS AND SONS LLC,"3205 S 51ST AVE
PHOENIX, AZ   85043-6210",(623) 349-9747,(623) 349-9747,ERIC28BUSTILLOS@GMAIL.COM,"3205 S 51ST AVE
PHOENIX, AZ   85043-6210",2,3,2019-11-13,,"Auth. For Hire, ","Intrastate Only (Non-HM), ","DIRT, GRAVEL, AS, "
3356555,,CARRIER,ACTIVE,None,LEONARD TRUCKING LLC,,LEONARD TRUCKING LLC,"3901 E PINNACLE PEAK RD LOT 160
PHOENIX, AZ   85050",(602) 614-9497,(602) 614-9497,RFCLEONARD@GMAIL.COM,"3901 E PINNACLE PEAK RD LOT 160
PHOENIX, AZ   85050-8113",1,1,2019-11-15,1 (2018),"Auth. For Hire, ","Intrastate Only (Non-HM), ","General Freight, "
3356611,,CARRIER,NOT AUTHORIZED,None,SHARP TRUCKING LLC,,SHARP TRUCKING LLC,"734 W PADRE KINO DR
COOLIDGE, AZ   85128",(520) 510-6423,(520) 510-6423,MRSSHARP08@ICLOUD.COM,"734 W PADRE KINO DR
COOLIDGE, AZ   85128-3108",1,1,2019-11-18,,"Auth. For Hire, ","Interstate, ","General Freight, Refrigerated Food, "
3356750,,CARRIER,ACTIVE,None,ANDREW SZOKE,SZOKE ENTERPRISE,ANDREW SZOKE,"880 S GENEVIEVE
EAGAR, AZ   85925",(928) 339-1989,(928) 339-1989,ANDYSZOKE55@GMAIL.COM,"PO BOX 274
EAGAR, AZ   85925",1,1,2019-11-15,1 (2018),"Auth. For Hire, ","Intrastate Only (Non-HM), ","Logs, Poles, Beams, Lumber, "
3356857,,CARRIER,NOT AUTHORIZED,None,NO XCUSES TRANSPORT,,NO XCUSES TRANSPORT,"10356 S YOLANDA DE FORTUNA DR
YUMA, AZ   85367",(928) 246-6979,(928) 246-6979,ORLANDO.VIVANCO@YAHOO.COM,"10356 S YOLANDA DE FORTUNA DR
YUMA, AZ   85367-7557",1,1,2019-11-12,,"Auth. For Hire, ","Interstate, ","General Freight, Building Materials, "
3356875,,CARRIER,NOT AUTHORIZED,None,VICTORIA TRUCKING LLC,,VICTORIA TRUCKING LLC,"687 N BINGHAM AVE
SOMERTON, AZ   85350",(928) 388-4664,(928) 388-4664,SVICTORIA13@ICLOUD.COM,"687 N BINGHAM AVE
SOMERTON, AZ   85350-6311",1,1,2019-11-12,,"Auth. For Hire, ","Interstate, ","General Freight, "
3356918,,CARRIER,ACTIVE,None,G-FORCE TRUCKIN LLC,,G-FORCE TRUCKIN LLC,"9018 W GLENROSA AVE
PHOENIX, AZ   85037-1721",(602) 500-3245,(602) 500-3245,OMARGOMEZ235@YAHOO.COM,"9018 W GLENROSA AVE
PHOENIX, AZ   85037-1721",1,1,2019-11-12,,"Auth. For Hire, ","Intrastate Only (Non-HM), ","OTHER, "
3357187,,CARRIER,NOT AUTHORIZED,None,AQUARIUS TOWING INC,,AQUARIUS TOWING INC,"1360 E GARDENA RD
FORT MOHAVE, AZ   86426",(928) 788-8464,(928) 788-8464,AQUARIUSTOWING@GMAIL.COM,"1360 E GARDENA RD
FORT MOHAVE, AZ   86426-6593",2,8,2019-11-12,,"Auth. For Hire, ","Interstate, ","General Freight, Motor Vehicles, Drive/Tow away, Mobile Homes, "
3357339,,CARRIER,ACTIVE,None,RKIRKCO EQUIPMENT LLC,,RKIRKCO EQUIPMENT LLC,"16110 E FAIRVIEW ST
GILBERT, AZ   85295-1908",(480) 815-8500,(480) 815-8500,RKIRKCO@YAHOO.COM,"16110 E FAIRVIEW ST
GILBERT, AZ   85295-1908",2,2,2019-11-13,,"Auth. For Hire, ","Intrastate Only (Non-HM), ","Garbage/Refuse, "
3357343,,CARRIER,NOT AUTHORIZED,None,V A D A EXPRESS LLC,,V A D A EXPRESS LLC,"3112 W ACOMA DR
PHOENIX, AZ   85053",(480) 815-9116,(480) 815-9116,VDIMAS356@GMAIL.COM,"3112 W ACOMA DR
PHOENIX, AZ   85053-5729",2,2,2019-11-13,,"Auth. For Hire, ","Interstate, ","General Freight, "
3357365,,CARRIER,NOT AUTHORIZED,None,DERIET TRUCKING COMPANY LLC,,DERIET TRUCKING COMPANY LLC,"3619 W ROMA AVE
PHOENIX, AZ   85019",(623) 219-9897,(623) 219-9897,JULIANGUERRA1972@GMAIL.COM,"6722 N 59TH AVE
GLENDALE, AZ   85301-3206",1,1,2019-11-13,,"Auth. For Hire, ","Interstate, ","General Freight, "
3357552,,CARRIER,NOT AUTHORIZED,None,LKOBRA EXPRESS LLC,,LKOBRA EXPRESS LLC,"10811 W MONTE VISTA RD
AVONDALE, AZ   85392",(909) 333-9003,(909) 333-9003,EDDYBATRES21@YAHOO.COM,"10811 W MONTE VISTA RD
AVONDALE, AZ   85392-5408",1,1,2019-11-13,,"Auth. For Hire, ","Interstate, ","General Freight, Fresh Produce, "
3357610,,CARRIER,NOT AUTHORIZED,None,BUREKOVIC TRANSPORT INC,,BUREKOVIC TRANSPORT INC,"16276 N 31ST AVE
PHOENIX, AZ   85053",(360) 513-8537,(360) 513-8537,AUTHORITY@TCSPHOENIX.COM,"16276 N 31ST AVE
PHOENIX, AZ   85053-3083",1,1,2019-11-13,,"Auth. For Hire, ","Interstate, ","General Freight, "
3357616,,CARRIER,NOT AUTHORIZED,None,MC CAL LOGISTICS LLC,,MC CAL LOGISTICS LLC,"207 PETALO CT UNIT A
NOGALES, AZ   85648",(520) 980-1901,(520) 980-1901,CARLOSV05@HOTMAIL.COM,"207 PETALO CT UNIT A
NOGALES, AZ   85648-1870",1,1,2019-11-13,,"Auth. For Hire, ","Interstate, ","General Freight, "
3357835,,CARRIER,ACTIVE,None,DUSTIN KING TRUCKING LLC,,DUSTIN KING TRUCKING LLC,"15361 W VIRGINIA AVE APT 1027
GOODYEAR, AZ   85395-9061",(623) 687-7074,(623) 687-7074,DUSTIN.M.KING@OUTLOOK.COM,"15361 W VIRGINIA AVE APT 1027
GOODYEAR, AZ   85395-9061",1,1,2019-11-14,,"Auth. For Hire, ","Intrastate Only (Non-HM), ","General Freight, Building Materials, Garbage/Refuse, Agricultural/Farm Supplies, Construction, "
3357893,,CARRIER,ACTIVE,None,SALAZAR SHUTTLES,,SALAZAR SHUTTLES,"30 N TERRACE AVE
NOGALES, AZ   85621-3215",(520) 294-1210,(520) 294-1210,ELDASAL41@GMAIL.COM,"2691 N BIT PL
NOGALES, AZ   85621-3735",1,1,2019-11-14,,"Auth. For Hire, ","Intrastate Only (Non-HM), ","Passengers, "
3358177,,CARRIER,ACTIVE,None,DUNN & DUNN TRANSPORTATION,,DUNN & DUNN TRANSPORTATION,"15107 W EVENING STAR TRL
SURPRISE, AZ   85374-4474",(623) 231-5789,(623) 231-5789,KARIDUNN22@GMAIL.COM,"15107 W EVENING STAR TRL
SURPRISE, AZ   85374-4474",0,5,2019-11-14,,"Auth. For Hire, ","Intrastate Only (Non-HM), ","General Freight, "
3358275,,CARRIER,ACTIVE,None,JVT TRUCKING LLC,,JVT TRUCKING LLC,"1621 N 38TH DR
PHOENIX, AZ   85009-2233",(602) 628-4303,(602) 628-4303,JVTTRUCKINGLLC19@GMAIL.COM,"1621 N 38TH DR
PHOENIX, AZ   85009-2233",1,1,2019-11-15,,"Auth. For Hire, ","Intrastate Only (Non-HM), ","General Freight, OTHER, "
3358709,,CARRIER,ACTIVE,None,IRONMAN TRUCKING LLC,,IRONMAN TRUCKING LLC,"2504 E ADAMS ST
PHOENIX, AZ   85034-1452",(602) 570-2131,(602) 570-2131,IRONMANTRUCK@GMAIL.COM,"2504 E ADAMS ST
PHOENIX, AZ   85034-1452",1,1,2019-11-15,,"Auth. For Hire, ","Intrastate Only (Non-HM), ","General Freight, Metal: sheets, coils, rolls, Building Materials, Utilities, Construction, "
3359027,,CARRIER,NOT AUTHORIZED,None,MORENO DELIVERIES LLC,,MORENO DELIVERIES LLC,"5043 W KRALL ST
GLENDALE, AZ   85301",(602) 446-4264,(602) 446-4264,JORGEM1488HD@GMAIL.COM,"5043 W KRALL ST
GLENDALE, AZ   85301-4004",1,1,2019-11-18,,"Auth. For Hire, ","Interstate, ","General Freight, "
3359252,,CARRIER,NOT AUTHORIZED,None,SOUTHERN BREEZE EQUINE TRANSPORT LLC,,SOUTHERN BREEZE EQUINE TRANSPORT LLC,"2000 RAMAR RD LOT 184
BULLHEAD CITY, AZ   86442",(928) 234-1001,(928) 234-1001,SOUTHERNBREEZEEQUINE@GMAIL.COM,"2000 RAMAR RD LOT 184
BULLHEAD CITY, AZ   86442-9327",1,2,2019-11-18,,"Auth. For Hire, ","Interstate, ","Livestock, "
3359296,,CARRIER,NOT AUTHORIZED,None,J LOPEZ TRUCKING LLC,,J LOPEZ TRUCKING LLC,"2082 E TORRES ST
SAN LUIS, AZ   85349-3288",(928) 581-0795,(928) 581-0795,JEMSTRUCK81@GMAIL.COM,"PO BOX 3288
SAN LUIS, AZ   85349-3288",3,3,2019-11-22,"10,000 (2018)","Auth. For Hire, ","Interstate, ","General Freight, Fresh Produce, "
3359346,,CARRIER,NOT AUTHORIZED,None,GETTITUIA TRANSPORTATION LLC,,GETTITUIA TRANSPORTATION LLC,"41141 W SOMERS DR
MARICOPA, AZ   85138",(480) 738-6768,(480) 738-6768,BINGBAGSAZ@YAHOO.COM,"41141 W SOMERS DR
MARICOPA, AZ   85138-4615",1,1,2019-11-18,1 (2018),"Auth. For Hire, ","Interstate, ","General Freight, "
3359381,,CARRIER,NOT AUTHORIZED,None,MV INTERNATIONAL LLC,,MV INTERNATIONAL LLC,"4423 W APOLLO RD
LAVEEN, AZ   85339",(480) 636-9630,(480) 636-9630,MVINTL2019@GMAIL.COM,"4423 W APOLLO RD
LAVEEN, AZ   85339-6214",1,1,2019-11-18,,"Auth. For Hire, ","Interstate, ","General Freight, "
3359412,,CARRIER,ACTIVE,None,AVELINO TRANSPORTATION LLC,,AVELINO TRANSPORTATION LLC,"7428 W GETTY DR
PHOENIX, AZ   85043-2025",(623) 512-9457,(623) 512-9457,JOSEAVELINO7@GMAIL.COM,"7428 W GETTY DR
PHOENIX, AZ   85043-2025",1,1,2019-11-18,,"Auth. For Hire, ","Intrastate Only (Non-HM), ","General Freight, "
3359940,,CARRIER,NOT AUTHORIZED,None,RIOS HAULING & TOWING LLC,,RIOS HAULING & TOWING LLC,"15637 W SUPAI DR
GOODYEAR, AZ   85338",(602) 339-8898,(602) 339-8898,ABINOAMRIOS@GMAIL.COM,"15637 W SUPAI DR
GOODYEAR, AZ   85338-3367",1,2,2019-11-19,,"Auth. For Hire, ","Interstate, ","General Freight, "
3360184,,CARRIER,NOT AUTHORIZED,None,FRANCISCA CERVANTES SALAZAR,TRANSPORTES CERVANTES,FRANCISCA CERVANTES SALAZAR,"DEL ROSARIO #768
NOGALES, SO   84030",(331) 177-5333,(331) 177-5333,RUBBEN.CHACON@GMAIL.COM,"164 CALLE OPALO UNIT B
RIO RICO, AZ   85648-1872",1,1,2019-11-20,,"Auth. For Hire, ","Interstate, ","General Freight, "
3360199,,CARRIER,NOT AUTHORIZED,None,KAGET LLC,,KAGET LLC,"2846 W MILA WAY
QUEEN CREEK, AZ   85142",(207) 239-0971,(207) 239-0971,CLOBEBE@YAHOO.FR,"2846 W MILA WAY
QUEEN CREEK, AZ   85142-6700",1,2,2019-11-20,,"Auth. For Hire, ","Interstate, ","General Freight, "
3360286,,CARRIER,NOT AUTHORIZED,None,JOSEPH TRANSPORTATION LLC,,JOSEPH TRANSPORTATION LLC,"9016 N 53RD AVE
GLENDALE, AZ   85302",(480) 652-1639,(480) 652-1639,RESOULSHIAL@YAHOO.COM,"9016 N 53RD AVE
GLENDALE, AZ   85302-4108",1,1,2019-11-20,,"Auth. For Hire, ","Interstate, ","Motor Vehicles, Drive/Tow away, "
3360435,,CARRIER,NOT AUTHORIZED,None,IKENNA TRANSPORT LLC,,IKENNA TRANSPORT LLC,"893 VIGA CT
RIO RICO, AZ   85648",(520) 470-7813,(520) 470-7813,ROBERTA.SALAZAR21@HOTMAIL.COM,"893 VIGA CT
RIO RICO, AZ   85648-1932",1,1,2019-11-20,1 (2018),"Auth. For Hire, ","Interstate, ","General Freight, Fresh Produce, Refrigerated Food, "
3360520,,CARRIER,NOT AUTHORIZED,None,JPM TRANSPORT SERVICES,,JPM TRANSPORT SERVICES,"11304 E MENDOZA AVE
MESA, AZ   85209",(480) 620-1008,(480) 620-1008,JACK.MINKALIS@YAHOO.COM,"11304 E MENDOZA AVE
MESA, AZ   85209-1443",0,4,2019-11-20,,"Auth. For Hire, ","Interstate, ",
3360736,,CARRIER,ACTIVE,None,DUMERS DUMP TRUCK,,DUMERS DUMP TRUCK,"2679 N LAKE VALLEY RD
PRESCOTT VLY, AZ   86314",(801) 319-6483,(801) 319-6483,NORMADUMERS@ICLOUD.COM,"315 S GRAHAM WAY
DEWEY, AZ   86327-8063",1,2,2019-11-21,,"Auth. For Hire, ","Intrastate Only (Non-HM), ","General Freight, "
3360791,,CARRIER,ACTIVE,None,PHOENIX ROLL OFFS LLC,,PHOENIX ROLL OFFS LLC,"4155 E SHEA BLVD
PHOENIX, AZ   85028-3525",(602) 446-2786,(602) 446-2786,GREATLAKES345@AOL.COM,"4155 E SHEA BLVD
PHOENIX, AZ   85028-3525",1,1,2019-11-21,,"Auth. For Hire, ","Intrastate Only (Non-HM), ","General Freight, Garbage/Refuse, OTHER, "
3361025,,CARRIER,NOT AUTHORIZED,None,ABJ TRANSPORT INC,,ABJ TRANSPORT INC,"2390 E CAMELBACK RD STE 130
PHOENIX, AZ   85016",(602) 796-6200,(602) 796-6200,ABJTRANSPORTINC@GMAIL.COM,"2390 E CAMELBACK RD STE 130
PHOENIX, AZ   85016-3449",7,7,2019-11-21,,"Auth. For Hire, ","Interstate, ","General Freight, "
3361439,,CARRIER,ACTIVE,None,SIR MOVES A LOT LLC,MARIA DEL CARMEN GARCIA,SIR MOVES A LOT LLC,"1952 S MANZANITA TRL
COTTONWOOD, AZ   86326-5758",(928) 282-2150,(928) 282-2150,ADMIN@SIRMOVESALOT.COM,"1952 S MANZANITA TRL
COTTONWOOD, AZ   86326-5758",1,2,2019-11-22,,"Auth. For Hire, ","Intrastate Only (Non-HM), ","Household Goods, "
3361860,,CARRIER,NOT AUTHORIZED,None,ATSA TRANSPORTATION LLC,,ATSA TRANSPORTATION LLC,"1776 W CARLA VISTA DR
CHANDLER, AZ   85224",(941) 584-9868,(941) 584-9868,INFO@DOTORDER.INFO,"1776 W CARLA VISTA DR
CHANDLER, AZ   85224-8203",1,1,2019-11-25,,"Auth. For Hire, ","Interstate, ","OTHER, "
3362183,,CARRIER,NOT AUTHORIZED,None,ANONIMO EXPRESS LLC,,ANONIMO EXPRESS LLC,"273 CAMINO MAGNIFICO
RIO RICO, AZ   85648",(941) 584-9868,(941) 584-9868,INFO@DOTORDER.INFO,"273 CAMINO MAGNIFICO
RIO RICO, AZ   85648-3625",1,2,2019-11-25,,"Auth. For Hire, ","Interstate, ","General Freight, Fresh Produce, Refrigerated Food, "
3362223,,CARRIER,NOT AUTHORIZED,None,LETHAL THREAT LOGISTICS LLC,,LETHAL THREAT LOGISTICS LLC,"7364 W TYLER PL
TUCSON, AZ   85743",(405) 792-6946,(405) 792-6946,EBM08317@YAHOO.COM,"7364 W TYLER PL
TUCSON, AZ   85743-1167",1,1,2019-11-25,,"Auth. For Hire, ","Interstate, ","General Freight, "
3362605,,CARRIER,NOT AUTHORIZED,None,108 STITCHES TRUCKING LLC,,108 STITCHES TRUCKING LLC,"939 E 9TH ST
DOUGLAS, AZ   85607",(520) 227-3292,(520) 227-3292,LEOFELIX23@HOTMAIL.COM,"939 E 9TH ST
DOUGLAS, AZ   85607-2212",1,1,2019-11-26,,"Auth. For Hire, ","Interstate, ","General Freight, Refrigerated Food, Beverages, Paper Products, "
3362721,,CARRIER,NOT AUTHORIZED,None,WESTERN MARINE TRANSPORT LLC,,WESTERN MARINE TRANSPORT LLC,"3280 FEATHER PALM LN
LK HAVASU CTY, AZ   86404",(707) 599-8324,(707) 599-8324,WESTERNMARINETRANSPORT@YAHOO.COM,"PO BOX 3541
LK HAVASU CTY, AZ   86405-3541",2,3,2019-11-26,,"Auth. For Hire, ","Interstate, ","General Freight, OTHER, "
3362823,,CARRIER,NOT AUTHORIZED,None,CECILIA DEL ROSARIO FLORES VERDUGO,TRANSPORTES FLORES,,"12 DE OCTUBRE #87
NOGALES, SO   84020",(687) 126-1418,,,"285 W 3RD ST
NOGALES, AZ   85621-1327",1,1,2019-11-26,,"Auth. For Hire, ","Interstate, ","General Freight, Fresh Produce, Refrigerated Food, "
3362899,,CARRIER,NOT AUTHORIZED,None,SICKEL TRANSPORT LLC,,SICKEL TRANSPORT LLC,"35006 N 27TH AVE
PHOENIX, AZ   85086",(319) 296-5221,(319) 296-5221,JOSEPH.SICKEL@GMAIL.COM,"35006 N 27TH AVE
PHOENIX, AZ   85086-6624",1,4,2019-11-26,,"Auth. For Hire, ","Interstate, ","General Freight, "
3363409,,CARRIER,NOT AUTHORIZED,None,FROG FREIGHT CARRIERS LLC,,,"66 CR N6705
ST JOHNS, AZ   85936",(303) 842-2221,,,"PO BOX 1941
ST JOHNS, AZ   85936",1,2,2019-11-20,,"Auth. For Hire, ","Interstate, ","General Freight, Metal: sheets, coils, rolls, Logs, Poles, Beams, Lumber, Building Materials, Machinery, Large Objects, Grain, Feed, Hay, Construction, "
3363491,,CARRIER,NOT AUTHORIZED,None,ASAP LOGISTIC SOLUTIONS LLC,,,"426 S CODY LOOP RD
ORACLE, AZ   85623",(252) 670-9937,,,"426 S CODY LOOP RD
ORACLE, AZ   85623-6286",1,1,2019-11-29,,"Auth. For Hire, ","Interstate, ","General Freight, "
3363572,,CARRIER,NOT AUTHORIZED,None,AMRO TRANSPORTATION LLC,,,"30410 N 72ND PL
SCOTTSDALE, AZ   85266",(480) 408-3435,,,"30410 N 72ND PL
SCOTTSDALE, AZ   85266-1880",1,1,2019-11-30,,"Auth. For Hire, ","Interstate, ","General Freight, Household Goods, "
3363586,,CARRIER,ACTIVE,None,NFXL DELIVERY SERVICE LLC,,,"2941 W DESERT GLORY DR
TUCSON, AZ   85745-2280",(520) 237-9199,,,"2941 W DESERT GLORY DR
TUCSON, AZ   85745-2280",5,5,2019-11-30,,"Auth. For Hire, ","Intrastate Only (Non-HM), ","General Freight, "
3363978,,CARRIER,NOT AUTHORIZED,None,SOLOMON PETRO,,,"7111 HILLCROFT ST APT 725
HOUSTON, TX   77081",(520) 921-9663,,,"3307 W MARYLAND AVE
PHOENIX, AZ   85017-1425",1,4,2019-12-02,,"Auth. For Hire, ","Interstate, ","General Freight, "
3364039,,CARRIER,NOT AUTHORIZED,None,HAVINS EXPRESS LLC,,,"19854 W RAY RD
BUCKEYE, AZ   85326",(623) 237-1624,,,"19854 W RAY RD
BUCKEYE, AZ   85326-4459",1,1,2019-12-02,,"Auth. For Hire, ","Interstate, ","General Freight, "
3364210,,CARRIER,NOT AUTHORIZED,None,EM TRANSPORT LLC,,,"4369 E APPALOOSA DR
ELOY, AZ   85131",,,,"6722 N 59TH AVE
GLENDALE, AZ   85301-3206",1,1,2019-12-02,,"Auth. For Hire, ","Interstate, ","General Freight, "
3364412,,CARRIER,ACTIVE,None,TMTM CONTRACTING LLC,,,"808 KAVKAZ ST
RALEIGH, NC   27610-3178",(919) 610-0067,,,"808 KAVKAZ ST
RALEIGH, NC   27610-3178",3,8,2019-12-03,,"Auth. For Hire, ","Intrastate Only (Non-HM), ","General Freight, "
3365010,,CARRIER,NOT AUTHORIZED,None,JOLLEY TRUCKING LLC,,,"11056 E QUARTET AVE
MESA, AZ   85212",(480) 518-0155,,,"11056 E QUARTET AVE
MESA, AZ   85212-2584",2,4,2019-12-04,,"Auth. For Hire, ","Interstate, ","General Freight, Metal: sheets, coils, rolls, Logs, Poles, Beams, Lumber, Building Materials, Commodities Dry Bulk, Refrigerated Food, Paper Products, "
3365166,,CARRIER,ACTIVE,None,STAR TRANSPORT LLC,,,"4112 N 69TH LN UNIT 1410
PHOENIX, AZ   85033-8225",(623) 521-3007,,,"4112 N 69TH LN UNIT 1410
PHOENIX, AZ   85033-8225",1,1,2019-12-05,"10,000 (2018)","Auth. For Hire, ","Intrastate Only (Non-HM), ","General Freight, "
3365236,,CARRIER,NOT AUTHORIZED,None,GALINDO TRANSPORT LLC,,,"757 W CALLE MAROJO
SAHUARITA, AZ   85629",(520) 481-7309,,,"757 W CALLE MAROJO
SAHUARITA, AZ   85629-7837",1,1,2019-12-04,,"Auth. For Hire, ","Interstate, ","General Freight, Beverages, Paper Products, "
3365244,,CARRIER,NOT AUTHORIZED,None,LEMONS VALLEY TRANSPORTATION LLC,,,"3121 W DONNER DR
PHOENIX, AZ   85041",(480) 363-1047,,,"3121 W DONNER DR
PHOENIX, AZ   85041-6348",1,1,2019-12-04,,"Auth. For Hire, ","Interstate, ","General Freight, Refrigerated Food, "
3365485,,CARRIER,NOT AUTHORIZED,None,BERNARDO LOPEZ,,,"1330 W BROADWAY RD APT F108
TEMPE, AZ   85282",(909) 734-4266,,,"1330 W BROADWAY RD APT F108
TEMPE, AZ   85282-1244",1,1,2019-12-04,,"Auth. For Hire, ","Interstate, ","General Freight, "
3365781,,CARRIER,NOT AUTHORIZED,None,COMMERCIAL CHOPER LLC,,,"8044 E JACQUE DR
PRESCOTT VLY, AZ   86314",(928) 460-0571,,,"8044 E JACQUE DR
PRESCOTT VLY, AZ   86314-6130",1,1,2019-12-05,,"Auth. For Hire, ","Interstate, ","Passengers, "
3365917,,CARRIER,NOT AUTHORIZED,None,RAT-CHET DOWN LLC,RAT-CHET DOWN,,"22507 W LOWER BUCKEYE RD
BUCKEYE, AZ   85326",(602) 663-7745,,,"22507 W LOWER BUCKEYE RD
BUCKEYE, AZ   85326-5516",1,2,2019-12-05,,"Auth. For Hire, ","Interstate, ","General Freight, Motor Vehicles, "
3365920,,CARRIER,NOT AUTHORIZED,None,CHAY AUTO TRANSPORT LLC,,,"15777 W YAVAPAI ST
GOODYEAR, AZ   85338",(623) 340-4621,,,"15777 W YAVAPAI ST
GOODYEAR, AZ   85338-3344",1,1,2019-12-05,,"Auth. For Hire, ","Interstate, ","Motor Vehicles, "
3365932,,CARRIER,ACTIVE,None,UC OFFICE INSTALLATIONS LLC,,,"3026 N 56TH DR
PHOENIX, AZ   85031-3311",(602) 803-2141,,,"3026 N 56TH DR
PHOENIX, AZ   85031-3311",1,1,2019-12-05,,"Auth. For Hire, ","Intrastate Only (Non-HM), ","General Freight, Household Goods, "
3366180,,CARRIER,ACTIVE,None,KID COMMUTE LLC,KID COMMUTE,,"2571 S MOCCASIN TRL
GILBERT, AZ   85295-1573",(480) 772-6764,,,"2571 S MOCCASIN TRL
GILBERT, AZ   85295-1573",10,10,2019-12-06,,"Auth. For Hire, ","Intrastate Only (Non-HM), ","Passengers, "
3366234,,CARRIER,NOT AUTHORIZED,None,MODEE'S TRANSPORTATION LLC,,,"6316 W IRONWOOD DR
GLENDALE, AZ   85302",(602) 517-7422,,,"6316 W IRONWOOD DR
GLENDALE, AZ   85302-1142",1,1,2019-12-06,,"Auth. For Hire, ","Interstate, ","General Freight, "
3366831,,CARRIER,NOT AUTHORIZED,None,LEONARDO BALTAZAR,LEO AUTO TRANSPORT,,"5040 S CENTRAL AVE STE 4
PHOENIX, AZ   85040",(619) 871-7271,,,"5040 S CENTRAL AVE STE 4
PHOENIX, AZ   85040-2155",1,1,2019-12-09,,"Auth. For Hire, ","Interstate, ","Motor Vehicles, "
3367108,,CARRIER,NOT AUTHORIZED,None,TRUCKER PATH TRANSPORTATION LLC,,,"2828 N CENTRAL AVE STE 700
PHOENIX, AZ   85004",(480) 745-6308,,,"2828 N CENTRAL AVE STE 700
PHOENIX, AZ   85004-1024",20,20,2019-12-09,,"Auth. For Hire, ","Interstate, ","General Freight, Metal: sheets, coils, rolls, Building Materials, Fresh Produce, Refrigerated Food, Beverages, Paper Products, OTHER, "
3367215,,CARRIER,NOT AUTHORIZED,None,COSMO T&T LLC,,,"8816 N 44TH LN
GLENDALE, AZ   85302",(866) 206-9832,,,"8816 N 44TH LN
GLENDALE, AZ   85302-5320",1,8,2019-12-09,,"Auth. For Hire, ","Interstate, ","General Freight, "
3367256,,CARRIER,ACTIVE,None,B & B TRUCKING 42 LLC,,,"36312 N 33RD AVE
PHOENIX, AZ   85086-0595",(714) 514-0941,,,"36312 N 33RD AVE
PHOENIX, AZ   85086-0595",1,1,2019-12-09,,"Auth. For Hire, ","Intrastate Only (Non-HM), ","General Freight, Construction, "
3367435,,CARRIER,NOT AUTHORIZED,None,QUICK CONNECTION TRAVEL LLC,,,"554 N WILLIAM BROOKS AVE UNIT 7410
SAN LUIS, AZ   85336",(619) 825-4876,,,"PO BOX 7410
SAN LUIS, AZ   85349-6811",1,1,2019-12-09,,"Auth. For Hire, ","Interstate, ","Passengers, "
3367546,,CARRIER,ACTIVE,None,FOREX ARIZONA LLC,FOREX CARGO ARIZONA,,"5080 W MISSOURI AVE STE 107
GLENDALE, AZ   85301-6158",(602) 703-0590,,,"5080 W MISSOURI AVE STE 107
GLENDALE, AZ   85301-6158",1,4,2019-12-10,,"Auth. For Hire, ","Interstate, ","General Freight, GIFTS AND PERSON, "
