USDOT,MC_docket#,entity_type,operating_status,out_of_service,legal_name,dba_name,contact_name,physical_address,physical_city,physical_state,physical_zip,business_phone,mobile_number,email_address,mailing_address,mailing_city,mailing_state,mailing_zip,power units,drivers,mcs 150,Mileage (Year),operation_classification,carrier_operation,cargo_carried
3370436,,CARRIER,NOT AUTHORIZED,None,MONDELL SINGLETON,SECOND LOOK TRANSPORT,,500 BOSTON ST,HEMET,CA,92545,(951) 692-1518,,,500 BOSTON ST,HEMET,CA,92545-2385,1,1,2019-12-26,,"Auth. For Hire, ","Intrastate Only (Non-HM), ","General Freight, Fresh Produce, Refrigerated Food, Beverages, Paper Products, "
3371964,,CARRIER,NOT AUTHORIZED,None,TARLOCHAN SINGH JOHAL,TSJ TRUCKING,,12518 A STREET,BIOLA,CA,93606,(559) 960-2833,,,"PO BOX 459
BIOLA, CA   93606-0459",,,,1,1,2019-12-27,100 (2018),"Auth. For Hire, ","Interstate, ","General Freight, "
3372191,,CARRIER,NOT AUTHORIZED,None,CARMEL LOGISTICS LLC,,,9574 N SHANNON AVE,FRESNO,CA,93720,(559) 554-1635,,,9574 N SHANNON AVE,FRESNO,CA,93720,1,1,2019-12-26,,"Auth. For Hire, ","Intrastate Only (Non-HM), ","General Freight, "
3372851,,CARRIER,NOT AUTHORIZED,None,ON MY GRIND EXPRESS LLC,,,248 3RD ST STE 806,OAKLAND,CA,94607,(405) 792-6946,,,248 3RD ST STE 806,OAKLAND,CA,94607-4375,1,1,2019-12-27,,"Auth. For Hire, ","Interstate, ","General Freight, "
3373176,,CARRIER,ACTIVE,None,ANTHONY WRIGHT,HELPING HANDS TOWING,,2376 DRY CREEK WAY,STOCKTON,CA,95206,(209) 740-6531,,,2376 DRY CREEK WAY,STOCKTON,CA,95206,1,1,2019-12-26,1 (2018),"Auth. For Hire, ","Intrastate Only (Non-HM), ","Drive/Tow away, "
3373857,,CARRIER,NOT AUTHORIZED,None,MARATHON LOGISTICS LLC,,,505 14TH ST STE 900,OAKLAND,CA,94612,(510) 588-8480,,,505 14TH ST STE 900,OAKLAND,CA,94612-1468,1,2,2019-12-25,,"Auth. For Hire, ","Interstate, ","General Freight, Building Materials, "
3373876,,CARRIER,ACTIVE,None,WINLINE LOGISTICS,,,26033 CAPE DR UNIT 391,LAGUNA NIGUEL,CA,92677-0931,(323) 571-7117,,,26033 CAPE DR UNIT 391,LAGUNA NIGUEL,CA,92677-0931,1,2,2019-12-25,,"Auth. For Hire, ","Intrastate Only (Non-HM), ","General Freight, "
3373887,,CARRIER,NOT AUTHORIZED,None,NORTH WIND TRANS INC,,,9349 LA TONIS WAY,ELK GROVE,CA,95758,(916) 539-4141,,,9349 LA TONIS WAY,ELK GROVE,CA,95758-7124,1,4,2019-12-25,,"Auth. For Hire, ","Interstate, ","General Freight, Household Goods, Metal: sheets, coils, rolls, Motor Vehicles, Drive/Tow away, Building Materials, Fresh Produce, Grain, Feed, Hay, Meat, Garbage/Refuse, US Mail, Commodities Dry Bulk, Refrigerated Food, Beverages, Paper Products, Utilities, Agricultural/Farm Supplies, Construction, "
3373896,,CARRIER,NOT AUTHORIZED,None,ANL TRUCKING,,,16018 ADELANTE ST STE D,IRWINDALE,CA,91702,(626) 225-8083,,,16018 ADELANTE ST STE D,IRWINDALE,CA,91702-3236,1,2,2019-12-26,,"Auth. For Hire, ","Interstate, ","General Freight, "
3373903,,CARRIER,ACTIVE,None,S MAHAL TRUCKING INC,,,27499 PONDEROSA CT,HAYWARD,CA,94545-4128,(510) 284-9135,,,32108 ALVARADO BLVD # 343,UNION CITY,CA,94587-4000,1,1,2019-12-26,,"Auth. For Hire, ","Intrastate Only (Non-HM), ","OTHER, "
3374006,,CARRIER,NOT AUTHORIZED,None,ROCK CARRIERS INC,,,4111 N BLYTHE AVE APT 135,FRESNO,CA,93722,(629) 255-5537,,,4111 N BLYTHE AVE APT 135,FRESNO,CA,93722-6361,1,1,2019-12-26,,"Auth. For Hire, ","Interstate, ","General Freight, Fresh Produce, Meat, Refrigerated Food, Paper Products, "
3374039,,CARRIER,NOT AUTHORIZED,None,JP CHARLES FREIGHT,,,229 N 5TH ST,LA PUENTE,CA,91744,(626) 779-6567,,,229 N 5TH ST,LA PUENTE,CA,91744-6505,1,1,2019-12-26,,"Auth. For Hire, ","Interstate, ","General Freight, "
3374043,,CARRIER,NOT AUTHORIZED,None,VIRK CARGO INC,,,9378 WILLOW POND CIR,ELK GROVE,CA,95624,(916) 525-5739,,,9378 WILLOW POND CIR,ELK GROVE,CA,95624-1266,1,1,2019-12-26,,"Auth. For Hire, ","Interstate, ","General Freight, "
3374061,,CARRIER,ACTIVE,None,G PEREZ TRUCKING LLC,,,1160 MINTER AVE,SHAFTER,CA,93263-2444,(661) 979-0418,,,1160 MINTER AVE,SHAFTER,CA,93263-2444,1,1,2019-12-26,,"Auth. For Hire, ","Intrastate Only (Non-HM), ","General Freight, "
3374079,,CARRIER,ACTIVE,None,RLM TRANSPORTATION INC,,,9148 EUCALYPTUS DR,BAKERSFIELD,CA,93306-6730,(661) 487-6314,,,9148 EUCALYPTUS DR,BAKERSFIELD,CA,93306-6730,1,1,2019-12-26,,"Auth. For Hire, ","Intrastate Only (Non-HM), ","General Freight, Construction, OTHER, "
3374086,,CARRIER,NOT AUTHORIZED,None,FATEH'S TRANSPORT INC,,,812 N GRANDVIEW AVE APT C,COVINA,CA,91723,(626) 541-3878,,,812 N GRANDVIEW AVE APT C,COVINA,CA,91723-1353,1,1,2019-12-26,,"Auth. For Hire, ","Interstate, ","General Freight, Fresh Produce, "
3374088,,CARRIER,NOT AUTHORIZED,None,ROBERT GALLEGOS,BOBBY'S TRANSPORT,,16156 SHADYBEND DR,HACIENDA HTS,CA,91745,(626) 343-1576,,,16156 SHADYBEND DR,HACIENDA HTS,CA,91745-2317,1,1,2019-12-26,,"Auth. For Hire, ","Interstate, ","General Freight, "
3374096,,CARRIER,ACTIVE,None,PEREZ TRANS LLC,,,551 DRAKE DR,SHAFTER,CA,93263-9638,(661) 978-1588,,,551 DRAKE DR,SHAFTER,CA,93263-9638,1,1,2019-12-26,,"Auth. For Hire, ","Intrastate Only (Non-HM), ","General Freight, "
3374140,,CARRIER,NOT AUTHORIZED,None,2 GLORY INC,,,4603 STILL MEADOW LN,LANCASTER,CA,93536,(661) 943-6611,,,4603 STILL MEADOW LN,LANCASTER,CA,93536-7162,1,1,2019-12-26,,"Auth. For Hire, ","Interstate, ","Motor Vehicles, "
3374143,,CARRIER,ACTIVE,None,GUILLORY TRUCKING,,,7426 CHERRY AVE STE 210,FONTANA,CA,92336-4263,(909) 452-8890,,,7426 CHERRY AVE STE 210,FONTANA,CA,92336-4263,3,3,2019-12-26,,"Auth. For Hire, ","Intrastate Only (Non-HM), ","General Freight, Agricultural/Farm Supplies, Construction, "
3374144,,CARRIER,ACTIVE,None,RICARDO ACOSTA,ACOSTA LOGISTICS LLC,,"11365 MILLSTONE LN 11365 MILLSTONE LN
POMONA, CA   91766-4688",,,,(909) 973-0724,,,"11365 MILLSTONE LN 11365 MILLSTONE LN
POMONA, CA   91766-4688",,,,1,1,2019-12-26,,"Auth. For Hire, ","Intrastate Only (Non-HM), ","Intermodal Cont., "
3374153,,CARRIER,NOT AUTHORIZED,None,HAWK47 TRUCKING INC,HAWK47,,10824 OLSON DR STE C,RNCHO CORDOVA,CA,95670,(916) 254-6581,,,10824 OLSON DR STE C,RNCHO CORDOVA,CA,95670-5651,1,1,2019-12-26,,"Auth. For Hire, ","Interstate, ","General Freight, "
3374171,,CARRIER,NOT AUTHORIZED,None,MARIO BUGARIN MARTINEZ,BUGARIN TRUCKING,,254 E 2ND ST,CALEXICO,CA,92231,(760) 234-0766,,,254 E 2ND ST,CALEXICO,CA,92231-2754,1,1,2019-12-26,,"Auth. For Hire, ","Interstate, ","General Freight, Building Materials, Grain, Feed, Hay, Paper Products, "
3374176,,CARRIER,ACTIVE,None,KNUCKLE HEAD TRUCKING INC,,,10824 WINDY CT,BLOOMINGTON,CA,92316-2821,(909) 578-2889,,,10824 WINDY CT,BLOOMINGTON,CA,92316-2821,1,1,2019-12-26,,"Auth. For Hire, ","Intrastate Only (Non-HM), ","General Freight, "
3374179,,CARRIER,ACTIVE,None,3M TRANSPORT LLC,,,1355 TERMINO AVE,LONG BEACH,CA,90804-3014,(562) 200-3932,,,1355 TERMINO AVE,LONG BEACH,CA,90804-3014,1,2,2019-12-26,,"Auth. For Hire, ","Intrastate Only (Non-HM), ","General Freight, "
3374193,,CARRIER,ACTIVE,None,SOLO TRANS LLC,,,4330 E 52ND ST,MAYWOOD,CA,90270-2306,(323) 597-8698,,,4330 E 52ND ST,MAYWOOD,CA,90270-2306,1,1,2019-12-26,,"Auth. For Hire, ","Intrastate Only (Non-HM), ","General Freight, Intermodal Cont., "
3374199,,CARRIER,ACTIVE,None,GOMEZ TRUCKING,,,1270 ELIZABETH ST,COALINGA,CA,93210-3205,(559) 772-2111,,,1270 ELIZABETH ST,COALINGA,CA,93210-3205,1,1,2019-12-26,,"Auth. For Hire, ","Intrastate Only (Non-HM), ","General Freight, OTHER, "
3374200,,CARRIER,ACTIVE,None,JESUS FRANCISCO LOPEZ,JESUS FRANCISCO LOPEZ TRUCKING LLC,,"5867 ELMWOOD RD 5867 ELMWOOD RD
SN BERNRDNO, CA   92404-3201",,,,(909) 685-7893,,,"5867 ELMWOOD RD 5867 ELMWOOD RD
SN BERNRDNO, CA   92404-3201",,,,1,1,2019-12-26,,"Auth. For Hire, ","Intrastate Only (Non-HM), ","General Freight, Intermodal Cont., "
3374204,,CARRIER,ACTIVE,None,RELIANCE LOGISTICS INC,,,128 GERBERA ST,DANVILLE,CA,94506-4790,(510) 304-7833,,,128 GERBERA ST,DANVILLE,CA,94506-4790,1,1,2019-12-26,,"Auth. For Hire, ","Intrastate Only (Non-HM), ","General Freight, "
3374224,,CARRIER,NOT AUTHORIZED,None,DSS TRANS INC,,,22110 S MANTECA RD,MANTECA,CA,95337,(209) 969-5899,,,22110 S MANTECA RD,MANTECA,CA,95337-8980,1,1,2019-12-26,,"Auth. For Hire, ","Interstate, ","General Freight, "
3374231,,CARRIER,NOT AUTHORIZED,None,GURINDER SINGH,JHUTTY TRUCKING,,1896 CLARENDON DR,FAIRFIELD,CA,94534,(707) 384-2082,,,1896 CLARENDON DR,FAIRFIELD,CA,94534-6419,1,1,2019-12-26,,"Auth. For Hire, ","Interstate, ","Intermodal Cont., "
3374235,,CARRIER,ACTIVE,None,AC TRANSPORT LLC,,,3344 S CANFIELD AVE APT 110,LOS ANGELES,CA,90034-2976,(323) 537-6822,,,3344 S CANFIELD AVE APT 110,LOS ANGELES,CA,90034-2976,1,1,2019-12-26,,"Auth. For Hire, ","Intrastate Only (Non-HM), ","General Freight, "
3374240,,CARRIER,ACTIVE,None,AK TRUCKING,,,10975 S VERMONT AVE,LOS ANGELES,CA,90044-3041,(424) 219-3932,,,10975 S VERMONT AVE,LOS ANGELES,CA,90044-3041,1,2,2019-12-26,,"Auth. For Hire, ","Intrastate Only (Non-HM), ","General Freight, "
3374257,,CARRIER,NOT AUTHORIZED,None,JD EXPRESS LLC,,,1303 NORTHVIEW ST,SELMA,CA,93662,(559) 486-5016,,,1303 NORTHVIEW ST,SELMA,CA,93662-4821,2,1,2019-12-26,,"Auth. For Hire, ","Interstate, ","General Freight, Fresh Produce, Commodities Dry Bulk, Refrigerated Food, "
3374259,,CARRIER,ACTIVE,None,GERARDO ANGULO,,,16397 WINDCREST DR,FONTANA,CA,92337-0840,(909) 640-8963,,,16397 WINDCREST DR,FONTANA,CA,92337-0840,1,1,2019-12-26,,"Auth. For Hire, ","Intrastate Only (Non-HM), ","General Freight, "
3374262,,CARRIER,ACTIVE,None,PIRUZA KEMERDZHYAN,PKP TRUCKING,,14741 HARTLAND ST,VAN NUYS,CA,91405-3851,(323) 819-0223,,,14741 HARTLAND ST,VAN NUYS,CA,91405-3851,11,12,2019-12-26,,"Auth. For Hire, ","Intrastate Only (Non-HM), ","General Freight, "
3374267,,CARRIER,ACTIVE,None,ZAME TRANSPORT,,,12510 WOODSIDE WAY,CHINO,CA,91710-6231,(909) 437-1456,,,4860 ELTON ST,BALDWIN PARK,CA,91706-1906,1,2,2019-12-26,,"Auth. For Hire, ","Intrastate Only (Non-HM), ","General Freight, "
3374268,,CARRIER,NOT AUTHORIZED,None,JM FELIX TRANSPORT,,,7737 BLANCHARD AVE,FONTANA,CA,92336,(909) 743-9540,,,7737 BLANCHARD AVE,FONTANA,CA,92336-2631,1,1,2019-12-26,,"Auth. For Hire, ","Interstate, ","Motor Vehicles, "
3374273,,CARRIER,ACTIVE,None,51 TRANSPORTATION INC,,,16839 MORNING DEW LN,FONTANA,CA,92336-1699,(626) 485-9135,,,16839 MORNING DEW LN,FONTANA,CA,92336-1699,1,1,2019-12-26,,"Auth. For Hire, ","Intrastate Only (Non-HM), ","General Freight, "
3374274,,CARRIER,NOT AUTHORIZED,None,MARIO ANTONIO RAZO MOSQUEDA,RAZO TRUCKING,,9765 MARCONI DR STE 107,SAN DIEGO,CA,92154,(619) 646-3795,,,9765 MARCONI DR STE 105,SAN DIEGO,CA,92154-7242,1,1,2019-12-26,,"Auth. For Hire, ","Interstate, ","General Freight, "
3374280,,CARRIER,ACTIVE,None,FELIX BUSTAMANTE,,,23080 PAHUTE RD,APPLE VALLEY,CA,92308-7417,(951) 238-0308,,,23080 PAHUTE RD,APPLE VALLEY,CA,92308-7417,1,1,2019-12-26,,"Auth. For Hire, ","Intrastate Only (Non-HM), ","General Freight, "
3374286,,CARRIER,NOT AUTHORIZED,None,XTRM 1 TRANSPORT LLC,,,5451 ACACIA AVE,GARDEN GROVE,CA,92845,(714) 595-7714,,,5451 ACACIA AVE,GARDEN GROVE,CA,92845-2305,1,1,2019-12-26,,"Auth. For Hire, ","Interstate, ","General Freight, "
3374291,,CARRIER,NOT AUTHORIZED,None,FELIX OCTAVIO LOPEZ,,,13628 LOS OLIVOS AVE,POWAY,CA,92064-5017,(619) 760-7695,,,3700 SANTA FE AVE STE 300,LONG BEACH,CA,90810-2171,1,1,2019-12-27,1 (2019),"Auth. For Hire, ","Interstate, ","General Freight, "
3374293,,CARRIER,ACTIVE,None,FERNANDO MARCO GARCIA GARCIA,BAY AREA EXPRESS TRUCKING CO,,19807 SAN MIGUEL AVE APT 3,CASTRO VALLEY,CA,94546-4254,(510) 302-7828,,,19807 SAN MIGUEL AVE APT 3,CASTRO VALLEY,CA,94546-4254,1,1,2019-12-26,,"Auth. For Hire, ","Intrastate Only (Non-HM), ","General Freight, "
3374294,,CARRIER,ACTIVE,None,JE TRUCKING,,,12301 STUDEBAKER RD APT 159,NORWALK,CA,90650-2281,(323) 919-1109,,,12301 STUDEBAKER RD APT 159,NORWALK,CA,90650-2281,1,1,2019-12-26,,"Auth. For Hire, ","Intrastate Only (Non-HM), ","General Freight, "
3374296,,CARRIER,NOT AUTHORIZED,None,YEMANE HURUY GHEBREHIWOT,PEACE TRUCKING,,265 MACARTHUR BLVD APT 5,OAKLAND,CA,94610,(510) 472-5705,,,265 MACARTHUR BLVD APT 5,OAKLAND,CA,94610-3136,1,2,2019-12-26,,"Auth. For Hire, ","Interstate, ","General Freight, "
3374298,,CARRIER,NOT AUTHORIZED,None,SWC LOGISTICS INC,,,357 GREENBERRY DR,LA PUENTE,CA,91744,(626) 848-3458,,,357 GREENBERRY DR,LA PUENTE,CA,91744-3743,1,1,2019-12-26,,"Auth. For Hire, ","Interstate, ","General Freight, Intermodal Cont., "
3374310,,CARRIER,ACTIVE,None,JOSE GABRIEL LOPEZ TRUCKING,,,130 S STINSON ST APT 112,ANAHEIM,CA,92801-6339,(714) 767-1319,,,130 S STINSON ST APT 112,ANAHEIM,CA,92801-6339,1,1,2019-12-26,,"Auth. For Hire, ","Intrastate Only (Non-HM), ","General Freight, "
3374315,,CARRIER,ACTIVE,None,ALMU TRUCKING LLC,,,425 E CASSIDY ST,CARSON,CA,90746-1129,(310) 650-4387,,,425 E CASSIDY ST,CARSON,CA,90746-1129,1,1,2019-12-26,,"Auth. For Hire, ","Intrastate Only (Non-HM), ","General Freight, Commodities Dry Bulk, Paper Products, OTHER, "
3374316,,CARRIER,ACTIVE,None,EXCLUSIVE XPRESS LLC,,,4554 W 154TH ST,LAWNDALE,CA,90260-1927,(310) 930-3089,,,4554 W 154TH ST,LAWNDALE,CA,90260-1927,1,1,2019-12-26,,"Auth. For Hire, ","Intrastate Only (Non-HM), ","General Freight, "
3374319,,CARRIER,ACTIVE,None,MEJIA TRUCKING GROUP LLC,,,411 LYONCROSS WAY,SAN JOSE,CA,95123-3421,(408) 799-0626,,,411 LYONCROSS WAY,SAN JOSE,CA,95123-3421,1,2,2019-12-26,,"Auth. For Hire, ","Intrastate Only (Non-HM), ","General Freight, "
3374321,,CARRIER,NOT AUTHORIZED,None,MOYA TRUCKING LLC,,,15526 S VERMONT AVE,GARDENA,CA,90247,(310) 432-3011,,,15526 S VERMONT AVE,GARDENA,CA,90247-4118,1,2,2019-12-26,,"Auth. For Hire, ","Interstate, ","General Freight, Intermodal Cont., "
3374327,,CARRIER,ACTIVE,None,AL RENTERIA TRUCKING,,,11463 11TH AVE,HESPERIA,CA,92345-2003,(714) 737-3341,,,11463 11TH AVE,HESPERIA,CA,92345-2003,1,1,2019-12-26,,"Auth. For Hire, ","Intrastate Only (Non-HM), ","General Freight, "
3374334,,CARRIER,ACTIVE,None,RHOADES AUTO TRANSPORT,,,500 CONNIE ST,LODI,CA,95240-3902,(209) 327-8020,,,500 CONNIE ST,LODI,CA,95240-3902,1,2,2019-12-26,,"Auth. For Hire, ","Intrastate Only (Non-HM), ","Motor Vehicles, "
3374342,,CARRIER,NOT AUTHORIZED,None,ZIZO LOGISTICS LLC,,,17777 CENTER COURT DR STE 600,CERRITOS,CA,90703,(626) 734-9686,,,17777 CENTER COURT DR STE 600,CERRITOS,CA,90703-8575,1,2,2019-12-27,,"Auth. For Hire, ","Interstate, ","General Freight, "
3374345,,CARRIER,ACTIVE,None,NDN TRANSPORTS CORP,,,11016 NEWVILLE AVE APT B,DOWNEY,CA,90241-4064,(562) 367-2967,,,11016 NEWVILLE AVE APT B,DOWNEY,CA,90241-4064,1,1,2019-12-27,,"Auth. For Hire, ","Intrastate Only (Non-HM), ","General Freight, "
3374349,,CARRIER,ACTIVE,None,TEKLEMARIAM O HIYABU,,,621 LAURA DR APT A,CAMPBELL,CA,95008-5230,(408) 438-6628,,,621 LAURA DR APT A,CAMPBELL,CA,95008-5230,1,1,2019-12-27,,"Auth. For Hire, ","Intrastate Only (Non-HM), ","Intermodal Cont., "
3374397,,CARRIER,NOT AUTHORIZED,None,M P LOGISTICS LLC,MORE POWER LOGISTICS LLC,,10330 BUFORD AVE,INGLEWOOD,CA,90304,(310) 740-9423,,,10330 BUFORD AVE,INGLEWOOD,CA,90304-1325,1,1,2019-12-27,,"Auth. For Hire, ","Interstate, ","General Freight, "
3374433,,CARRIER,NOT AUTHORIZED,None,NIJJAR CARRIER INC,,,1155 SHAYLENE CT,YUBA CITY,CA,95993,(530) 820-2461,,,1155 SHAYLENE CT,YUBA CITY,CA,95993-9271,1,1,2019-12-27,,"Auth. For Hire, ","Interstate, ","General Freight, "
3374449,,CARRIER,NOT AUTHORIZED,None,RAJA 47 TRUCKING INC,,,1525 BRIDGE ST APT 14,YUBA CITY,CA,95993,(530) 441-9812,,,1525 BRIDGE ST APT 14,YUBA CITY,CA,95993-8601,1,1,2019-12-27,,"Auth. For Hire, ","Interstate, ","General Freight, "
3374454,,CARRIER,NOT AUTHORIZED,None,MANINDER SINGH MAROK,BRAWLEY KING TRANSPORT,,1696 RIVER DR,BRAWLEY,CA,92227,(760) 391-3861,,,1696 RIVER DR,BRAWLEY,CA,92227-1746,1,1,2019-12-27,,"Auth. For Hire, ","Interstate, ","General Freight, "
3374464,,CARRIER,ACTIVE,None,MHL TRANS INC,,,5625 BLOOM DR,MARYSVILLE,CA,95901-8353,(916) 508-9358,,,5625 BLOOM DR,MARYSVILLE,CA,95901-8353,1,1,2019-12-27,,"Auth. For Hire, ","Intrastate Only (Non-HM), ","General Freight, "
3374473,,CARRIER,ACTIVE,None,ZOOM TRUCKLINES INC,,,2204 AMBER LEAF LN,CERES,CA,95307-7395,(209) 818-1299,,,2204 AMBER LEAF LN,CERES,CA,95307-7395,1,1,2019-12-27,,"Auth. For Hire, ","Intrastate Only (Non-HM), ","General Freight, "
3374502,,CARRIER,ACTIVE,None,OSCAR QUIROZ GONZALEZ,AMERICAN METAL POLISHING,,11417 CRESSON ST,NORWALK,CA,90650-7902,(562) 298-0516,,,1850 E 17TH ST STE 207,SANTA ANA,CA,92705-8625,1,1,2019-12-27,,"Auth. For Hire, ","Intrastate Only (Non-HM), ","General Freight, "
3374514,,CARRIER,ACTIVE,None,STRAIGHT SHOT TRUCKING INC,,,3708 IDAHO ST,BALDWIN PARK,CA,91706-4015,(323) 540-7581,,,3708 IDAHO ST,BALDWIN PARK,CA,91706-4015,4,4,2019-12-27,,"Auth. For Hire, ","Intrastate Only (Non-HM), ","General Freight, OTHER, "
3374515,,CARRIER,ACTIVE,None,JORGE A ZEPEDA GUIJARRO,ZEPEDA EXPRESS,,638 CUESTA CT,SOLEDAD,CA,93960-3141,(831) 455-5621,,,638 CUESTA CT,SOLEDAD,CA,93960-3141,1,1,2019-12-27,,"Auth. For Hire, ","Intrastate Only (Non-HM), ","General Freight, Machinery, Large Objects, "
3374535,,CARRIER,NOT AUTHORIZED,None,PHARE TRANSPORTATION LLC,,,1449 LOMITA BLVD UNIT 2,HARBOR CITY,CA,90710,(310) 935-9861,,,1449 LOMITA BLVD UNIT 2,HARBOR CITY,CA,90710-5416,2,2,2019-12-27,,"Auth. For Hire, ","Interstate, ","General Freight, Building Materials, Fresh Produce, Meat, Commodities Dry Bulk, Beverages, Construction, "
3374543,,CARRIER,ACTIVE,None,RAFAEL VIVEROS MORALES,R VIVEROS TRUCKING,,4320 THATCH AVE,BAKERSFIELD,CA,93313-2953,(661) 863-8520,,,4320 THATCH AVE,BAKERSFIELD,CA,93313-2953,1,1,2019-12-27,,"Auth. For Hire, ","Intrastate Only (Non-HM), ","General Freight, "
3374547,,CARRIER,ACTIVE,None,M QUEZADA TRUCKING LLC,,,1301 PACIFIC ST,BAKERSFIELD,CA,93305-4737,(661) 394-0188,,,1301 PACIFIC ST,BAKERSFIELD,CA,93305-4737,1,1,2019-12-27,,"Auth. For Hire, ","Intrastate Only (Non-HM), ","General Freight, "
3374551,,CARRIER,NOT AUTHORIZED,None,HKB TRANS INC,,,1850 CLUB CENTER DR APT 612,SACRAMENTO,CA,95835,(925) 699-4620,,,1850 CLUB CENTER DR APT 612,SACRAMENTO,CA,95835-1660,1,1,2019-12-27,,"Auth. For Hire, ","Interstate, ","General Freight, "
3374554,,CARRIER,ACTIVE,None,NEON TRANSPORT INC,,,6027 TEMPLETON ST,HUNTINGTON PK,CA,90255-3018,(323) 440-7004,,,6027 TEMPLETON ST,HUNTINGTON PK,CA,90255-3018,1,1,2019-12-27,,"Auth. For Hire, ","Intrastate Only (Non-HM), ","General Freight, "
3374556,,CARRIER,ACTIVE,None,G M R & G SONS,,,5833 GOTHAM ST,BELL GARDENS,CA,90201-5543,(310) 832-0123,,,5833 GOTHAM ST,BELL GARDENS,CA,90201-5543,1,1,2019-12-27,,"Auth. For Hire, ","Intrastate Only (Non-HM), ","General Freight, OTHER, "
3374560,,CARRIER,NOT AUTHORIZED,None,MA S RAMIREZ,MARY AND JO TRANSPORT,,518 LAWTON ST SPC 29,REDLANDS,CA,92374,(909) 767-3644,,,518 LAWTON ST SPC 29,REDLANDS,CA,92374-3075,1,1,2019-12-27,,"Auth. For Hire, ","Interstate, ","General Freight, "
3374563,,CARRIER,ACTIVE,None,NDS TRANSPORT LLC,,,17358 LAREDO VISTA AVE,PALMDALE,CA,93591-3332,(661) 449-7690,,,17358 LAREDO VISTA AVE,PALMDALE,CA,93591-3332,1,1,2019-12-27,,"Auth. For Hire, ","Intrastate Only (Non-HM), ","General Freight, US Mail, "
3374570,,CARRIER,ACTIVE,None,VINVIN LOGISTIC LLC,,,10247 WESTERN AVE APT D,DOWNEY,CA,90241-2456,(323) 864-3349,,,10247 WESTERN AVE APT D,DOWNEY,CA,90241-2456,1,2,2019-12-27,,"Auth. For Hire, ","Intrastate Only (Non-HM), ","General Freight, Intermodal Cont., "
3374579,,CARRIER,NOT AUTHORIZED,None,PEAK TRANSPORT INC,,,10655 LEMON AVE APT 4010,RCH CUCAMONGA,CA,91737,(909) 685-1555,,,10655 LEMON AVE APT 4010,RCH CUCAMONGA,CA,91737-6967,1,1,2019-12-27,,"Auth. For Hire, ","Interstate, ","Motor Vehicles, "
3374603,,CARRIER,ACTIVE,None,ASTURIAS TRANSPORT LLC,,,2729 E J4,LANCASTER,CA,93535-6171,(661) 609-2956,,,2729 E J4,LANCASTER,CA,93535-6171,1,1,2019-12-27,,"Auth. For Hire, ","Intrastate Only (Non-HM), ","General Freight, US Mail, "
3374677,,CARRIER,ACTIVE,None,E & V TRAILER REPAIR,,,18308 8TH ST,BLOOMINGTON,CA,92316-3613,(909) 237-3006,,,18308 8TH ST,BLOOMINGTON,CA,92316-3613,1,1,2019-12-27,,"Auth. For Hire, ","Intrastate Only (Non-HM), ","General Freight, "
3374681,,CARRIER,ACTIVE,None,KINA EXPEDITED TRANSPORT LLC,,,150 VALLEY ST UNIT 3044,PASADENA,CA,91105-4513,(555) 555-5555,,,150 VALLEY ST UNIT 3044,PASADENA,CA,91105-4513,1,1,2019-12-27,,"Auth. For Hire, ","Intrastate Only (Non-HM), ","General Freight, "
3374704,,CARRIER,ACTIVE,None,TAKI TRANSPORT LLC,,,2100 SANTA CRUZ CT,TORRANCE,CA,90501-4305,(562) 234-9403,,,2100 SANTA CRUZ CT,TORRANCE,CA,90501-4305,1,1,2019-12-27,,"Auth. For Hire, ","Intrastate Only (Non-HM), ","General Freight, Motor Vehicles, "
3374712,,CARRIER,ACTIVE,None,MARCELA'S TRUCKING INC,,,2763 SATURN AVE,HUNTINGTON PK,CA,90255-4839,(323) 841-1426,,,2763 SATURN AVE,HUNTINGTON PK,CA,90255-4839,1,1,2019-12-27,,"Auth. For Hire, ","Intrastate Only (Non-HM), ","General Freight, "
3374715,,CARRIER,NOT AUTHORIZED,None,B S B TRUCKING INC,,,2808 GRASSLANDS DR APT 311,SACRAMENTO,CA,95833,(916) 757-8483,,,2808 GRASSLANDS DR APT 311,SACRAMENTO,CA,95833-3591,1,1,2019-12-27,,"Auth. For Hire, ","Interstate, ","General Freight, "
3374722,,CARRIER,NOT AUTHORIZED,None,SAIGON MOVING LLC,,,10131 CABO DR,WESTMINSTER,CA,92683,(714) 658-0437,,,10131 CABO DR,WESTMINSTER,CA,92683-7075,1,2,2019-12-27,,"Auth. For Hire, ","Interstate, ","Household Goods, "
3374724,,CARRIER,ACTIVE,None,MC TRANSPOORT LLC,,,931 W ST,MERCED,CA,95341-5642,(209) 631-1839,,,931 W ST,MERCED,CA,95341-5642,1,1,2019-12-27,,"Auth. For Hire, ","Intrastate Only (Non-HM), ","General Freight, "
3374731,,CARRIER,NOT AUTHORIZED,None,IJEM TRANSPORT INC,,,3236 SAN FRANCISCO AVE,LONG BEACH,CA,90806,(562) 833-7793,,,3236 SAN FRANCISCO AVE,LONG BEACH,CA,90806-1216,1,1,2019-12-27,,"Auth. For Hire, ","Interstate, ","General Freight, "
3374732,,CARRIER,NOT AUTHORIZED,None,TALHI TRANSPORT INC,,,4918 MOORCROFT CIR,STOCKTON,CA,95206,(909) 509-1010,,,4918 MOORCROFT CIR,STOCKTON,CA,95206-6154,1,1,2019-12-27,,"Auth. For Hire, ","Interstate, ","General Freight, "
3374733,,CARRIER,ACTIVE,None,SALVADOR AYON,SALVADOR AYON TRUCKING,,6150 N PARAMOUNT BLVD,LONG BEACH,CA,90805-3712,(626) 200-3714,,,275 S CAMPUS AVE,UPLAND,CA,91786-6834,1,1,2019-12-27,,"Auth. For Hire, ","Intrastate Only (Non-HM), ","General Freight, Intermodal Cont., "
3374736,,CARRIER,NOT AUTHORIZED,None,OS XPRESS LLC,,,2790 NOSTALGIA ST,MANTECA,CA,95337,(510) 557-0445,,,2790 NOSTALGIA ST,MANTECA,CA,95337-8698,1,1,2019-12-27,,"Auth. For Hire, ","Interstate, ","General Freight, "
3374738,,CARRIER,ACTIVE,None,CRUTCH TRUCKING COMPANY LLC,,,16693 MESA ST,HESPERIA,CA,92345-2138,(951) 742-2479,,,16693 MESA ST,HESPERIA,CA,92345-2138,1,2,2019-12-27,1 (2018),"Auth. For Hire, ","Intrastate Only (Non-HM), ","General Freight, "
3374744,,CARRIER,ACTIVE,None,S JAUREGUI TRUCKING,,,928 OLIVE AVE,NATIONAL CITY,CA,91950-4129,(619) 830-9906,,,928 OLIVE AVE,NATIONAL CITY,CA,91950-4129,1,1,2019-12-27,,"Auth. For Hire, ","Intrastate Only (Non-HM), ","General Freight, Building Materials, OTHER, "
3374752,,CARRIER,ACTIVE,None,ARMANDA NEWSOME,OMEGA TRANSPORT,,2741 HILLCREST AVE # 242,ANTIOCH,CA,94531-6371,(415) 342-1783,,,2741 HILLCREST AVE # 242,ANTIOCH,CA,94531-6371,3,2,2019-12-27,,"Auth. For Hire, ","Intrastate Only (Non-HM), ","US Mail, "
3374756,,CARRIER,NOT AUTHORIZED,None,LEBE TRANS INC,,,2606 W MADISON CIR,ANAHEIM,CA,92801,(909) 720-2727,,,680 BREA CANYON RD STE 208,WALNUT,CA,91789-3005,1,1,2019-12-27,,"Auth. For Hire, ","Interstate, ","General Freight, "
3374759,,CARRIER,ACTIVE,None,ROAD INC,,,1819 JOAN WAY APT 8,SANTA CLARA,CA,95050-3632,(559) 473-9555,,,1819 JOAN WAY APT 8,SANTA CLARA,CA,95050-3632,1,1,2019-12-27,,"Auth. For Hire, ","Intrastate Only (Non-HM), ","General Freight, "
3374766,,CARRIER,NOT AUTHORIZED,None,GO ARMS TRANS INC,,,16503 TRISTAN CT,WHITTIER,CA,90603,(909) 720-2727,,,680 BREA CANYON RD STE 208,WALNUT,CA,91789-3005,1,1,2019-12-27,,"Auth. For Hire, ","Interstate, ","General Freight, "
3374767,,CARRIER,NOT AUTHORIZED,None,BAJWA TRANS LLC,,,1765 LANDESS AVE,MILPITAS,CA,95035,(408) 771-1840,,,1765 LANDESS AVE,MILPITAS,CA,95035-7019,1,1,2019-12-27,,"Auth. For Hire, ","Interstate, ","General Freight, "
3374769,,CARRIER,NOT AUTHORIZED,None,PUNIAN TRUCKING INC,,,2353 PRUNERIDGE AVE APT 12,SANTA CLARA,CA,95050,(669) 888-6148,,,2353 PRUNERIDGE AVE APT 12,SANTA CLARA,CA,95050-6455,1,1,2019-12-27,,"Auth. For Hire, ","Interstate, ","General Freight, "
3374770,,CARRIER,NOT AUTHORIZED,None,DOX EXPRESS INC,,,970 MAGNOLIA AVE APT 309,LOS ANGELES,CA,90006,(909) 720-2727,,,680 BREA CANYON RD STE 208,WALNUT,CA,91789-3005,1,1,2019-12-27,,"Auth. For Hire, ","Interstate, ","General Freight, "
3374771,,CARRIER,NOT AUTHORIZED,None,PHONG HA GIA PHAM,GIA PHONG TRUCKING,,5421 CRITTENDEN ST,OAKLAND,CA,94601,(510) 338-5040,,,5421 CRITTENDEN ST,OAKLAND,CA,94601-5712,1,1,2019-12-27,,"Auth. For Hire, ","Interstate, ","General Freight, "
3374774,,CARRIER,NOT AUTHORIZED,None,SIMMON TRUCKING INC,,,860 S ARDMORE AVE APT 109,LOS ANGELES,CA,90005,(909) 720-2727,,,680 BREA CANYON RD STE 208,WALNUT,CA,91789-3005,1,1,2019-12-27,,"Auth. For Hire, ","Interstate, ","General Freight, "
3374776,,CARRIER,ACTIVE,None,A1-TRUCKER INC,,,3634 E IMPERIAL HWY,LYNWOOD,CA,90262-2609,(323) 358-9039,,,3634 E IMPERIAL HWY,LYNWOOD,CA,90262-2609,2,4,2019-12-27,,"Auth. For Hire, ","Intrastate Only (Non-HM), ","General Freight, Intermodal Cont., "
3374792,,CARRIER,NOT AUTHORIZED,None,TANISHA RAJ,RED LINE TRANSPORT,,6465 WEST LN APT 199,STOCKTON,CA,95210,(209) 390-7995,,,6465 WEST LN APT 199,STOCKTON,CA,95210-3398,1,4,2019-12-27,,"Auth. For Hire, ","Interstate, ","General Freight, "
3374803,,CARRIER,ACTIVE,None,JAK EXPRESS INC,,,4727 STUVELING ST,PHELAN,CA,92371-8890,(714) 864-4998,,,4727 STUVELING ST,PHELAN,CA,92371-8890,1,1,2019-12-28,,"Auth. For Hire, ","Intrastate Only (Non-HM), ","General Freight, Intermodal Cont., "
3374810,,CARRIER,ACTIVE,None,R DELIVERIES,,,396 S CALIFORNIA AVE UNIT 324,WEST COVINA,CA,91793-3412,(562) 674-6637,,,396 S CALIFORNIA AVE UNIT 324,WEST COVINA,CA,91793-3412,1,4,2019-12-28,,"Auth. For Hire, ","Intrastate Only (Non-HM), ","Household Goods, "
3374825,,CARRIER,ACTIVE,None,SLICK LP INC,,,2173 CALIFORNIA ST APT 5,REDDING,CA,96001-2651,(530) 356-7817,,,2173 CALIFORNIA ST APT 5,REDDING,CA,96001-2651,1,1,2019-12-28,,"Auth. For Hire, ","Intrastate Only (Non-HM), ","OTHER, "
3374841,,CARRIER,ACTIVE,None,PEREZCHICA & SONS LLC,,,898 W TULARE RD,LINDSAY,CA,93247-1437,(661) 619-1848,,,898 W TULARE RD,LINDSAY,CA,93247-1437,2,2,2019-12-28,,"Auth. For Hire, ","Intrastate Only (Non-HM), ","General Freight, Fresh Produce, Commodities Dry Bulk, "
3374854,,CARRIER,ACTIVE,None,R CERVANTES TRUCKING INC,,,559 S BACKTON AVE,LA PUENTE,CA,91744-5707,(626) 392-8948,,,559 S BACKTON AVE,LA PUENTE,CA,91744-5707,1,1,2019-12-28,,"Auth. For Hire, ","Intrastate Only (Non-HM), ","General Freight, "
3374861,,CARRIER,NOT AUTHORIZED,None,JAPJI TRANS INC,,,2371 RIO GRANDE DR,TRACY,CA,95377,(661) 447-9288,,,2371 RIO GRANDE DR,TRACY,CA,95377-8471,1,1,2019-12-28,,"Auth. For Hire, ","Interstate, ","General Freight, "
3374868,,CARRIER,NOT AUTHORIZED,None,NETO EXPRESS LLC,,,7536 GOODLAND AVE,HOLLYWOOD,CA,91605,(818) 325-5615,,,7536 GOODLAND AVE,HOLLYWOOD,CA,91605-2036,1,1,2019-12-28,,"Auth. For Hire, ","Interstate, ","General Freight, "
3374870,,CARRIER,NOT AUTHORIZED,None,SAJJAD ALI,H&H TRUCKING,,8417 KILTIE WAY,STOCKTON,CA,95210,(209) 200-2360,,,8417 KILTIE WAY,STOCKTON,CA,95210-2342,1,1,2019-12-28,,"Auth. For Hire, ","Interstate, ","General Freight, "
3374876,,CARRIER,NOT AUTHORIZED,None,YORK TRANS INC,,,2110 PROMISE WAY,SACRAMENTO,CA,95835,(916) 430-3594,,,2110 PROMISE WAY,SACRAMENTO,CA,95835-2103,1,1,2019-12-28,,"Auth. For Hire, ","Interstate, ","General Freight, "
3374882,,CARRIER,ACTIVE,None,LIZOD TRANSPORT SERVICES LLC,,,3377 CALIFORNIA AVE,SIGNAL HILL,CA,90755-4605,(714) 710-3022,,,3377 CALIFORNIA AVE,SIGNAL HILL,CA,90755-4605,1,1,2019-12-28,,"Auth. For Hire, ","Intrastate Only (Non-HM), ","General Freight, "
3374904,,CARRIER,ACTIVE,None,EDDIE-TAKER TRUCKING LLC,,,3377 CALIFORNIA AVE,SIGNAL HILL,CA,90755-4605,(562) 618-8412,,,3377 CALIFORNIA AVE,SIGNAL HILL,CA,90755-4605,1,1,2019-12-28,,"Auth. For Hire, ","Intrastate Only (Non-HM), ","General Freight, "
3374906,,CARRIER,NOT AUTHORIZED,None,CHP TECH INC,,,65071 CLIFF CIR,DSRT HOT SPGS,CA,92240,(310) 634-6938,,,65071 CLIFF CIR,DSRT HOT SPGS,CA,92240-1445,1,1,2019-12-28,,"Auth. For Hire, ","Interstate, ","General Freight, "
3374908,,CARRIER,ACTIVE,None,CMA TRUCKING LLC,,,3377 CALIFORNIA AVE,SIGNAL HILL,CA,90755-4605,(562) 253-4152,,,3377 CALIFORNIA AVE,SIGNAL HILL,CA,90755-4605,1,1,2019-12-28,,"Auth. For Hire, ","Intrastate Only (Non-HM), ","General Freight, "
3374913,,CARRIER,ACTIVE,None,PKA'S TRUCKING LLC,,,3377 CALIFORNIA AVE,SIGNAL HILL,CA,90755-4605,(213) 494-7314,,,3377 CALIFORNIA AVE,SIGNAL HILL,CA,90755-4605,1,1,2019-12-28,,"Auth. For Hire, ","Intrastate Only (Non-HM), ","General Freight, "
3374915,,CARRIER,ACTIVE,None,J A TRUCKING LLC,,,3377 CALIFORNIA AVE,SIGNAL HILL,CA,90755-4605,(323) 598-9399,,,3377 CALIFORNIA AVE,SIGNAL HILL,CA,90755-4605,1,1,2019-12-28,,"Auth. For Hire, ","Intrastate Only (Non-HM), ","General Freight, "
3374916,,CARRIER,ACTIVE,None,PIMENTEL TRANSPORTATION LLC,,,3377 CALIFORNIA AVE,SIGNAL HILL,CA,90755-4605,(231) 494-7314,,,3377 CALIFORNIA AVE,SIGNAL HILL,CA,90755-4605,1,1,2019-12-28,,"Auth. For Hire, ","Intrastate Only (Non-HM), ","General Freight, "
3374917,,CARRIER,ACTIVE,None,MAKAYA'S LOGISTICS LLC,,,3377 CALIFORNIA AVE,SIGNAL HILL,CA,90755-4605,(323) 972-4299,,,3377 CALIFORNIA AVE,SIGNAL HILL,CA,90755-4605,1,1,2019-12-28,,"Auth. For Hire, ","Intrastate Only (Non-HM), ","General Freight, "
3374919,,CARRIER,ACTIVE,None,TEMO TRUCKING INC,,,474 NATIVIDAD RD,SALINAS,CA,93906-1403,(831) 756-3846,,,474 NATIVIDAD RD,SALINAS,CA,93906-1403,1,1,2019-12-28,,"Auth. For Hire, ","Intrastate Only (Non-HM), ","General Freight, Garbage/Refuse, "
3374923,,CARRIER,ACTIVE,None,PAPA'KAR LOGISTICS LLC,,,3377 CALIFORNIA AVE,SIGNAL HILL,CA,90755-4605,(213) 494-7314,,,3377 CALIFORNIA AVE,SIGNAL HILL,CA,90755-4605,1,1,2019-12-28,,"Auth. For Hire, ","Intrastate Only (Non-HM), ","General Freight, "
3374925,,CARRIER,ACTIVE,None,SNOOPY TRUCKING LLC,,,3377 CALIFORNIA AVE,SIGNAL HILL,CA,90755-4605,(213) 494-7314,,,3377 CALIFORNIA AVE,SIGNAL HILL,CA,90755-4605,1,1,2019-12-28,,"Auth. For Hire, ","Intrastate Only (Non-HM), ","General Freight, "
3374927,,CARRIER,NOT AUTHORIZED,None,CHACON TRANSPORT LLC,,,215 S IRIS ST,SN BERNRDNO,CA,92410,(909) 999-4765,,,215 S IRIS ST,SN BERNRDNO,CA,92410-2270,1,1,2019-12-28,,"Auth. For Hire, ","Interstate, ","General Freight, Intermodal Cont., "
3374945,,CARRIER,ACTIVE,None,ESPERANZA TRUCKING SERVICES LLC,,,3377 CALIFORNIA AVE,SIGNAL HILL,CA,90755-4605,(213) 494-7314,,,3377 CALIFORNIA AVE,SIGNAL HILL,CA,90755-4605,1,1,2019-12-28,,"Auth. For Hire, ","Intrastate Only (Non-HM), ","General Freight, "
3374947,,CARRIER,ACTIVE,None,KRL TRUCKING LLC,,,3377 CALIFORNIA AVE,SIGNAL HILL,CA,90755-4605,(213) 494-7314,,,3377 CALIFORNIA AVE,SIGNAL HILL,CA,90755-4605,1,1,2019-12-28,,"Auth. For Hire, ","Intrastate Only (Non-HM), ","General Freight, "
3374949,,CARRIER,ACTIVE,None,GALLO TRANSPORT LLC,,,3377 CALIFORNIA AVE,SIGNAL HILL,CA,90755-4605,(213) 494-7314,,,3377 CALIFORNIA AVE,SIGNAL HILL,CA,90755-4605,1,1,2019-12-29,,"Auth. For Hire, ","Intrastate Only (Non-HM), ","General Freight, "
