USDOT,MC_no,MCS 150,Entity_type,Operating_status,Out_of_service,Legal_name,Dba_name,Contact_name,Physical_address,Physical_city,Physical_state,Physical_zip,Business_phone,Mobile_number,Email_address,Mailing_address,Mailing_city,Mailing_state,Mailing_zip,Power units,Drivers,Mileage (Year),Operation_classification,Carrier_operation,Cargo_carried
3385310,,2020-01-22,CARRIER,NOT AUTHORIZED,None,JC FREIGHT EXPRESS INC,,,2950 S LA BREA AVE,LOS ANGELES,CA,90016,(310) 505-8288,,,2950 S LA BREA AVE,LOS ANGELES,CA,90016,1,1,,Auth. For Hire ,Interstate ,"General Freight, Intermodal Cont., "
3385311,,2020-01-22,CARRIER,NOT AUTHORIZED,None,SAINT-P LOGISTICS INC,,,441 W 3RD ST APT 212,SAN PEDRO,CA,90731,(323) 745-9602,,,441 W 3RD ST APT 212,SAN PEDRO,CA,90731,1,1,,Auth. For Hire ,Interstate ,"General Freight, "
3385312,,2020-01-22,CARRIER,ACTIVE,None,BIGFOOT DELIVERY LLC,,,10 CEDRO CIR,SACRAMENTO,CA,95833,(805) 888-7928,,,10 CEDRO CIR,SACRAMENTO,CA,95833,1,14,,Auth. For Hire ,Intrastate  ,"General Freight, Household Goods, "
3385313,,2020-01-22,CARRIER,ACTIVE,None,D DART INC,,,230 N GARFIELD AVE STE D12,MONTEREY PARK,CA,91754,(626) 476-4280,,,230 N GARFIELD AVE STE D12,MONTEREY PARK,CA,91754,1,1,,Auth. For Hire ,Intrastate  ,"General Freight, "
3385315,,2020-01-22,CARRIER,NOT AUTHORIZED,None,MEET TRANSPORT INC,,,18314 DEVLIN AVE,ARTESIA,CA,90701,(562) 735-9716,,,18314 DEVLIN AVE,ARTESIA,CA,90701,1,1,,Auth. For Hire ,Interstate ,"General Freight, "
3385375,,2020-01-22,CARRIER,NOT AUTHORIZED,None,FENIX EXPRESS TRANSPORTATION LLC,,,433 PLAZA REAL STE 275,BOCA RATON,FL,33432,(405) 792-6946,,,433 PLAZA REAL STE 275,BOCA RATON,FL,33432,1,2,,Auth. For Hire ,Interstate ,"General Freight, Building Materials, Fresh Produce, Intermodal Cont., Grain, Feed, Hay, Meat, Commodities Dry Bulk, Refrigerated Food, Beverages, Paper Products, Construction, "
3385465,,2020-01-22,CARRIER,NOT AUTHORIZED,None,JULIO ALBERTO HERNANDEZ,,,9822 ACACIA AVE APT 12,GARDEN GROVE,CA,92841,(714) 862-8163,,,9822 ACACIA AVE APT 12,GARDEN GROVE,CA,92841,1,1,,Auth. For Hire ,Interstate ,"General Freight, "
3385480,,2020-01-22,CARRIER,NOT AUTHORIZED,None,APS TRANSPORT LLC,,,9125 CERRITOS AVE APT 10,ANAHEIM,CA,92804,(714) 366-8997,,,9125 CERRITOS AVE APT 10,ANAHEIM,CA,92804,1,1,,Auth. For Hire ,Interstate ,"General Freight, Intermodal Cont., "
3385487,,2020-01-22,CARRIER,NOT AUTHORIZED,None,GACHUZO GROUP LLC,,,5823 AMETHYST WAY,FONTANA,CA,92336,(714) 720-2386,,,5823 AMETHYST WAY,FONTANA,CA,92336,1,1,,Auth. For Hire ,Interstate ,"General Freight, Intermodal Cont., "
3385507,,2020-01-22,CARRIER,NOT AUTHORIZED,None,NAVJOT TRANSPORT INC,,,951 LINCOLN RD APT 5,YUBA CITY,CA,95991,(206) 471-3829,,,1000 LINCOLN RD STE H,YUBA CITY,CA,95991,1,1,,Auth. For Hire ,Interstate ,"General Freight, "
3385533,,2020-01-22,CARRIER,ACTIVE,None,MENESES TRANSPORT LLC,,,24593 SUPERIOR AVE,MORENO VALLEY,CA,92551,(951) 337-5561,,,24593 SUPERIOR AVE,MORENO VALLEY,CA,92551,1,1,,Auth. For Hire ,Intrastate  ,"General Freight, "
3385535,,2020-01-22,CARRIER,ACTIVE,None,EBEN-EZER EDDIE TRANSPORT LLC,,,5521 N EDENFIELD AVE,AZUSA,CA,91702,(626) 367-8224,,,5521 N EDENFIELD AVE,AZUSA,CA,91702,1,1,,Auth. For Hire ,Intrastate  ,"General Freight, "
3385539,,2020-01-22,CARRIER,ACTIVE,None,MONROY TRANSPORT LLC,,,511 E SAN YSIDRO BLVD APT 1557,SAN YSIDRO,CA,92173,(405) 792-6946,,,511 E SAN YSIDRO BLVD APT 1557,SAN YSIDRO,CA,92173,1,1,,Auth. For Hire ,Intrastate  ,"OTHER, "
3385541,,2020-01-22,CARRIER,NOT AUTHORIZED,None,R VALA TRUCKING LLC,,,8922 BURKE AVE,SOUTH GATE,CA,90280,(323) 947-7666,,,8922 BURKE AVE,SOUTH GATE,CA,90280,1,2,,Auth. For Hire ,Interstate ,"General Freight, "
3385548,,2020-01-22,CARRIER,NOT AUTHORIZED,None,KELVIN DWAYNE COOPER,COOP'S TRUCKING,,2242 MIDDLEBURY WAY,STOCKTON,CA,95212,(209) 598-9722,,,2242 MIDDLEBURY WAY,STOCKTON,CA,95212,1,1,,Auth. For Hire ,Interstate ,"General Freight, "
3385562,,2020-01-22,CARRIER,ACTIVE,None,JL SOLARES LLC,,,10406 FIRMONA AVE,INGLEWOOD,CA,90304,(310) 864-1640,,,10406 FIRMONA AVE,INGLEWOOD,CA,90304,1,1,,Auth. For Hire ,Intrastate  ,"General Freight, "
3385572,,2020-01-22,CARRIER,NOT AUTHORIZED,None,LEE'S LOGISTICS INC,,,1138 GLEN ABBEY DR,MANTECA,CA,95336,(209) 483-8972,,,1138 GLEN ABBEY DR,MANTECA,CA,95336,1,1,1 (2019),Auth. For Hire ,Interstate ,"General Freight, "
3385574,,2020-01-22,CARRIER,ACTIVE,None,URBIETA SOLUTIONS LLC,,,400 E MANCHESTER AVE,LOS ANGELES,CA,90003,(323) 691-7021,,,400 E MANCHESTER AVE,LOS ANGELES,CA,90003,1,1,,Auth. For Hire ,Intrastate  ,"General Freight, "
3385589,,2020-01-22,CARRIER,NOT AUTHORIZED,None,JUAN JOSE MUNOZ,JJJA TRUCKING GP,,7001 GRANGER AVE,BELL GARDENS,CA,90201,(213) 300-6063,,,7001 GRANGER AVE,BELL GARDENS,CA,90201,1,8,,Auth. For Hire ,Interstate ,"General Freight, Intermodal Cont., Construction, "
3385625,,2020-01-22,CARRIER,ACTIVE,None,ESCAMILLA XPRESS LLC,,,3262 FLOWER ST,LYNWOOD,CA,90262,(310) 292-7478,,,3262 FLOWER ST,LYNWOOD,CA,90262,1,1,,Auth. For Hire ,Intrastate  ,"General Freight, "
3385629,,2020-01-22,CARRIER,NOT AUTHORIZED,None,PRIDEMARK GLOBAL INC,,,9420 LEMON AVE,TEMPLE CITY,CA,91780,(626) 298-5499,,,9420 LEMON AVE,TEMPLE CITY,CA,91780,1,1,,Auth. For Hire ,Interstate ,"General Freight, "
3385632,,2020-01-22,CARRIER,ACTIVE,None,CORREA TRANSPORTATION LLC,,,415 DE MORENO,DELANO,CA,93215,(661) 667-7098,,,415 DE MORENO,DELANO,CA,93215,1,2,,Auth. For Hire ,Intrastate  ,"General Freight, "
3385637,,2020-01-22,CARRIER,NOT AUTHORIZED,None,PEARLS TRUCKING INC,,,1595 CAPITOLA CIR,STOCKTON,CA,95206,(209) 623-9828,,,1595 CAPITOLA CIR,STOCKTON,CA,95206,1,1,,Auth. For Hire ,Interstate ,"General Freight, "
3385687,,2020-01-22,CARRIER,ACTIVE,None,SANTIAGO ROJAS TRUCKING LLC,,,13409 MIDLAND RD APT 19,POWAY,CA,92064,(858) 568-3683,,,13409 MIDLAND RD APT 19,POWAY,CA,92064,1,1,1 (2019),Auth. For Hire ,Intrastate  ,"General Freight, "
3385689,,2020-01-22,CARRIER,ACTIVE,None,AGUIRRES DISTRIBUTION INC,,,4924 COMPTON AVE UNIT A,LOS ANGELES,CA,90011,(323) 983-1384,,,4924 COMPTON AVE UNIT A,LOS ANGELES,CA,90011,1,1,,Auth. For Hire ,Intrastate  ,"General Freight, "
3385706,,2020-01-22,CARRIER,ACTIVE,None,TAXINASTLA TRUCKING LLC,,,9228 PEPPER AVE,FONTANA,CA,92335,(909) 452-0350,,,9228 PEPPER AVE,FONTANA,CA,92335,1,1,,Auth. For Hire ,Intrastate  ,"General Freight, "
3385724,,2020-01-22,CARRIER,ACTIVE,None,RICARDO HERNANDEZ JR,,,2252 MOGUL AVE,SANTA MARIA,CA,93458,(806) 878-5295,,,"PO BOX 9023
SANTA MARIA, CA   93456-9023",,,,0,1,,Auth. For Hire ,Intrastate  ,"General Freight, "
3385739,,2020-01-22,CARRIER,NOT AUTHORIZED,None,JUAN CARLOS SERRANO,JCAAS TRANSPORT,,2550 RUBY DR,OXNARD,CA,93030,(805) 657-0716,,,2550 RUBY DR,OXNARD,CA,93030,1,1,,Auth. For Hire ,Interstate ,"Motor Vehicles, "
3385742,,2020-01-22,CARRIER,ACTIVE,None,DESNI TRANSPORT LLC,,,1820 BAKER AVE,ESCALON,CA,95320,(209) 872-9051,,,1820 BAKER AVE,ESCALON,CA,95320,1,1,,Auth. For Hire ,Intrastate  ,"General Freight, "
3385743,,2020-01-22,CARRIER,ACTIVE,None,FAST TRANSPORT LLC,,,334 E 102ND ST,LOS ANGELES,CA,90003,(323) 437-8956,,,334 E 102ND ST,LOS ANGELES,CA,90003,1,1,,Auth. For Hire ,Intrastate  ,"General Freight, "
3385749,,2020-01-22,CARRIER,NOT AUTHORIZED,None,YAIR MEDINA AVILA,LOGISTICA NORTEC,,9785 MARCONI DR STE N,SAN DIEGO,CA,92154,(619) 398-5813,,,9785 MARCONI DR STE N,SAN DIEGO,CA,92154,1,1,,Auth. For Hire ,Interstate ,"General Freight, "
3385758,,2020-01-22,CARRIER,ACTIVE,None,INFINITY MOVING LLC,INFINITY MOVING AND TRANSPORT,,624 PASTURE AVE,LATHROP,CA,95330,(408) 306-5408,,,624 PASTURE AVE,LATHROP,CA,95330,0,4,,Auth. For Hire ,Intrastate  ,"General Freight, Household Goods, Garbage/Refuse, Utilities, "
3385772,,2020-01-22,CARRIER,ACTIVE,None,RAMON REYES TRUCKING LLC,,,5542 HOLMES AVE,LOS ANGELES,CA,90058,(323) 608-0265,,,5542 HOLMES AVE,LOS ANGELES,CA,90058,1,1,,Auth. For Hire ,Intrastate  ,"General Freight, Intermodal Cont., "
3385776,,2020-01-22,CARRIER,ACTIVE,None,BK TRANSPORTATION INC,,,17409 CITRONIA ST,NORTHRIDGE,CA,91325,(310) 930-5311,,,17409 CITRONIA ST,NORTHRIDGE,CA,91325,1,1,,Auth. For Hire ,Intrastate  ,"General Freight, "
3385783,,2020-01-22,CARRIER,ACTIVE,None,AXEL DAVID ABAJ BERNAL,,,4101 MIRA LOMA WAY,SAN JOSE,CA,95111,(408) 679-6360,,,4101 MIRA LOMA WAY,SAN JOSE,CA,95111,1,1,,Auth. For Hire ,Intrastate  ,"General Freight, "
3385802,,2020-01-22,CARRIER,ACTIVE,None,DIFAROS TRANSPORT LLC,,,10506 COLUMBIA FALLS DR,BAKERSFIELD,CA,93312,(626) 407-5965,,,10506 COLUMBIA FALLS DR,BAKERSFIELD,CA,93312,1,1,,Auth. For Hire ,Intrastate  ,"General Freight, "
3385804,,2020-01-22,CARRIER,ACTIVE,None,SAS TRANSPORT INC,,,906 MCFARLAND AVE,WILMINGTON,CA,90744,(310) 283-4047,,,906 MCFARLAND AVE,WILMINGTON,CA,90744,2,5,,Auth. For Hire ,Intrastate  ,"Intermodal Cont., "
3385806,,2020-01-22,CARRIER,NOT AUTHORIZED,None,TERA ENTERPRISE,,,25205 CYPRESS ST APT 14,LOMITA,CA,90717,(310) 713-7921,,,25205 CYPRESS ST APT 14,LOMITA,CA,90717,1,1,,Auth. For Hire ,Interstate ,"General Freight, "
3385811,,2020-01-22,CARRIER,ACTIVE,None,BRINKMAN & SONS SPREADING INC,,,34309 158,VISALIA,CA,93292,(559) 799-3846,,,34309 158,VISALIA,CA,93292,1,1,,Auth. For Hire ,Intrastate  ,"Agricultural/Farm Supplies, "
3385821,,2020-01-22,CARRIER,ACTIVE,None,MICAEL TESFAI MILAT,,,4315 ADELINE ST,OAKLAND,CA,94608,(510) 283-7727,,,4315 ADELINE ST,OAKLAND,CA,94608,1,1,,Auth. For Hire ,Intrastate  ,"General Freight, "
3385823,,2020-01-22,CARRIER,ACTIVE,None,A JAILYN TRANSPORT INC,DOUBLE A HOTSHOT SERVICES,,8701 GRAPE ST,LOS ANGELES,CA,90002,(323) 323-5091,,,8701 GRAPE ST,LOS ANGELES,CA,90002,1,1,,Auth. For Hire ,Intrastate  ,"General Freight, "
3385824,,2020-01-22,CARRIER,ACTIVE,None,CARLOS OSMIN RAMIREZZELAYA,EL CUERVO EXPRESS,,2300 DAYTON AVE,BAKERSFIELD,CA,93304,(951) 934-1011,,,2300 DAYTON AVE,BAKERSFIELD,CA,93304,1,1,,Auth. For Hire ,Intrastate  ,"General Freight, "
3385835,,2020-01-22,CARRIER,ACTIVE,None,YURY A MOLINA,CAMEY & SON'S TRUCKING,,815 S OSAGE AVE,INGLEWOOD,CA,90301,(310) 344-8870,,,815 S OSAGE AVE,INGLEWOOD,CA,90301,1,1,,Auth. For Hire ,Intrastate  ,"General Freight, "
3385842,,2020-01-22,CARRIER,ACTIVE,None,CJL LOGISTICS INC,,,28018 FOXLANE DR,CANYON CNTRY,CA,91351,(661) 974-9123,,,1700 SANTA FE AVE STE 206,LONG BEACH,CA,90813,1,1,,Auth. For Hire ,Intrastate  ,"General Freight, "
3385846,,2020-01-22,CARRIER,ACTIVE,None,HJ GILL EXPRESS INC,,,4036 CHIAVARI WAY,MANTECA,CA,95337,(510) 750-3808,,,4036 CHIAVARI WAY,MANTECA,CA,95337,1,1,,Auth. For Hire ,Intrastate  ,"General Freight, "
3385852,,2020-01-22,CARRIER,NOT AUTHORIZED,None,FREIGHT 2 FREIGHT EXPRESS LLC,,,3507 W STETSON AVE UNIT 267,HEMET,CA,92545,(951) 445-8306,,,22364 ALESSANDRO BLVD,MORENO VALLEY,CA,92553,1,2,,Auth. For Hire ,Interstate ,"General Freight, "
3385853,,2020-01-22,CARRIER,ACTIVE,None,PORT LOGISTICS EXPRESS INC,,,2654 DELTA AVE,ROSEMEAD,CA,91770,(909) 720-2727,,,2654 DELTA AVE,ROSEMEAD,CA,91770,1,1,,Auth. For Hire ,Intrastate  ,"General Freight, "
3385861,,2020-01-22,CARRIER,ACTIVE,None,MEJIAS LOGISTIC INC,,,612 N ALEXANDRIA AVE APT 3,LOS ANGELES,CA,90004,(909) 720-2727,,,612 N ALEXANDRIA AVE APT 3,LOS ANGELES,CA,90004,1,1,,Auth. For Hire ,Intrastate  ,"General Freight, "
3385864,,2020-01-22,CARRIER,ACTIVE,None,GAYTAN TRANSPORTATION LLC,,,6614 ORCHARD AVE,BELL,CA,90201,(323) 506-0935,,,6614 ORCHARD AVE,BELL,CA,90201,0,1,,Auth. For Hire ,Intrastate  ,"General Freight, "
3385869,,2020-01-22,CARRIER,NOT AUTHORIZED,None,GILDA TORRES,A TO Z TOURS,,3343 L ST,"SAN DIEGO
 SAN DIEGO",CA,92102,(619) 362-6949,,,6965 MAQUILADORA STE G,SAN DIEGO,CA,92154,1,1,,Auth. For Hire ,Interstate ,"Passengers, "
3385874,,2020-01-22,CARRIER,ACTIVE,None,FASTRANS SHUTTLE LLC,,,25 IBIZA,"AISLE
 IRVINE",CA,92614,(323) 747-9301,,,25 IBIZA,"AISLE
 IRVINE",CA,92614,"100,052",0,,Auth. For Hire ,Intrastate  ,"Passengers, OTHER, "
3385881,,2020-01-23,CARRIER,NOT AUTHORIZED,None,CARRILLO INTERSTATE LLC,,,9201 SAN CARLOS AVE APT A,SOUTH GATE,CA,90280,(323) 384-4912,,,9201 SAN CARLOS AVE APT A,SOUTH GATE,CA,90280,1,4,,Auth. For Hire ,Interstate ,"General Freight, "
