USDOT,MC_docket#,entity_type,operating_status,out_of_service,legal_name,dba_name,contact_name,physical_address,business_phone,mobile_number,email_address,mailnig_address,power units,drivers,mcs 150,Mileage (Year),operation_classification,carrier_operation,cargo_carried
3334442,,CARRIER,NOT AUTHORIZED,None,TEXAS STAR ASSOCIATES & LOGISTICS LLC,,TEXAS STAR ASSOCIATES & LOGISTICS LLC,"1572 FLYING JIB DR
AZLE, TX   76020",(817) 917-6001,(817) 917-6001,BETTY.HORTON@HOTMAIL.COM,"PO BOX 1432
LAKE DALLAS, TX   75065",1,4,2019-11-13,,"Auth. For Hire, ","Interstate, ","General Freight, Building Materials, Machinery, Large Objects, Oilfield Equipment, Construction, "
3335414,,CARRIER,NOT AUTHORIZED,None,TRAINED TO GO TRANSPORTS INC,,TRAINED TO GO TRANSPORTS INC,"904 RED TAILS DRIVE
AUSTIN, TX   78725",(512) 560-5338,(512) 786-8884,TRAINEDTOGOINC@GMAIL.COM,"904 RED TAILS DRIVE
AUSTIN, TX   78725",1,2,2019-11-12,1 (2018),"Auth. For Hire, ","Interstate, ","General Freight, Logs, Poles, Beams, Lumber, Building Materials, Machinery, Large Objects, Construction, "
3335680,,CARRIER,ACTIVE,None,JORGE ALBERTO ESPINOZA MARTINEZ,MARES SERVICES,JORGE ALBERTO MARTINEZ,"2017 11TH ST
PORT ARTHUR, TX   77642",(409) 543-6289,(409) 543-6289,GORGEM62@YAHOO.COM,"2017 11TH ST
PORT ARTHUR, TX   77642",1,1,2019-11-14,"1,000 (2018)","Auth. For Hire, ","Intrastate Only (Non-HM), ","SAND & GRAVEL, "
3336093,,CARRIER,ACTIVE,None,LOGITEX TRANSPORTATION LLC,,LOGITEX TRANSPORTATION LLC,"9715 MONTE CRISTO ROAD
MCALLEN, TX   78573",(956) 217-9422,(956) 217-9422,JANDMBROKERAGE@GMAIL.COM,"9715 MONTE CRISTO ROAD
MCALLEN, TX   78573",2,2,2019-11-20,,"Auth. For Hire, ","Intrastate Only (Non-HM), ","General Freight, Fresh Produce, Meat, Refrigerated Food, Beverages, "
3336803,,CARRIER,NOT AUTHORIZED,None,RHINO HAULING LLC,,RHINO HAULING LLC,"1364 RILLING RD
SAN ANTONIO, TX   78214",(210) 749-9676,(210) 749-9676,GLASSHOUSETOWER@GMAIL.COM,"1364 RILLING RD
SAN ANTONIO, TX   78214",2,4,2019-11-22,1 (2018),"Auth. For Hire, ","Interstate, ","General Freight, Oilfield Equipment, Construction, "
3337240,,CARRIER,ACTIVE,None,EVELIO SALAZAR,EAGLE CREEK TRUCKING,EVELIO SALAZAR,"1255 FM 1588
EAGLE PASS, TX   78852",(830) 213-6908,(830) 752-5031,SALAZAREVELIO16@ICLOUD.COM,"1255 FM 1588
EAGLE PASS, TX   78852",1,1,2019-11-21,"10,000 (2019)","Auth. For Hire, ","Intrastate Only (Non-HM), ","SAND AND GRAVEL, "
3339059,,CARRIER,NOT AUTHORIZED,None,GERALD RODRIQUEZ,BROTHERS DELIVERY,GERALD RODRIQUEZ,"702 WEEPING OAKS LN
SPRING, TX   77388",(281) 217-4763,(941) 584-9868,INFO@DOTORDER.INFO,"702 WEEPING OAKS LN
SPRING, TX   77388-8918",1,1,2019-11-21,1 (2019),"Auth. For Hire, ","Interstate, ","General Freight, "
3339589,,CARRIER,NOT AUTHORIZED,None,IND LOGISTICS LLC,,IND LOGISTICS LLC,"212 W 10TH ST STE A205
INDIANAPOLIS, IN   46202",(317) 279-6902,(317) 279-6902,JSIEMIANOWSKI@ALGWORLDWIDE.COM,"11501 CEDAR OAK DR
EL PASO, TX   79936-6028",1,1,2019-11-19,,"Auth. For Hire, ","Interstate, ","General Freight, Construction, "
3339966,,CARRIER,ACTIVE,None,GREY WOLF EXPRESS LLC,,GREY WOLF TRANSPORTATION LLC,"3016 STONEVIEW
EDINBURG, TX   78541-8131",(956) 429-8310,(956) 429-8310,EDUARDO.ORTIZ1990@HOTMAIL.COM,"3016 STONEVIEW
EDINBURG, TX   78541-8131",1,1,2019-11-15,,"Auth. For Hire, ","Intrastate Only (Non-HM), ","Motor Vehicles, "
3340266,,CARRIER,NOT AUTHORIZED,None,NIKITA JOHNSON,NJ SERVICE & OPERATIONS LLC,NIKITA JOHNSON,"1276 OLD OAK DR
CEDAR HILL, TX   75104",(214) 529-1045,(214) 529-1045,NIKITAJOHNSON_2@HOTMAIL.COM,"1276 OLD OAK DR
CEDAR HILL, TX   75104-5452",3,6,2019-11-14,,"Auth. For Hire, ","Interstate, ","General Freight, "
3340747,,CARRIER,ACTIVE,None,MAJOR MOVE TRANSPORTATION LLC,,MAJOR MOVE TRANSPORTAION,"1911 LOST CREEK DR
ARLINGTON, TX   76006-6621",(682) 465-6190,(682) 465-6190,MAJORMOVETRANSPORTATION@YAHOO.COM,"1911 LOST CREEK DR
ARLINGTON, TX   76006-6621",1,1,2019-11-19,"965,662 (2019)","Auth. For Hire, ","Intrastate Only (Non-HM), ","General Freight, Fresh Produce, Meat, "
3341333,,CARRIER,ACTIVE,None,RANDY HERNANDEZ RUIZ,R&A TRUCK,RANDY HERNANDEZ RUIZ,"1047 CAROLINA WREN CIR
HOUSTON, TX   77073-1577",(786) 587-8926,(786) 587-8926,SERVICIODOT@GMAIL.COM,"1047 CAROLINA WREN CIR
HOUSTON, TX   77073-1577",1,1,2019-11-21,,"Auth. For Hire, ","Intrastate Only (Non-HM), ","OTHER, "
3341810,,CARRIER,ACTIVE,None,ROSAS & ROSAS LLC,COLLEGE HUNKS HAULING JUNK & MOVING,ROSAS & ROSAS LLC,"11400 HWY 30 STE 404
COLLEGE STATION, TX   77845",(254) 716-0525,(254) 716-0525,JEREMY.ROSAS@CHHJ.COM,"11400 HWY 30 STE 404
COLLEGE STATION, TX   77845",2,1,2019-11-12,1 (2018),"Auth. For Hire, ","Intrastate Only (Non-HM), ","General Freight, Household Goods, "
3342149,,CARRIER,NOT AUTHORIZED,None,GULF FREIGHT MANAGEMENT,GULF FREIGHT MANAGEMENT LLC GULF FREIGHT MANAGEMENT TEXAS,GULF FREIGHT MANAGEMENT,"1755 FEDERAL RD GFM ADMIN BLDG
HOUSTON, TX   77015",(713) 451-0008,(713) 451-0008,RANDY.BERNDT@GFM-LLC.COM,"1755 FEDERAL RD GFM ADMIN BLDG
HOUSTON, TX   77015-6794",2,2,2019-11-19,1 (2018),"Auth. For Hire, ","Interstate, ","General Freight, Machinery, Large Objects, Oilfield Equipment, Utilities, Construction, "
3342555,,CARRIER,NOT AUTHORIZED,None,TRAN TOWING AND TRANSPORT LLC,,TRAN TOWING AND TRANSPORT LLC,"1108 SE 11TH AVE
MINERAL WELLS, TX   76067",(940) 452-2198,(940) 452-2198,CRUDD3NO@YAHOO.COM,"1108 SE 11TH AVE
MINERAL WELLS, TX   76067",1,1,2019-11-18,1 (2018),"Auth. For Hire, ","Interstate, ","General Freight, Metal: sheets, coils, rolls, Motor Vehicles, Drive/Tow away, Logs, Poles, Beams, Lumber, Machinery, Large Objects, Commodities Dry Bulk, Utilities, Construction, "
3342653,,CARRIER,NOT AUTHORIZED,None,RANGERS TRANSPORT INC,,RANGERS TRANSPORT INC,"1415 FM 609
FLATONIA, TX   78941",(504) 885-0099,(504) 885-0099,MO@TIGERFUEL.NET,"14934 SUGAR MIST LN
SUGAR LAND, TX   77498-4064",3,3,2019-11-21,,"Auth. For Hire, ","Interstate, ","Liquids/Gases, "
3342926,,CARRIER,NOT AUTHORIZED,None,DUAL-TEQ LOGISTICS LLC,,DUAL-TEQ LOGISTICS LLC,"3167 RUSTIC HIDDEN DR
EL PASO, TX   79938",(915) 244-5373,(915) 244-5373,L.1990.SANCHEZ@GMAIL.COM,"3167 RUSTIC HIDDEN DR
EL PASO, TX   79938",1,1,2019-11-19,1 (2018),"Auth. For Hire, ","Interstate, ","General Freight, Motor Vehicles, "
3343197,,CARRIER,NOT AUTHORIZED,None,EXCELLENCE EXPRESS LLC,,EXCELLENCE EXPRESS LLC,"1111 S MAIN ST APT 4228
CARROLLTON, TX   75006",(214) 995-9655,(214) 418-2771,EXCELLENCEEXPRESS5@GMAIL.COM,"1111 S MAIN ST APT 4228
CARROLLTON, TX   75006",1,1,2019-11-20,1 (2018),"Auth. For Hire, ","Interstate, ","General Freight, "
3343697,,CARRIER,ACTIVE,None,WOODSON&MCCOLE HEN LOGISTICS LLC,,WOODSON&MCCOLE HEN LOGISTICS LLC,"400 YEARWOOD LN
JARRELL, TX   76537-1910",(330) 949-8481,(330) 949-8481,CWILLIAMS798743@GMAIL.COM,"400 YEARWOOD LN
JARRELL, TX   76537-1910",1,1,2019-11-13,1 (2019),"Auth. For Hire, ","Interstate, ","General Freight, "
3343831,,CARRIER,ACTIVE,None,CARLOS ALBERTO QUIJANO,,QUIJANO TRUCKING,"9413 MARIANNA WAY
ALVARADO, TX   76009-8784",(214) 789-0290,(214) 789-0290,QUIJANOTRUCKING19@GMAIL.COM,"9413 MARIANNA WAY
ALVARADO, TX   76009-8784",1,1,2019-11-19,1 (2018),"Auth. For Hire, ","Intrastate Only (Non-HM), ","General Freight, Logs, Poles, Beams, Lumber, Building Materials, "
3343841,,CARRIER,ACTIVE,None,HARD LABOR TRANSPORTATION LLC,,HARD LABOR TRANSPORTATION LLC,"1211 MEADOW DR
MIDLAND, TX   79703",(432) 978-9860,(432) 978-9860,LUIS.MORALESJR1222@GMAIL.COM,"1211 MEADOW DR
MIDLAND, TX   79703",1,1,2019-11-12,1 (2018),"Auth. For Hire, ","Intrastate Only (Non-HM), ","General Freight, Oilfield Equipment, "
3344541,,CARRIER,ACTIVE,None,CHRISTOPHER DANTE MILLER,DANTE' LOGISTICS,CHRISTOPHER DANTE MILLER,"9039 NINA RD
CONROE, TX   77304-3727",(936) 581-5797,(936) 581-5797,DANTE.LOGISTICS.CM@GMAIL.COM,"9039 NINA RD
CONROE, TX   77304-3727",1,1,2019-11-18,"760,334 (2019)","Auth. For Hire, ","Intrastate Only (Non-HM), ","General Freight, Building Materials, "
3344754,,CARRIER,NOT AUTHORIZED,None,RUDY RIOJAS,RR HOTSHOTS,RUDY RIOJAS,"104 S HAVEN PL
WAXAHACHIE, TX   75165",(469) 570-5586,(941) 584-9868,INFO@DOTORDER.INFO,"104 S HAVEN PL
WAXAHACHIE, TX   75165-9426",2,2,2019-11-14,1 (2019),"Auth. For Hire, ","Interstate, ","General Freight, Metal: sheets, coils, rolls, Motor Vehicles, Drive/Tow away, Logs, Poles, Beams, Lumber, Building Materials, Machinery, Large Objects, Oilfield Equipment, Coal/Coke, Beverages, Paper Products, Utilities, Agricultural/Farm Supplies, Construction, "
3345318,,CARRIER,ACTIVE,None,DARWIN ANTIONE HOLMES,HOLMES TRUCKING,DARWIN A HOLMES,"300 N AKARD ST APT 818
DALLAS, TX   75201-3453",(214) 283-9597,(402) 881-4199,ANTIONEENTERPRISES@YAHOO.COM,"300 N AKARD ST APT 818
DALLAS, TX   75201-3453",1,1,2019-11-14,,"Auth. For Hire, ","Intrastate Only (Non-HM), ","General Freight, "
3345710,,CARRIER,NOT AUTHORIZED,None,WESTEX TRANSPORT LLC,,BRETT PEWITT,"288 TWIN OAKS DR
SAN ANGELO, TX   76901",(512) 914-0709,(512) 914-0709,RELIABULLTRANSPORT@GMAIL.COM,"288 TWIN OAKS DR
SAN ANGELO, TX   76901",1,1,2019-11-14,1 (2018),"Auth. For Hire, ","Interstate, ","General Freight, "
3346051,,CARRIER,ACTIVE,None,MJI TRANSPORT LLC,,MJI TRANSPORT LLC,"11308 LA CLARIDAD DR
DONNA, TX   78537-0709",(956) 509-8354,(956) 509-8354,MJITRANSPORTLLC1@GMAIL.COM,"PO BOX 2014
BROWNSVILLE, TX   78522-2014",1,1,2019-11-12,,"Auth. For Hire, ","Intrastate Only (Non-HM), ","General Freight, Metal: sheets, coils, rolls, Fresh Produce, Coal/Coke, Meat, Commodities Dry Bulk, Refrigerated Food, Beverages, Paper Products, Construction, Water Well, "
3346342,,CARRIER,NOT AUTHORIZED,None,ROYAL MOVING SERVICES LLC,,ROYAL MOVING SERVICES LLC,"21077 KINGSLAND BLVD APT 3116
KATY, TX   77450-3256",(832) 721-5337,(785) 201-8336,CWILLIAMS798743@GMAIL.COM,"21077 KINGSLAND BLVD APT 3116
KATY, TX   77450-3256",1,2,2019-11-12,1 (2019),"Auth. For Hire, ","Interstate, ","FURNITURE, "
3346343,,CARRIER,NOT AUTHORIZED,None,SORI TRUCKING COMPANY LLC,,SORI TRUCKING COMPANY LLC,"6722 BAYOU CREST DR
HOUSTON, TX   77088",(832) 866-2438,(832) 963-0288,SORITRUCKINGCOMPANYLLC@GMAIL.COM,"6722 BAYOU CREST DR
HOUSTON, TX   77088",1,1,2019-11-13,1 (2018),"Auth. For Hire, ","Interstate, ","General Freight, Logs, Poles, Beams, Lumber, PIPES AND LUMBER, "
3346356,,CARRIER,NOT AUTHORIZED,None,ARNOLD DAVID MITCHELL JR,MITCHELL TRUCKING,MITCHELL TRUCKING,"6019 KARLY WAY UNIT 104
SAN ANTONIO, TX   78244-4450",(210) 518-9675,(210) 518-9675,MITCHELL65TRUCKING@YAHOO.COM,"6019 KARLY WAY UNIT 104
SAN ANTONIO, TX   78244-4450",1,1,2019-11-19,,"Auth. For Hire, ","Interstate, ","General Freight, "
3346457,,CARRIER,NOT AUTHORIZED,None,ORIADE AWOSANYA,CROWN TRANSPORT,CROWN TRANSPORT,"6770 WESTBRANCH DR APT 4702
HOUSTON, TX   77072",(832) 298-3956,(713) 474-7390,ORIADEJULIUSEIGHT@GMAIL.COM,"6770 WESTBRANCH DR APT 4702
HOUSTON, TX   77072-1754",1,1,2019-11-18,,"Auth. For Hire, ","Interstate, ","General Freight, Motor Vehicles, Drive/Tow away, "
3346547,,CARRIER,ACTIVE,None,WILLIAMS ALVARADO ERICK BANOS & GERMAN GIRON,ANTHONY'S TRUCKING COMPANY,ANTHONY'S TRUCKING CO,"3850 N MCDONALD ST
MCKINNEY, TX   75071-0375",(469) 215-8529,(469) 215-8529,ANTHONYYANES0503@ICLOUD.COM,"3850 N MCDONALD ST
MCKINNEY, TX   75071-0375",1,1,2019-11-14,"10,000 (2018)","Auth. For Hire, ","Intrastate Only (Non-HM), ","DIRT SAND AND GR, "
3346696,,CARRIER,NOT AUTHORIZED,None,ELLA TRUCKING LLC,,ELLA TRUCKING LLC,"8915 JACKWOOD ST
HOUSTON, TX   77036",(832) 508-9317,(832) 508-9317,ELLATRUCKINGLLC@GMAIL.COM,"18062 FOREST CEDARS DR
HOUSTON, TX   77084-5946",1,1,2019-11-18,1 (2018),"Auth. For Hire, ","Interstate, ","General Freight, PALLETS, "
3346883,,CARRIER,NOT AUTHORIZED,None,JCM EXPRESS LLC,,JCM EXPRESS LLC,"18526 DINNER CREEK DR
KATY, TX   77449",(713) 799-2929,(713) 799-2929,JCMEXPRESSLLC1@GMAIL.COM,"18526 DINNER CREEK DR
KATY, TX   77449-4464",1,1,2019-11-21,1 (2018),"Auth. For Hire, ","Interstate, ","General Freight, Building Materials, PIPES AND LUMBER, "
3346903,,CARRIER,ACTIVE,None,JIMMY LEE SMITH,J SMITH TRUCKING,JIMMY LEE SMITH,"210 KIZZEE ST
NORMANGEE, TX   77871",(469) 363-7297,(469) 363-7297,JSMITHTRUCKING01@GMAIL.COM,"106 SWEETLEAF DR
RED OAK, TX   75154-4642",1,1,2019-11-21,,"Auth. For Hire, ","Intrastate Only (Non-HM), ","General Freight, OTHER, "
3346908,,CARRIER,NOT AUTHORIZED,None,RAUL FELICIANO MALDONADO,JOSE R DELIVERY SERVICES,RAUL FELICIANO MALDONADO,"2240 E TRINITY MILLS RD APT 1112
CARROLLTON, TX   75006-7822",(214) 290-6765,(214) 290-6765,MARCIA@LEVYINSURANCESTORE.COM,"2240 E TRINITY MILLS RD APT 1112
CARROLLTON, TX   75006-7822",1,1,2019-11-15,,"Auth. For Hire, ","Interstate, ","General Freight, "
3347316,,CARRIER,NOT AUTHORIZED,None,91 MARINE LLC,91 TOWING & RECOVERY,91 MARINE LLC,"4614 STINSON RD
DENISON, TX   75020-0404",(903) 462-4021,(903) 462-4021,91TOWING@RESCUETEAM.COM,"4614 STINSON RD
DENISON, TX   75020-0404",1,1,2019-11-19,,"Auth. For Hire, ","Interstate, ","Drive/Tow away, "
3348076,,CARRIER,ACTIVE,None,J&K TRUCKING,,J&K TRUCKING,"7701 COUNTY ROAD 423
GRANDVIEW, TX   76050",(817) 201-0114,(817) 201-0114,KENNIE_RADEKIN@YAHOO.COM,"7701 COUNTY ROAD 423
GRANDVIEW, TX   76050",1,1,2019-11-18,1 (2018),"Auth. For Hire, ","Intrastate Only (Non-HM), ","General Freight, Refrigerated Food, "
3348238,,CARRIER,ACTIVE,None,CODY WAYNE WORTHAM,COMTEX TRANSPORTS,CODY WAYNE WORTHAM,"410 E 9TH ST
FERRIS, TX   75125-3008",(214) 707-7484,(214) 707-7484,DFOSTERRET@GMAIL.COM,"410 E 9TH ST
FERRIS, TX   75125-3008",1,1,2019-11-18,1 (2018),"Auth. For Hire, ","Intrastate Only (Non-HM), ","General Freight, "
3348256,,CARRIER,ACTIVE,None,STEVENS CAR TRANSPORT LLC,,STEVENS CAR TRANSPORT LLC,"20909 W HARDY RD
HOUSTON, TX   77073",(832) 419-6476,(832) 419-6476,HTOWNCAR@GMAIL.COM,"9722 FARRAGUT ST
HOUSTON, TX   77078-2105",1,2,2019-11-18,,"Auth. For Hire, ","Intrastate Only (Non-HM), ","Motor Vehicles, "
3348294,,CARRIER,NOT AUTHORIZED,None,MJ & SONS XPRESS LLC,,MJ & SONS XPRESS LLC,"211 W AUDRY ST APT 404
PHARR, TX   78577",(646) 202-3392,(956) 451-6690,SJC0558@GMAIL.COM,"211 W AUDRY ST APT 404
PHARR, TX   78577",2,2,2019-11-21,5 (2019),"Auth. For Hire, ","Interstate, ","General Freight, Fresh Produce, Refrigerated Food, "
3348386,,CARRIER,NOT AUTHORIZED,None,L MCBRAN TRANSPORT LLC,,L MCBRAN TRANSPORT LLC,"5610 CLAYMORE MEADOW LN
SPRING, TX   77389",(832) 788-5671,(832) 788-5671,LMCBRANTRANSPORT@HOTMAIL.COM,"5610 CLAYMORE MEADOW LN
SPRING, TX   77389-1713",1,1,2019-11-19,1 (2018),"Auth. For Hire, ","Interstate, ","General Freight, Metal: sheets, coils, rolls, Building Materials, OTHER, "
3348533,,CARRIER,ACTIVE,None,SPACE MAKERS JUNK REMOVAL LLC,,SPACE MAKERS JUNK REMOVAL LLC,"815 PARK PT
SAN ANTONIO, TX   78253",(512) 730-9208,(512) 730-9208,MAW.2935@GMAIL.COM,"3517 SINCLAIR AVE
MIDLAND, TX   79707-6639",1,2,2019-11-18,1 (2019),"Auth. For Hire, ","Intrastate Only (Non-HM), ","Garbage/Refuse, OTHER, "
3348802,,CARRIER,ACTIVE,None,JOSE F GONZALEZ GONZALEZ,SPACE CITY READY MIX,JOSE F GONZALEZ GONZALEZ,"10107 TEXAS SAGE DR
HOUSTON, TX   77075-1416",(832) 815-8023,(469) 778-3949,SPACECITYREADYMIX@GMAIL.COM,"10107 TEXAS SAGE DR
HOUSTON, TX   77075-1416",1,1,2019-11-15,,"Auth. For Hire, ","Intrastate Only (Non-HM), ","OTHER, "
3349625,,CARRIER,ACTIVE,None,AIT METRO WASTE MANAGEMENT CO LLC,,AIT METRO WASTE MANAGEMENT LLC,"5141 LAWNVIEW AVE STE A
DALLAS, TX   75227",(214) 295-5866,(214) 295-5866,AITMETROWASTE@GMAIL.COM,"PO BOX 143502
IRVING, TX   75014",3,3,2019-11-21,,"Auth. For Hire, ","Intrastate Only (Non-HM), ","General Freight, "
3349930,,CARRIER,ACTIVE,None,GOOD STEWARD TRANSPORT LLC,,STEWARD & THOMPSON TRANSPORT LLC,"3912 LIVE OAK
HOUSTON, TX   77004",(713) 659-9623,(832) 468-3160,INFO.STTRANSPORT@GMAIL.COM,"4110 ALMEDA STE 8362
HOUSTON, TX   77288",1,1,2019-11-22,1 (2018),"Auth. For Hire, ","Intrastate Only (Non-HM), ","General Freight, "
3350157,,CARRIER,NOT AUTHORIZED,None,MVE LOGISTICS,,MVE LOGISTICS,"7219 HEATH ST
HOUSTON, TX   77016",(832) 270-8071,(832) 270-8071,MEDGELY@YMAIL.COM,"7219 HEATH ST
HOUSTON, TX   77016-2317",1,1,2019-11-13,,"Auth. For Hire, ","Interstate, ","General Freight, "
3350170,,CARRIER,NOT AUTHORIZED,None,ATX LOGISTICS LLC,,ATX LOGISTICS LLC,"1912 E WILLIAM CANNON DR # 424
AUSTIN, TX   78744",(512) 998-5801,(512) 998-5801,DELFINBOURZAC@GMAIL.COM,"1912 E WILLIAM CANNON DR # 424
AUSTIN, TX   78744",1,1,2019-11-12,1 (2018),"Auth. For Hire, ","Interstate, ","General Freight, CONSUMER GOODS /, "
3350174,,CARRIER,NOT AUTHORIZED,None,LARRY GLENN WILKINS,BEABOP'S TRUCKING,LARRY GLENN WILKINS,"25905 RANDON LN
TOMBALL, TX   77377",(832) 347-0425,(832) 347-0425,COWBOYLARRYW@GMAIL.COM,"25905 RANDON LN
TOMBALL, TX   77377-7234",1,1,2019-11-21,,"Auth. For Hire, ","Intrastate Only (Non-HM), ","General Freight, "
3350514,,CARRIER,NOT AUTHORIZED,None,GNZ LOGISTICS INC,,GNZ LOGISTICS INC,"704 CARDINAL CIR
PASADENA, TX   77502",(832) 275-1923,(832) 275-1923,USDOTOPERATIONSSERVICES@GMAIL.COM,"704 CARDINAL CIR
PASADENA, TX   77502-3509",1,1,2019-11-18,1 (2018),"Auth. For Hire, ","Interstate, ","General Freight, "
3350751,,CARRIER,NOT AUTHORIZED,None,A1 LAST MILE SOLUTIONS LLC,,A1 LAST MILE SOLUTIONS LLC,"10107 DA VINCI CT
IOWA COLONY, TX   77583",(713) 315-1962,(713) 315-1962,RONALDDPETERS@YAHOO.COM,"10107 DA VINCI CT
IOWA COLONY, TX   77583",1,1,2019-11-20,1 (2018),"Auth. For Hire, ","Interstate, ","General Freight, "
3350838,,CARRIER,ACTIVE,None,CHRISTEL RAY JONES,ROCKING C DIAMOND D,CHRISTEL RAY JONES,"2318 PEBBLESTONE RD
DALE, TX   78616-3338",(512) 601-5014,(512) 601-5014,NDASTIX@YAHOO.COM,"2318 PEBBLESTONE RD
DALE, TX   78616-3338",1,1,2019-11-19,,"Auth. For Hire, ","Intrastate Only (Non-HM), ","General Freight, Building Materials, Oilfield Equipment, Grain, Feed, Hay, Construction, "
3351054,,CARRIER,NOT AUTHORIZED,None,KENNETH R SOWELL,LOAD X TRANSPORT,KENNETH R SOWELL,"116 W FRANKLIN ST
TYLER, TX   75702-3316",(903) 426-1413,(903) 426-1413,MRROBICFRANCHISE@GMAIL.COM,"116 W FRANKLIN ST
TYLER, TX   75702-3316",1,1,2019-11-15,,"Auth. For Hire, ","Interstate, ","OTHER, "
3351619,,CARRIER,ACTIVE,None,MICHAEL KING,M KING TRUCKING,MICHAEL KING,"1702 LINDA ST
KINGSVILLE, TX   78363-6533",(361) 355-1206,(361) 355-1206,M.KINGTRUCKING1985@GMAIL.COM,"1702 LINDA ST
KINGSVILLE, TX   78363-6533",1,1,2019-11-14,,"Auth. For Hire, ","Intrastate Only (Non-HM), ","Construction, SAND AND GRAVEL, "
3351796,,CARRIER,NOT AUTHORIZED,None,SUH GODLOVE NGWA SR,AKONG'S LOGISTICS,SUH GODLOVE NGWA SR,"430 BUCKINGHAM RD APT 1523
RICHARDSON, TX   75081",(214) 436-9529,(214) 436-9529,AKONGAKONG18@YAHOO.COM,"430 BUCKINGHAM RD APT 1523
RICHARDSON, TX   75081",1,1,2019-11-14,1 (2018),"Auth. For Hire, ","Interstate, ","General Freight, "
3352073,,CARRIER,NOT AUTHORIZED,None,ALLURE CHEMICALS LP,,ALLURE CHEMICALS LP,"6580 ISLA DEL REY DR
EL PASO, TX   79912",(915) 207-2323,(915) 207-2323,TRAVIS.HATCH@ALLURECHEMICALS.COM,"910K E REDD RD # 530
EL PASO, TX   79912-7324",1,1,2019-11-21,,"Auth. For Hire, ","Interstate, ","General Freight, Commodities Dry Bulk, Paper Products, Agricultural/Farm Supplies, Construction, "
3352082,,CARRIER,NOT AUTHORIZED,None,DEF TRUCKING LLC,,DEF TRUCKING LLC,"1007 GUNNISON ST APT D
SEALY, TX   77474-3763",(901) 440-5720,(901) 440-5720,FCABRERAS1504@HOTMAIL.COM,"1007 GUNNISON ST APT D
SEALY, TX   77474-3763",1,1,2019-11-14,1 (2018),"Auth. For Hire, ","Interstate, ","General Freight, OTHER, "
3352223,,CARRIER,ACTIVE,None,ROSA ELIA ONTIVEROS MONTES,J&I ENERGY,ROSA ONTIVEROS MONTES,"2709 N HANCOCK AVE
ODESSA, TX   79762-7624",(432) 296-6369,(432) 296-6369,ZMONTES16@GMAIL.COM,"2709 N HANCOCK AVE
ODESSA, TX   79762-7624",4,3,2019-11-19,,"Auth. For Hire, ","Intrastate Only (Non-HM), ","General Freight, "
3352230,,CARRIER,NOT AUTHORIZED,None,HASHEM-IBRAHIM LLC,HXO LOGISTICS,HASHEM-IBRAHIM LLC,"19903 DIAMOND HILLS LN
KATY, TX   77449",(832) 276-3954,(832) 276-3954,ODYBAT@HXOLOGISTICSTX.COM,"19903 DIAMOND HILLS LN
KATY, TX   77449-5807",1,1,2019-11-18,"3,000 (2019)","Auth. For Hire, ","Interstate, ","General Freight, "
3352292,,CARRIER,NOT AUTHORIZED,None,TOP CALIBER TRANSPORT LLC,,TOP CALIBER TRANSPORT LLC,"5223 VICTORIA LANDING TRL
KATY, TX   77449",(951) 345-5003,(951) 345-5003,ISLAS09@LIVE.COM,"5223 VICTORIA LANDING TRL
KATY, TX   77449-2137",1,1,2019-11-12,1 (2018),"Auth. For Hire, ","Interstate, ","General Freight, "
3352412,,CARRIER,ACTIVE,None,INDI SAJI AMARANAYAKA,DOOR 2 DOOR TOWING,INDI SAJI AMARANAYAKA,"2706 COLLINS BLVD
GARLAND, TX   75044-3710",(214) 400-7771,(214) 400-7771,WAYNECANCUN420@GMAIL.COM,"2706 COLLINS BLVD
GARLAND, TX   75044-3710",1,1,2019-11-14,1 (2018),"Auth. For Hire, ","Intrastate Only (Non-HM), ","General Freight, Motor Vehicles, Drive/Tow away, "
3353100,,CARRIER,ACTIVE,None,LEON HERNADEZ,L & M TRUCKING,LEON HERNADEZ,"4524 LA BREA LN
LAREDO, TX   78046-7582",(956) 949-6791,(956) 949-6791,LMTRUCKING2019@GMAIL.COM,"4524 LA BREA LN
LAREDO, TX   78046-7582",1,1,2019-11-13,,"Auth. For Hire, ","Intrastate Only (Non-HM), ","General Freight, Building Materials, Beverages, Paper Products, Construction, OTHER, "
3353173,,CARRIER,NOT AUTHORIZED,None,CURTIS GLENN IRVIN,CURTIS DIESEL SERVICE,CURTIS GLENN IRVIN,"201 MONTGOMERY ST
PITTSBURG, TX   75686",(903) 855-2087,(903) 855-2087,CURTISDIESELSERVICE@GMAIL.COM,"201 MONTGOMERY ST
PITTSBURG, TX   75686-1525",1,2,2019-11-12,"10,000 (2019)","Auth. For Hire, ","Interstate, ","Logs, Poles, Beams, Lumber, "
3353962,,CARRIER,NOT AUTHORIZED,None,COM TRANSPORT LLC,,COM TRANSPORT LLC,"3816 ROYAL CREST DR
FORT WORTH, TX   76140",(817) 915-6052,(817) 915-6052,CARLOSGC_18@YAHOO.COM,"3816 ROYAL CREST DR
FORT WORTH, TX   76140-2719",1,2,2019-11-14,,"Auth. For Hire, ","Interstate, ","General Freight, "
3354207,,CARRIER,ACTIVE,None,FIRST CHOICE OILFIELD SERVICE LLC,,FIRST CHOICE OILFIELD SERVICE LLC,"1009 S JACKSON ST
MIDLAND, TX   79701-8378",(432) 923-2020,(432) 923-2020,1RSTCHOICEOILFIELDSERVICE@GMAIL.COM,"1009 S JACKSON ST
MIDLAND, TX   79701-8378",1,2,2019-11-13,,"Auth. For Hire, ","Intrastate Only (Non-HM), ","General Freight, Building Materials, Water Well, WATER, FRAC SAND, "
3354263,,CARRIER,NOT AUTHORIZED,None,WADE BROS TRANSPORTATION INC,,WADE BROS TRANSPORTATION INC,"317 E ROGERS ST
HOUSTON, TX   77022",(832) 203-3707,(832) 203-3707,J_WADE86@YAHOO.COM,"4007 DONALBAIN DR
SPRING, TX   77373",2,1,2019-11-13,1 (2018),"Auth. For Hire, ","Interstate, ","General Freight, Motor Vehicles, "
3354378,,CARRIER,NOT AUTHORIZED,None,AMERICANS EXP INC,,AMERICANS EXP INC,"3612 HOLMES ST
DALLAS, TX   75215",(469) 279-4965,(469) 279-4965,AMERICANSXP@GMAIL.COM,"3612 HOLMES ST
DALLAS, TX   75215-3666",1,1,2019-11-20,1 (2019),"Auth. For Hire, ","Interstate, ","General Freight, "
3354426,,CARRIER,NOT AUTHORIZED,None,FU-GA TRANSPORTATION LLC,,FU-GA TRANSPORTATION LLC,"3256 SCARLET POINT DR
EL PASO, TX   79938",(956) 708-4914,(956) 708-4914,FUGATRANSPORTATIONLLC@GMAIL.COM,"3256 SCARLET POINT DR
EL PASO, TX   79938-1118",1,1,2019-11-21,,"Auth. For Hire, ","Interstate, ","General Freight, Motor Vehicles, "
3354596,,CARRIER,NOT AUTHORIZED,None,CASON'S FREIGHT AND TRANSPORT LLC,,CASON'S FREIGHT AND TRANSPORT LLC,"6401 REDDING CT
ARLINGTON, TX   76001-8302",(817) 637-8373,(817) 637-8373,CASON.J.0306@SBCGLOBAL.NET,"6401 REDDING CT
ARLINGTON, TX   76001-8302",1,1,2019-11-14,1 (2018),"Auth. For Hire, ","Interstate, ","General Freight, Motor Vehicles, Intermodal Cont., "
3354629,,CARRIER,NOT AUTHORIZED,None,EBJR ENTERPRISES LLC,,EBJR ENTERPRISES LLC,"601 WELLINGTON DR
ROANOKE, TX   76262-7405",(682) 321-9095,(682) 321-9095,EBENTERPRISES0313@GMAIL.COM,"601 WELLINGTON DR
ROANOKE, TX   76262-7405",1,1,2019-11-13,,"Auth. For Hire, ","Interstate, ","General Freight, "
3354668,,CARRIER,NOT AUTHORIZED,None,Y&L TRANSPORT LLC,,Y&L TRANSPORT LLC,"2319 BLUE REEF DR
KATY, TX   77449-4798",(281) 799-4507,(281) 799-4507,ANADELIA.YONI@GMAIL.COM,"2319 BLUE REEF DR
KATY, TX   77449-4798",1,1,2019-11-13,1 (2018),"Auth. For Hire, ","Interstate, ","General Freight, Building Materials, OTHER, "
3354690,,CARRIER,ACTIVE,None,T&R TRUCKING LLC,,T&R TRUCKING LLC,"9070 LANDIS DR
BEAUMONT, TX   77707-1244",(786) 442-0683,(786) 442-0683,ANDYROJAS84@GMAIL.COM,"9070 LANDIS DR
BEAUMONT, TX   77707-1244",1,1,2019-11-14,1 (2018),"Auth. For Hire, ","Intrastate Only (Non-HM), ","OTHER, "
3354713,,CARRIER,NOT AUTHORIZED,None,MARIA CUEVAS,CUEVAS TRANSPORTE,MARIA CUEVAS,"12911 KNOTTY GLEN LANE
HOUSTON, TX   77072",(832) 868-3821,(832) 868-3821,MARIACUEVAS713@GMAIL.COM,"12911 KNOTTY GLEN LANE
HOUSTON, TX   77072",2,2,2019-11-20,1 (2018),"Auth. For Hire, ","Interstate, ","Passengers, "
3354968,,CARRIER,ACTIVE,None,NEXT LEVEL HOTSHOT HAULING,,NEXT LEVEL HOTSHOT HAULING,"122 FAIRWAY LN
LAREDO, TX   78041-7618",(956) 701-0174,(956) 701-0174,NEXTLEVELHOTSHOT@GMAIL.COM,"122 FAIRWAY LN
LAREDO, TX   78041-7618",1,2,2019-11-21,,"Auth. For Hire, ","Interstate, ","General Freight, "
3354985,,CARRIER,ACTIVE,None,ELEE CAMARGO,CR TRANSPORT,ELEE CAMARGO,"3609 GOLDCREST AVE
MCALLEN, TX   78504",(956) 322-0790,(956) 322-0790,4949CAMARGO@GMAIL.COM,"106 S ALTON BLVD PMB 1985
ALTON, TX   78573",3,3,2019-11-14,,"Auth. For Hire, ","Intrastate Only (Non-HM), ","Water Well, FRESH WATER, "
3355038,,CARRIER,NOT AUTHORIZED,None,SERENITY LOGISTICS PLUS,,SERENITY LOGISTICS PLUS,"514 NEW HOPE ST
TERRELL, TX   75160-4439",(903) 851-6927,(903) 851-6927,MONGARDNER@GMAIL.COM,"514 NEW HOPE
TERRELL, TX   75160",1,1,2019-11-22,,"Auth. For Hire, ","Intrastate Only (Non-HM), ","General Freight, "
3355053,,CARRIER,ACTIVE,None,MATTHEW NICHOLSON,HOUSECRAFT DESIGN,MATTHEW NICHOLSON,"200 OAK BRANCH TRL
WAXAHACHIE, TX   75167-8560",(972) 768-5825,(972) 768-5825,HOUSECRAFTDESIGN@YAHOO.COM,"200 OAK BRANCH TRL
WAXAHACHIE, TX   75167-8560",1,1,2019-11-13,,"Auth. For Hire, ","Intrastate Only (Non-HM), ","Motor Vehicles, "
3355111,,CARRIER,ACTIVE,None,DELANCIO BROWN,D'S DELIVERY,DELANCIO BROWN,"3434 SUNNYVALE ST
DALLAS, TX   75216-4742",(214) 576-6376,(214) 576-6376,CWILLIAMS798743@GMAIL.COM,"3434 SUNNYVALE ST
DALLAS, TX   75216-4742",1,1,2019-11-14,,"Auth. For Hire, ","Intrastate Only (Non-HM), ","General Freight, "
3355180,,CARRIER,NOT AUTHORIZED,None,ROAMER TD LLC,,ROAMER TD LLC,"255 KICKAPOO CT
LIPAN, TX   76462",(817) 583-0056,(817) 583-0056,BRADYTANNER42@YAHOO.COM,"255 KICKAPOO CT
LIPAN, TX   76462-3804",1,1,2019-11-20,1 (2019),"Auth. For Hire, ","Interstate, ","General Freight, "
3355368,,CARRIER,NOT AUTHORIZED,None,DURAN VAZQUEZ TRUCKING LLC,,DURAN VAZQUEZ TRUCKING LLC,"4939 BALLOT PARK
SAN ANTONIO, TX   78244",(830) 513-1731,(830) 513-1731,INFO@PROGRESSIVEREPORTING.COM,"4939 BALLOT PARK
SAN ANTONIO, TX   78244",1,1,2019-11-21,1 (2018),"Auth. For Hire, ","Interstate, ","General Freight, "
3355515,,CARRIER,ACTIVE,None,MARCUS ROSS,GU SERVICES,MARCUS ROSS,"4407 ASHBEL
SAN ANTONIO, TX   78223-4856",(361) 652-7073,(361) 652-7073,DEVON77901@YAHOO.COM,"4407 ASHBEL
SAN ANTONIO, TX   78223-4856",1,1,2019-11-21,,"Auth. For Hire, ","Intrastate Only (Non-HM), ","General Freight, "
3355556,,CARRIER,ACTIVE,None,JOSE AARON BALDERAS JR,EIT TRANSPORTATION,JOSE AARON BALDERAS JR,"2503 FLAMINGO ST
MISSION, TX   78574-7621",(956) 278-9336,(956) 278-9336,ELISILLER@ICLOUD.COM,"2503 FLAMINGO ST
MISSION, TX   78574-7621",3,4,2019-11-13,,"Auth. For Hire, ","Intrastate Only (Non-HM), ","General Freight, OTHER, "
3355641,,CARRIER,ACTIVE,None,ROSS GERALD WALDEMAR,UNITY TRUCKING,ROSS GERALD WALDEMAR,"900 HWY AVE SUITE E
SUNRAY, TX   79086",(806) 930-1129,(806) 930-1129,RGDEMAR@GMAIL.COM,"PO BOX 538
SUNRAY, TX   79086-0538",33,33,2019-11-14,,"Auth. For Hire, ","Interstate, ","Grain, Feed, Hay, OTHER, "
3355693,,CARRIER,ACTIVE,None,MARIO CESAR LOPEZ LUNA,FIVE STAR DUMP TRUCK SERVICE,MARIO CESAR LOPEZ LUNA,"1035 SAN ANGELO
SAN ANTONIO, TX   78201-2425",(706) 508-5453,(706) 508-5453,LOPEZMARIOG51@GMAIL.COM,"1035 SAN ANGELO
SAN ANTONIO, TX   78201-2425",1,1,2019-11-13,"20,000 (2019)","Auth. For Hire, ","Intrastate Only (Non-HM), ","DIRT, SAND AND G, "
3355785,,CARRIER,NOT AUTHORIZED,None,DLR LOGISTICS LLC,,DLR LOGISTICS LLC,"11413 LINDENWOOD AVE
EL PASO, TX   79936",(915) 843-6564,(915) 843-6564,DLRLOGISTICS2019@GMAIL.COM,"11413 LINDENWOOD AVE
EL PASO, TX   79936-2416",1,1,2019-11-14,"2,018 (1 )","Auth. For Hire, ","Interstate, ","General Freight, Building Materials, Commodities Dry Bulk, Construction, "
3355804,,CARRIER,ACTIVE,None,CHIBIKO ONYEAGWARA,GOD IS GOOD TRUCKING,CHIBIKO ONYEAGWARA,"12820 N LAMAR BLVD APT 1810
AUSTIN, TX   78753-1256",(737) 333-7172,(737) 333-7172,CHIBIKOONYEAGWARA@YAHOO.COM,"12820 N LAMAR BLVD APT 1810
AUSTIN, TX   78753-1256",1,1,2019-11-14,,"Auth. For Hire, ","Intrastate Only (Non-HM), ","General Freight, "
3355805,,CARRIER,NOT AUTHORIZED,None,MD RELIABLE CARRIERS LLC,,MD RELIABLE CARRIERS LLC,"1715 SHIRLEY CIR
BEAUMONT, TX   77707",(409) 790-1604,(409) 790-1604,DRIA.LEWIS@GMAIL.COM,"1715 SHIRLEY CIR
BEAUMONT, TX   77707-2635",1,1,2019-11-18,1 (2018),"Auth. For Hire, ","Interstate, ","General Freight, "
3355856,,CARRIER,NOT AUTHORIZED,None,ARME TRUCKLOADS INC,,ARME TRUCKLOADS INC,"10049 WESTPARK DR APT 164
HOUSTON, TX   77042",(832) 993-9290,(832) 993-9290,EARMSTRONG@ARMETRUCKLOADS.COM,"10049 WESTPARK DR APT 164
HOUSTON, TX   77042",1,1,2019-11-18,1 (2018),"Auth. For Hire, ","Interstate, ","General Freight, Metal: sheets, coils, rolls, Logs, Poles, Beams, Lumber, Machinery, Large Objects, Fresh Produce, Liquids/Gases, Beverages, Paper Products, FRAC SAND, "
3355924,,CARRIER,ACTIVE,None,FERNANDO ADRIANO AMADO ALMIRA,AMADO EXPRESS,FERNANDO ADRIANO AMADO ALMIRA,"8300 SANDS POINT DR APT 711
HOUSTON, TX   77036",(713) 478-8164,(713) 478-8164,AMADOEXPRESS88@YAHOO.COM,"8300 SANDS POINT DR APT 711
HOUSTON, TX   77036",2,2,2019-11-20,1 (2018),"Auth. For Hire, ","Intrastate Only (Non-HM), ","Building Materials, SAND AND GRAVEL, "
3355965,,CARRIER,NOT AUTHORIZED,None,LYNNWOOD HAGINS & SHANDRA JAMES LLC,CROSSED UP,LYNNWOOD HAGINS & SHANDRA JAMES LLC,"1900 W GRAY ST # 130364
HOUSTON , TX   77019",(510) 823-4610,(510) 823-4610,LCHAGINS@YAHOO.COM,"1900 W GRAY ST # 130364
HOUSTON , TX   77019",1,1,2019-11-14,1 (2018),"Auth. For Hire, ","Interstate, ","General Freight, "
3355971,MC-662955,CARRIER,NOT AUTHORIZED,None,PAYNE'S TRUCKING LLC,,PAYNE'S TRUCKING LLC,"8709 PITCHFORK RANCH RD
FORT WORTH, TX   76134",(225) 330-1465,(225) 330-1465,PAYNES.TRUCKING@YAHOO.COM,"8709 PITCHFORK RANCH RD
FORT WORTH, TX   76134",1,1,2019-11-12,,"Auth. For Hire, ","Interstate, ","General Freight, "
3356021,,CARRIER,ACTIVE,None,MARIA SONIA HOLGUIN,,MARIA SONIA HOLGUIN,"3808 BEE TREE LN
FORT WORTH, TX   76133-7626",(817) 991-0222,(817) 991-0222,HOLGUINSONI@GMAIL.COM,"3808 BEE TREE LN
FORT WORTH, TX   76133-7626",1,2,2019-11-18,,"Auth. For Hire, ","Intrastate Only (Non-HM), ","General Freight, "
3356108,,CARRIER,ACTIVE,None,ISRAEL SAUCEDO,SAUCEDO TRANSPORT,ISRAEL SAUCEDO,"12639 S HAUSMAN RD APT 10307
SAN ANTONIO, TX   78249-1116",(210) 639-4578,(210) 639-4578,ISRAELSAUCEDO43@GMAIL.COM,"12639 S HAUSMAN RD APT 10307
SAN ANTONIO, TX   78249-1116",1,1,2019-11-18,,"Auth. For Hire, ","Intrastate Only (Non-HM), ","General Freight, "
3356177,,CARRIER,NOT AUTHORIZED,None,LAZARO MARTIN FUENTES HERRERA,JAZMAR LOGISTICS NLD,LAZARO MARTIN FUENTES HERRERA,"SELENE 418
NUEVO LAREDO, TA   88177",(867) 115-8980,(867) 115-8980,M.FUENTES@JAZMARLOGISTICS.COM,"PO BOX 420596
LAREDO, TX   78042",1,1,2019-11-20,1 (2018),"Auth. For Hire, ","Interstate, ","General Freight, "
3356298,,CARRIER,NOT AUTHORIZED,None,MOORE UNIFIED SERVICES LLC,,MOORE UNIFIED SERVICES LLC,"3235 BECKER GLEN ST
FRESNO, TX   77545",(281) 468-9521,(281) 468-9521,MOOREUNIFIEDSERVICES@GMAIL.COM,"3235 BECKER GLEN ST
FRESNO, TX   77545",1,4,2019-11-15,1 (2018),"Auth. For Hire, ","Intrastate Only (Non-HM), ","General Freight, "
3356418,,CARRIER,NOT AUTHORIZED,None,THUNDER TRANSPORT AND SERVICES LLC,,THUNDER TRANSPORT AND SERVICES LLC,"3845 BURKE ST
ODESSA, TX   79764",(432) 295-2755,(432) 295-2755,HUGOXMEDRANO@GMAIL.COM,"3845 BURKE ST
ODESSA, TX   79764-1322",1,1,2019-11-20,1 (2018),"Auth. For Hire, ","Interstate, ","General Freight, Metal: sheets, coils, rolls, "
3356476,,CARRIER,NOT AUTHORIZED,None,P&P TRANSPORT AND LOGISTICS LLC,,P&P TRANSPORT AND LOGISTICS LLC,"615 NORTHVALLEY DR
HOUSTON, TX   77073",(713) 632-7083,(713) 632-7083,ROCKSTEADYTRUCKINGLLC@GMAIL.COM,"615 NORTHVALLEY DR
HOUSTON, TX   77073-5557",1,1,2019-11-20,1 (2018),"Auth. For Hire, ","Interstate, ","General Freight, Machinery, Large Objects, "
3356561,,CARRIER,ACTIVE,None,ESCMOR TRUCKING LLC,,ESCMOR TRUCKING LLC,"11031 CLEAR VILLA LN
HOUSTON, TX   77034-2145",(281) 928-6878,(281) 928-6878,COMPLIANCE@PERSONALTRUCKSERVICES.COM,"11031 CLEAR VILLA LN
HOUSTON, TX   77034-2145",1,1,2019-11-12,1 (2018),"Auth. For Hire, ","Intrastate Only (Non-HM), ","DIRT SAND AND GR, "
3356562,,CARRIER,NOT AUTHORIZED,None,KING RELOCATIONS LLC,,KING RELOCATIONS LLC,"11111 KATY FWY STE 910
HOUSTON, TX   77079",(281) 967-1928,(281) 967-1928,KINGRELOCATIONINVOICES@HOTMAIL.COM,"11111 KATY FWY STE 910
HOUSTON, TX   77079-2119",5,5,2019-11-21,"10,000 (2019)","Auth. For Hire, ","Interstate, ","General Freight, "
3356647,,CARRIER,ACTIVE,None,FELIPE RICARDO MALDONADO SR,ROADRUNNER EXPRESS,FELIPE RICARDO MALDONADO SR,"35108 FM 2520
SAN BENITO, TX   78586-7147",(956) 465-7135,(956) 465-7135,MALDONADOROC@GMAIL.COM,"35108 FM 2520
SAN BENITO, TX   78586-7147",1,1,2019-11-19,,"Auth. For Hire, ","Intrastate Only (Non-HM), ","General Freight, Metal: sheets, coils, rolls, Fresh Produce, Grain, Feed, Hay, Meat, Refrigerated Food, Paper Products, "
3356698,,CARRIER,NOT AUTHORIZED,None,JAGPRIT K SINGH,J N J TRANSPORT,JAGPRIT K SINGH,"807 RUSHWOOD DR
LUFKIN, TX   75904",(916) 849-9285,(916) 849-9285,JAGPRITS5@GMAIL.COM,"807 RUSHWOOD DR
LUFKIN, TX   75904",1,1,2019-11-15,1 (2018),"Auth. For Hire, ","Interstate, ","General Freight, Household Goods, "
3356768,,CARRIER,NOT AUTHORIZED,None,HHF LOGISTICS LLC,,HHF LOGISTICS LLC,"539 W COMMERCE ST STE 554
DALLAS, TX   75208",(214) 537-4050,(214) 537-4050,WINDELLAWINDOM@GMAIL.COM,"539 W COMMERCE ST STE 554
DALLAS, TX   75208-1953",1,1,2019-11-12,,"Auth. For Hire, ","Interstate, ","General Freight, "
3356783,,CARRIER,ACTIVE,None,MGH EXPRESS LLC,,MGH EXPRESS LLC,"4925 ELGIN ST
FORT WORTH, TX   76105",(817) 703-8742,(817) 703-8742,JOANNE2011JO@GMAIL.COM,"4925 ELGIN ST
FORT WORTH, TX   76105",1,1,2019-11-12,,"Auth. For Hire, ","Intrastate Only (Non-HM), ","OTHER, "
3356789,,CARRIER,NOT AUTHORIZED,None,WC TRANSPORT LLC,,WC TRANSPORT LLC,"141 PRIVATE ROAD 1996
GLADEWATER, TX   75647",(555) 555-5555,(555) 555-5555,WD@AUTHORITYEXPRESSLLC.COM,"141 PRIVATE ROAD 1996
GLADEWATER, TX   75647-5800",1,2,2019-11-12,,"Auth. For Hire, ","Interstate, ","General Freight, "
3356796,,CARRIER,ACTIVE,None,GSJ LOGISTICS LLC,,GSJ LOGISTICS LLC,"20707 HIGHLAND HOLLOW LN
HOUSTON, TX   77073-3213",(713) 775-3300,(713) 775-3300,GSJLOGISTICSLLC49@GMAIL.COM,"20707 HIGHLAND HOLLOW LN
HOUSTON, TX   77073-3213",1,1,2019-11-12,,"Auth. For Hire, ","Intrastate Only (Non-HM), ","General Freight, Household Goods, "
3356802,,CARRIER,ACTIVE,None,HEBERTO SANTIESTEBAN GONZALEZ,HEBERTO TRUCKING,HEBERTO SANTIESTEBAN GONZALEZ,"8330 CARVEL LN APT 43
HOUSTON, TX   77036-6333",(281) 840-8967,(281) 840-8967,EBERTO11@YAHOO.COM,"8330 CARVEL LN APT 43
HOUSTON, TX   77036-6333",1,1,2019-11-12,,"Auth. For Hire, ","Intrastate Only (Non-HM), ","Construction, OTHER, "
3356841,,CARRIER,ACTIVE,None,SILVIA EXPRESS INC,,SILVIA EXPRESS INC,"534 BRUSHY GLEN DR
HOUSTON, TX   77073-5582",(832) 898-8256,(832) 898-8256,SILVIAEXPRESSINC@GMAIL.COM,"534 BRUSHY GLEN DR
HOUSTON, TX   77073-5582",1,1,2019-11-12,,"Auth. For Hire, ","Intrastate Only (Non-HM), ","General Freight, OTHER, "
3356843,,CARRIER,ACTIVE,None,MRO AND PACKAGING SOLUTIONS LLC,,MRO AND PACKAGING SOLUTIONS LLC,"2501 SAN RODRIGO
MISSION, TX   78572-0505",(956) 400-3683,(956) 400-3683,LIZ.PROINREYSA@GMAIL.COM,"2501 SAN RODRIGO
MISSION, TX   78572-0505",1,1,2019-11-12,,"Auth. For Hire, ","Intrastate Only (Non-HM), ","General Freight, OTHER, "
3356845,,CARRIER,ACTIVE,None,JOAQUIN BARRON,BARRON TRUCKING,JOAQUIN BARRON,"2079 POINT LOMA DR
EAGLE PASS, TX   78852-3228",(830) 776-3226,(830) 776-3226,TEXMEXTRUK@YAHOO.COM,"2079 POINT LOMA DR
EAGLE PASS, TX   78852-3228",1,1,2019-11-12,,"Auth. For Hire, ","Intrastate Only (Non-HM), ","General Freight, OTHER, "
3356853,,CARRIER,ACTIVE,None,GARIBAY TRUCKING LLC,,GARIBAY TRUCKING LLC,"10519 TROTTERS BAY
SAN ANTONIO, TX   78254-5952",(210) 854-2714,(210) 854-2714,GARIBAYARIANA@YAHOO.COM,"10519 TROTTERS BAY
SAN ANTONIO, TX   78254-5952",1,1,2019-11-12,,"Auth. For Hire, ","Intrastate Only (Non-HM), ","Building Materials, Construction, "
3356876,,CARRIER,NOT AUTHORIZED,None,MANJUH LOGISTICS AND TRUCKING LLC,MLT TRUCKING,MANJUH LOGISTICS AND TRUCKING LLC,"1950 DRUSY WAY
HEARTLAND, TX   75126",(817) 217-3538,(817) 217-3538,NDICHO22@GMAIL.COM,"1950 DRUSY WAY
HEARTLAND, TX   75126-1120",0,0,2019-11-12,,"Auth. For Hire, ","Interstate, ","General Freight, "
3356894,,CARRIER,ACTIVE,None,RAYMUNDO MORALES IZAGUIRRE,RAY'S TRUCKING,RAYMUNDO MORALES IZAGUIRRE,"6013 TRESCON DR
HOUSTON, TX   77048",(832) 762-5290,(832) 762-5290,RAYIZAGUIRRE32@GMAIL.COM,"6013 TRESCON DR
HOUSTON, TX   77048",2,2,2019-11-20,1 (2018),"Auth. For Hire, ","Intrastate Only (Non-HM), ","SCRAP METAL, "
3356968,,CARRIER,NOT AUTHORIZED,None,AMERICAN TRANSPORT LOGISTIC,,ANTOINA ABREGO,"12322 KING FERDINAND DR
HOUSTON, TX   77044",(346) 357-8460,(346) 357-8460,AMERICANTRANSPORTLOGISTIC2019@GMAIL.COM,"12322 KING FERDINAND DR
HOUSTON, TX   77044-4582",61,8,2019-11-12,,"Auth. For Hire, ","Interstate, ","General Freight, "
3356972,,CARRIER,NOT AUTHORIZED,None,JOSUE GARZA,3J TRANSPORT,JOSUE GARZA,"5589 COZUMEL ST
RIO GRANDE CY, TX   78582",(956) 566-5227,(956) 566-5227,3JTRANSPORT79@GMAIL.COM,"PO BOX 874
RIO GRANDE CY, TX   78582-0874",1,1,2019-11-12,,"Auth. For Hire, ","Interstate, ","Fresh Produce, Commodities Dry Bulk, Refrigerated Food, Beverages, Paper Products, "
3356973,,CARRIER,ACTIVE,None,TEXAS RURAL WASTE INC,,TEXAS RURAL WASTE INC,"129 E MAIN ST STE A
WHITESBORO, TX   76273-1739",(940) 479-0189,(940) 479-0189,YOKLEY@COX.NET,"129 E MAIN ST STE A
WHITESBORO, TX   76273-1739",3,3,2019-11-19,,"Auth. For Hire, ","Intrastate Only (Non-HM), ","General Freight, Garbage/Refuse, "
3356988,,CARRIER,ACTIVE,None,VIRGINIA LYNN BROOKS,FREE BYRD TRUCKING,VIRGINIA LYNN BROOKS,"3502 HOLY RD
CROSBY, TX   77532-7341",(832) 898-1062,(832) 898-1062,BRENDA@ROADLEGAL.COM,"3502 HOLY RD
CROSBY, TX   77532-7341",1,2,2019-11-12,12 (2019),"Auth. For Hire, ","Intrastate Only (Non-HM), ","General Freight, Oilfield Equipment, "
3357032,,CARRIER,ACTIVE,None,MRC TRUCKING LLC,,MRC TRUCKING LLC,"1173 COUNTY ROAD 3542
CLEVELAND, TX   77327-1825",(832) 673-8016,(832) 673-8016,MRCTRUCKING19@GMAIL.COM,"1173 COUNTY ROAD 3542
CLEVELAND, TX   77327-1825",1,1,2019-11-12,,"Auth. For Hire, ","Intrastate Only (Non-HM), ","Garbage/Refuse, "
3357042,,CARRIER,NOT AUTHORIZED,None,QUINN DAYSE TRUCKING,,QUINN DAYSE TRUCKING,"6550 LEXINGTON DR APT 247
BEAUMONT, TX   77706",(409) 749-7948,(409) 749-7948,QDAYSE84@GMAIL.COM,"6550 LEXINGTON DR APT 247
BEAUMONT, TX   77706-5934",1,2,2019-11-12,,"Auth. For Hire, ","Interstate, ","General Freight, Metal: sheets, coils, rolls, Logs, Poles, Beams, Lumber, Building Materials, Commodities Dry Bulk, Utilities, Construction, "
3357046,,CARRIER,ACTIVE,None,LA PATRONA TRUCKING LLC,,LA PATRONA TRUCKING LLC,"209 HIDALGO ST
LAREDO, TX   78040-6123",(956) 319-7527,(956) 319-7527,GRIS.V6969@ICLOUD.COM,"209 HIDALGO ST
LAREDO, TX   78040-6123",1,2,2019-11-12,,"Auth. For Hire, ","Intrastate Only (Non-HM), ","General Freight, OTHER, "
3357080,,CARRIER,NOT AUTHORIZED,None,HUETT MOTORSPORTS LLC,WAHOO SPECIALTY TRANSPORT,HUETT MOTORSPORTS LLC,"626 SOUTHEAST DR
DALLAS, TX   75217",(972) 974-3673,(972) 974-3673,HUETTMOTORSPORTS@GMAIL.COM,"626 SOUTHEAST DR
DALLAS, TX   75217-4844",1,1,2019-11-12,1 (2018),"Auth. For Hire, ","Interstate, ","General Freight, Motor Vehicles, "
3357091,,CARRIER,NOT AUTHORIZED,None,EASY DAY TRANSPORT LLC,,EASY DAY TRANSPORT LLC,"706 CANYON RIDGE DR
EULESS, TX   76040",(469) 337-6152,(469) 337-6152,BLAKE@DELIVERYMG.COM,"706 CANYON RIDGE DR
EULESS, TX   76040-5749",25,40,2019-11-13,1 (2018),"Auth. For Hire, ","Interstate, ","General Freight, "
3357094,,CARRIER,ACTIVE,None,GISSET CRISTINA ROMERO,GCR TRUCKING,GISSET CRISTINA ROMERO,"9803 EBLEN DR
HOUSTON, TX   77040-3840",(713) 488-0659,(713) 488-0659,GISSET_ROMERO9@HOTMAIL.COM,"9803 EBLEN DR
HOUSTON, TX   77040-3840",1,1,2019-11-12,,"Auth. For Hire, ","Intrastate Only (Non-HM), ","Building Materials, "
3357153,,CARRIER,NOT AUTHORIZED,None,PREMERA TRUCKING LLC,,PREMERA TRUCKING LLC,"2530 MONTY ST
FORNEY, TX   75126",(214) 875-1945,(214) 875-1945,PREMERATRUCKING@GMAIL.COM,"2530 MONTY ST
FORNEY, TX   75126-1657",1,1,2019-11-12,,"Auth. For Hire, ","Interstate, ","General Freight, "
3357171,,CARRIER,NOT AUTHORIZED,None,JA&C TRUCKING LLC,,JA&C TRUCKING LLC,"6932 LAURELHILL CT N
FORT WORTH, TX   76133",(574) 401-2152,(574) 401-2152,IAMFRANK2012@GMAIL.COM,"6932 LAURELHILL CT N
FORT WORTH, TX   76133-8133",1,4,2019-11-12,,"Auth. For Hire, ","Interstate, ","General Freight, Metal: sheets, coils, rolls, Motor Vehicles, Fresh Produce, Commodities Dry Bulk, Beverages, Paper Products, "
3357173,,CARRIER,NOT AUTHORIZED,None,DAVID PAUL DICKENS,DAVES TRANSPORT,DAVID PAUL DICKENS,"1618 E PETERS COLONY RD
CARROLLTON, TX   75007",(214) 546-0810,(214) 546-0810,DAVID.DICKENS@YMAIL.COM,"1618 E PETERS COLONY RD
CARROLLTON, TX   75007",1,1,2019-11-15,1 (2018),"Auth. For Hire, ","Interstate, ","Motor Vehicles, "
3357185,,CARRIER,ACTIVE,None,ADAIR CUSTOM LLC,,ADAIR CUSTOM LLC,"30115 S LAKE FALLS LN
SPRING, TX   77386-2907",(713) 408-6702,(713) 408-6702,SRADAIR@GMAIL.COM,"30115 S LAKE FALLS LN
SPRING, TX   77386-2907",1,1,2019-11-12,,"Auth. For Hire, ","Intrastate Only (Non-HM), ","General Freight, Logs, Poles, Beams, Lumber, Building Materials, Garbage/Refuse, Construction, OTHER, "
3357191,,CARRIER,NOT AUTHORIZED,None,DM AMERICA LLC,,DM AMERICA LLC,"548 E AVENUE J APT A
GRAND PRAIRIE, TX   75050",(469) 805-9500,(469) 805-9500,VYALFEROV@GMAIL.COM,"548 E AVENUE J APT A
GRAND PRAIRIE, TX   75050-2537",1,3,2019-11-12,,"Auth. For Hire, ","Interstate, ","General Freight, "
3357200,,CARRIER,NOT AUTHORIZED,None,ROBERTO VILLALBA,WEST STAR TRANSPORT,ROBERTO VILLALBA,"753 TEICHELKAMP DR
EL PASO, TX   79928",(915) 234-8966,(915) 234-8966,WESTSTARTRANSPORT1@GMAIL.COM,"753 TEICHELKAMP DR
EL PASO, TX   79928-7436",1,1,2019-11-12,,"Auth. For Hire, ","Interstate, ","General Freight, "
3357217,,CARRIER,NOT AUTHORIZED,None,J BROWN LOGISTICS LLC,,J BROWN LOGISTICS LLC,"578 COUNTY ROAD 3371
KEMPNER, TX   76539",(254) 392-1891,(254) 392-1891,JBROWNLOGISTICS2020@GMAIL.COM,"578 COUNTY ROAD 3371
KEMPNER, TX   76539-3735",1,4,2019-11-13,,"Auth. For Hire, ","Interstate, ","General Freight, "
3357223,,CARRIER,NOT AUTHORIZED,None,PVG SERVICES LLC,,PVG SERVICES LLC,"302 BOOMTOWN ST
LAREDO, TX   78043",(956) 650-4318,(956) 650-4318,JGONZALEZ@EMSLAREDO.COM,"302 BOOMTOWN ST
LAREDO, TX   78043-4705",4,8,2019-11-13,,"Auth. For Hire, ","Interstate, ","General Freight, Beverages, Paper Products, OTHER, "
3357258,,CARRIER,ACTIVE,None,HENRY JOVANNY AVALOS,TIKVAH,HENRY JOVANNY AVALOS,"9610 ELIZABETHS GLEN LN
TOMBALL, TX   77375-8276",(832) 286-2062,(832) 286-2062,HENRY.AVALOS@ME.COM,"9610 ELIZABETHS GLEN LN
TOMBALL, TX   77375-8276",1,1,2019-11-13,,"Auth. For Hire, ","Intrastate Only (Non-HM), ","Building Materials, EARTH, SAND, GRA, "
3357271,,CARRIER,ACTIVE,None,BRENDA NICOLE ORDONEZ,JMB TRAVEL ZONE,BRENDA NICOLE ORDONEZ,"8614 GREINER DR
HOUSTON, TX   77080-3504",(713) 301-4939,(713) 301-4939,CLAUDIAMM001@GMAIL.COM,"8614 GREINER DR
HOUSTON, TX   77080-3504",1,1,2019-11-13,,"Auth. For Hire, ","Intrastate Only (Non-HM), ","General Freight, OTHER, "
3357281,,CARRIER,NOT AUTHORIZED,None,CHARLES REEVES,ENVY EXPRESS,CHARLES REEVES,"2855 COMMERCIAL CENTER BLVD APT 615
KATY, TX   77494",(405) 792-6946,(832) 994-9761,CREEVES4409@GMAIL.COM,"2855 COMMERCIAL CENTER BLVD APT 615
KATY, TX   77494-6366",1,1,2019-11-13,,"Auth. For Hire, ","Interstate, ","General Freight, Machinery, Large Objects, "
3357283,,CARRIER,NOT AUTHORIZED,None,KELEX TRANSPORTATION LLC,,KELEX TRANSPORTATION LLC,"5631 SADDLE BRED DR
HOUSTON, TX   77084",(785) 656-1873,(785) 656-1873,KELLSOFO03@GMAIL.COM,"5631 SADDLE BRED DR
HOUSTON, TX   77084-3172",1,1,2019-11-22,,"Auth. For Hire, ","Interstate, ","Motor Vehicles, "
3357285,,CARRIER,ACTIVE,None,EDGAR ALBERTO PUERTA,,EDGAR ALBERTO PUERTA,"3502 BRACKENFERN RD
KATY, TX   77449",(832) 640-4246,(832) 640-4246,MYRIAMGALINDO@HOTMAIL.COM,"3502 BRACKENFERN RD
KATY, TX   77449-3278",1,1,2019-11-13,,"Auth. For Hire, ","Intrastate Only (Non-HM), ","DIRT, SAND AND G, "
3357305,,CARRIER,NOT AUTHORIZED,None,BELEA CORPORATION,,BELEA CORPORATION,"3406 HALIFAX DR
ARLINGTON, TX   76013",(817) 217-5391,(817) 217-5391,ECOTHINK21@GMAIL.COM,"3406 HALIFAX DR
ARLINGTON, TX   76013-1907",1,4,2019-11-13,,"Auth. For Hire, ","Interstate, ","General Freight, Fresh Produce, Meat, Commodities Dry Bulk, Refrigerated Food, "
3357328,,CARRIER,NOT AUTHORIZED,None,ON NOTE ENTERTAINMENT INC,EN ROUTE DELIVERY,ON NOTE ENTERTAINMENT INC,"8711 GRASSWREN RD
RICHMOND, TX   77407",(932) 434-7409,(932) 434-7409,ONNOTE.ENT80@GMAIL.COM,"8711 GRASSWREN RD
RICHMOND, TX   77407-2018",2,2,2019-11-13,,"Auth. For Hire, ","Interstate, ","General Freight, "
3357340,,CARRIER,ACTIVE,None,ISRAEL GONZALEZ,EZ HOTSHOT & TOWING,ISRAEL GONZALEZ,"1711 SHELMIRE DR
DALLAS, TX   75224-1339",(214) 744-9381,(214) 744-9381,EAZYGONZALEZ3@GMAIL.COM,"1711 SHELMIRE DR
DALLAS, TX   75224-1339",1,1,2019-11-13,1 (2018),"Auth. For Hire, ","Intrastate Only (Non-HM), ","General Freight, Motor Vehicles, Drive/Tow away, "
3357342,,CARRIER,NOT AUTHORIZED,None,FRANCISCO HERRERA,,FRANCISCO HERRERA,"8885 RESEARCH BLVD APT 1307
AUSTIN, TX   78758",(706) 508-5453,(706) 508-5453,FRANCISCOHOLG1971@GMAIL.COM,"8885 RESEARCH BLVD APT 1307
AUSTIN, TX   78758-8508",1,4,2019-11-13,,"Auth. For Hire, ","Interstate, ","General Freight, "
3357351,,CARRIER,ACTIVE,None,EDUARDO DE LA FUENTE,E V S CONSTRUCTION,EDUARDO DE LA FUENTE,"3045 VALLETTA ST
BROWNSVILLE, TX   78520-3790",(956) 223-7231,(956) 223-7231,EDUARDODLF76@GMAIL.COM,"3045 VALLETTA ST
BROWNSVILLE, TX   78520-3790",1,2,2019-11-13,,"Auth. For Hire, ","Intrastate Only (Non-HM), ","General Freight, Construction, OTHER, "
3357380,,CARRIER,ACTIVE,None,SIMPLE FREIGHT UNLIMITED LLC,,SIMPLE FREIGHT UNLIMITED LLC,"30 LAUREL CANYON VILLAGE CIR # 9204
CANTON, GA   30114",(832) 620-0414,(281) 236-6120,GREENSTARMOVING@GMAIL.COM,"9111 KNIGHTSLAND TRL
HOUSTON, TX   77083-6581",1,1,2019-11-14,,"Auth. For Hire, ","Interstate, ","General Freight, "
3357384,,CARRIER,NOT AUTHORIZED,None,EXODUS TRUCKING INC,,EXODUS TRUCKING INC,"9669 N HIGHWAY 147
SAN AUGUSTINE, TX   75972",(936) 275-9743,(936) 275-9743,MILLERTRANSPORTATION08@GMAIL.COM,"9669 N HIGHWAY 147
SAN AUGUSTINE, TX   75972-7410",2,4,2019-11-13,,"Auth. For Hire, ","Interstate, ","General Freight, OTHER, "
3357398,,CARRIER,NOT AUTHORIZED,None,LEGACY PREMIER LLC,,LEGACY PREMIER LLC,"22102 FLASHING RIDGE DR
SPRING, TX   77389",(405) 792-6946,(337) 912-9591,TABIAS2JACKSON@GMAIL.COM,"22102 FLASHING RIDGE DR
SPRING, TX   77389-1474",1,1,2019-11-13,,"Auth. For Hire, ","Interstate, ","Motor Vehicles, "
3357403,,CARRIER,ACTIVE,None,EXTRA VENTURES INC,,EXTRA VENTURES INC,"8214 SCHUMANN CT
HOUSTON, TX   77083-5453",(267) 875-9134,(267) 875-9134,OLUSEGUN.OLUDAMIRO@YAHOO.COM,"8214 SCHUMANN CT
HOUSTON, TX   77083-5453",1,1,2019-11-20,,"Auth. For Hire, ","Intrastate Only (Non-HM), ","General Freight, Motor Vehicles, "
3357406,,CARRIER,ACTIVE,None,VICTOR GOMEZ DIAZ,TURISMOS GOMEZ EXPRESS,VICTOR GOMEZ DIAZ,"12737 TIERRA FLORES DR
EL PASO, TX   79938-4333",(505) 492-9091,(505) 492-9091,TURISMOSGOMEZEXPRESS@OUTLOOK.COM,"12737 TIERRA FLORES DR
EL PASO, TX   79938-4333",1,1,2019-11-13,,"Auth. For Hire, ","Intrastate Only (Non-HM), ","Passengers, "
3357481,,CARRIER,NOT AUTHORIZED,None,FJL CHINOS TRUCKING LLC,,FJL CHINOS TRUCKING LLC,"3302 GARDEN VALLEY RD
TYLER, TX   75702",(903) 707-5413,(903) 707-5413,FIDE5050@GMAIL.COM,"3302 GARDEN VALLEY RD
TYLER, TX   75702-3703",1,1,2019-11-21,1 (2018),"Auth. For Hire, ","Intrastate Only (Non-HM), ","Commodities Dry Bulk, "
3357482,,CARRIER,NOT AUTHORIZED,None,MARISOL CORRALES SURIS,MAR Y SOL TRUCKING,MARISOL CORRALES SURIS,"12707 BELLAIRE BLVD APT 602
HOUSTON, TX   77072",(832) 322-1288,(832) 322-1288,MARISOLCORRALESRUFFO@GMAIL.COM,"12707 BELLAIRE BLVD APT 602
HOUSTON, TX   77072-2285",1,1,2019-11-13,,"Auth. For Hire, ","Interstate, ","Building Materials, OTHER, "
3357483,,CARRIER,NOT AUTHORIZED,None,UNITED HAULERS,,UNITED HAULERS,"509 CRESLINE ST
HOUSTON, TX   77076",(832) 533-7859,(832) 533-7859,LUPE@UNITEDHAULERS.ORG,"509 CRESLINE ST
HOUSTON, TX   77076-2648",2,2,2019-11-18,1 (2018),"Auth. For Hire, ","Interstate, ","General Freight, "
3357487,,CARRIER,ACTIVE,None,CROWN JULES MOVING LLC,GREY WOLF MOVING,CROWN JULES MOVING LLC,"10015 N ELDRIDGE PKWY STE E-104
HOUSTON, TX   77065-5616",(281) 653-9555,(281) 653-9555,JULIEQ2458@SBCGLOBAL.NET,"951 RIVER TER
NEW BRAUNFELS, TX   78130-3425",5,6,2019-11-13,,"Auth. For Hire, ","Intrastate Only (Non-HM), ","General Freight, Household Goods, "
3357503,,CARRIER,ACTIVE,None,RICARDO GALINDO AMESQUITA,LRO TRANSPORTS,RICARDO GALINDO AMESQUITA,"1612 N COUNTY ROAD 1140
MIDLAND, TX   79706-4446",(432) 230-3216,(432) 230-3216,AMESQUITARICHARD31@GMAIL.COM,"1612 N COUNTY ROAD 1140
MIDLAND, TX   79706-4446",1,1,2019-11-21,,"Auth. For Hire, ","Intrastate Only (Non-HM), ","Oilfield Equipment, "
3357505,,CARRIER,ACTIVE,None,FRANCISCA DACOSTA SOUSA,PF TRUCKING,FRANCISCA DACOSTA SOUSA,"1718 SADDLECREEK DR
HOUSTON, TX   77090-2108",(346) 775-5589,(346) 775-5589,YESENIANORIEGA24@OUTLOOK.COM,"1718 SADDLECREEK DR
HOUSTON, TX   77090-2108",1,1,2019-11-13,,"Auth. For Hire, ","Intrastate Only (Non-HM), ","OTHER, "
3357513,,CARRIER,ACTIVE,None,CRAVE MOVERS,,CRAVE MOVERS,"1301 RICHMOND AVE APT 317
HOUSTON, TX   77006-5488",(443) 454-4456,(281) 818-6126,MDIUNO@ME.COM,"1301 RICHMOND AVE APT 317
HOUSTON, TX   77006-5488",2,4,2019-11-13,,"Auth. For Hire, ","Intrastate Only (Non-HM), ","Household Goods, "
3357524,,CARRIER,NOT AUTHORIZED,None,CARLOS H CRUZ,DYC EXPRESS,CARLOS H CRUZ,"913 SENDERO ST
SAN JUAN, TX   78589",(956) 355-0522,(956) 355-0522,DYCEXPRESS956@GMAIL.COM,"913 SENDERO ST
SAN JUAN, TX   78589-4220",1,1,2019-11-13,,"Auth. For Hire, ","Interstate, ","General Freight, Fresh Produce, Meat, Refrigerated Food, Beverages, Paper Products, "
3357546,,CARRIER,NOT AUTHORIZED,None,LANDLINE TITLE LLC,,LANDLINE TITLE LLC,"4213 HOLBURN DR
MCKINNEY, TX   75070",(347) 825-5555,(347) 825-5555,MADINA3@GMAIL.COM,"4213 HOLBURN DR
MCKINNEY, TX   75070-5857",1,1,2019-11-13,,"Auth. For Hire, ","Interstate, ","General Freight, "
3357561,,CARRIER,NOT AUTHORIZED,None,GPW TRANSPORTATION INC,,GPW TRANSPORTATION INC,"2007 SILVER SPUR
BELTON, TX   76513",(281) 814-7389,(281) 814-7389,JAMESGRAHAM7@YAHOO.COM,"2007 SILVER SPUR
BELTON, TX   76513-6725",1,1,2019-11-22,1 (2018),"Auth. For Hire, ","Interstate, ","General Freight, "
3357582,,CARRIER,ACTIVE,None,BASI LOGISTICS GROUP INC,,BASI LOGISTICS GROUP INC,"407 INTERAMERICA BLVD
LAREDO, TX   78045-7913",(956) 729-0890,(956) 729-0890,BASILOGISTICSGROUPINC@HOTMAIL.COM,"414 RIENDA DR
LAREDO, TX   78045-5107",1,1,2019-11-13,,"Auth. For Hire, ","Intrastate Only (Non-HM), ","General Freight, "
3357608,,CARRIER,ACTIVE,None,CZARINA B SALGADO,K & W LOGISTIC,CZARINA B SALGADO,"2813 SANDY LN
GRAND PRAIRIE, TX   75050",(214) 259-5849,(214) 259-5849,CZARINAGUILLEMO@YAHOO.COM,"1133 ESTERS RD APT 605
IRVING, TX   75061-9170",1,1,2019-11-13,,"Auth. For Hire, ","Intrastate Only (Non-HM), ","General Freight, "
3357615,,CARRIER,ACTIVE,None,KASH TRANSPORTATION AND LOGISTICS LLC,,KASH TRANSPORTATION AND LOGISTICS LLC,"2525 1/2 CRESTON DR
HOUSTON, TX   77026",(832) 435-3945,(832) 435-3945,CWILLIAMS798743@GMAIL.COM,"2525 1/2 CRESTON DR
HOUSTON, TX   77026",2,2,2019-11-20,,"Auth. For Hire, ","Intrastate Only (Non-HM), ","General Freight, Motor Vehicles, "
3357627,,CARRIER,NOT AUTHORIZED,None,NIN LOGISTICS LLC,,NIN LOGISTICS LLC,"9351 W DUNN ST
ODESSA, TX   79763",(435) 352-7765,(435) 352-7765,BROOKS.AIRFILTRATION@GMAIL.COM,"PO BOX 13565
ODESSA, TX   79768-3565",2,1,2019-11-13,,"Auth. For Hire, ","Interstate, ","General Freight, Oilfield Equipment, "
3357643,,CARRIER,NOT AUTHORIZED,None,LASHASTA L JONES,ABOVE & BEYOND DISTRIBUTION,LASHASTA L JONES,"1158 DUBLIN DR
FORT WORTH, TX   76134",(817) 721-9544,(817) 721-9544,SHAI274171@GMAIL.COM,"1158 DUBLIN DR
FORT WORTH, TX   76134-2222",1,2,2019-11-13,1 (2018),"Auth. For Hire, ","Interstate, ","General Freight, "
3357703,,CARRIER,NOT AUTHORIZED,None,URBINA EXPRESS INC,,URBINA EXPRESS INC,"119 KAHLO LOOP
LAREDO, TX   78045",(956) 489-3306,(956) 489-3306,URBINAEXP@OUTLOOK.COM,"119 KAHLO LOOP
LAREDO, TX   78045-6642",0,1,2019-11-13,,"Auth. For Hire, ","Interstate, ","General Freight, OTHER, "
3357754,,CARRIER,NOT AUTHORIZED,None,J FORCE LOGISTICS LLC,,J FORCE LOGISTICS LLC,"229 PARKER RD
HOUSTON, TX   77076",(407) 760-6488,(407) 760-6488,JONGARCIA02@HOTMAIL.COM,"229 PARKER RD
HOUSTON, TX   77076-2537",1,1,2019-11-13,,"Auth. For Hire, ","Interstate, ","General Freight, Building Materials, Machinery, Large Objects, Construction, "
3357836,,CARRIER,NOT AUTHORIZED,None,DAYDREAM LOGISTICS LLC,,DAYDREAM LOGISTICS LLC,"716 HIDDEN POINT DR
FORT WORTH, TX   76120",(682) 587-9550,(682) 587-9550,INFO@DAYDREAMLOGISTICS.COM,"716 HIDDEN POINT DR
FORT WORTH, TX   76120-3629",1,1,2019-11-15,1 (2018),"Auth. For Hire, ","Intrastate Only (Non-HM), ","Motor Vehicles, "
3357839,,CARRIER,ACTIVE,None,ROMEL NOE SANDOVAL JR,RELIABLE SERVICE TRANSPORTATION,ROMEL NOE SANDOVAL JR,"3003 NEW COPELAND RD
TYLER, TX   75701-7051",(903) 253-1335,(903) 253-1335,JUNIORSANDOVAL903@YAHOO.COM,"3003 NEW COPELAND RD
TYLER, TX   75701-7051",1,1,2019-11-14,,"Auth. For Hire, ","Intrastate Only (Non-HM), ","General Freight, Logs, Poles, Beams, Lumber, Building Materials, Grain, Feed, Hay, "
3357854,,CARRIER,ACTIVE,None,RAUL & SONS TRUCKING LLC,,RAUL & SONS TRUCKING LLC,"3607 ELK LN
EAGLE PASS, TX   78852-3642",(830) 213-0700,(830) 213-0700,RAULANDSONSTRUCKING@GMAIL.COM,"3607 ELK LN
EAGLE PASS, TX   78852-3642",1,2,2019-11-14,,"Auth. For Hire, ","Intrastate Only (Non-HM), ","General Freight, "
3357875,,CARRIER,NOT AUTHORIZED,None,GO GETT'EM TRANSPORTATION LLC,,GO GETT'EM TRANSPORTATION LLC,"440 BENMAR DR STE 2250
HOUSTON, TX   77060",(366) 322-3999,(366) 322-3999,INFO@GGTRANSPO.COM,"440 BENMAR DR STE 2250
HOUSTON, TX   77060-2962",1,1,2019-11-14,,"Auth. For Hire, ","Interstate, ","General Freight, Household Goods, Metal: sheets, coils, rolls, Logs, Poles, Beams, Lumber, Oilfield Equipment, "
3357884,,CARRIER,NOT AUTHORIZED,None,PLATINUM EXPRESS TRANSPORT LLC,,PLATINUM EXPRESS TRANSPORT LLC,"9720 COIT RD STE 220
PLANO, TX   75025",(214) 836-3395,(214) 836-3395,PLATINUMEXPRESSTRANSPORT@GMAIL.COM,"9720 COIT RD STE 220
PLANO, TX   75025-5847",2,2,2019-11-14,,"Auth. For Hire, ","Interstate, ","General Freight, Refrigerated Food, "
3357897,,CARRIER,ACTIVE,None,NYZ DISPOSAL LLC,,NYZ DISPOSAL LLC,"6501 BOEING DR STE J2
EL PASO, TX   79925-1086",(915) 633-3196,(915) 633-3196,NYZDISPOSAL@GMAIL.COM,"6501 BOEING DR STE J2
EL PASO, TX   79925-1086",1,1,2019-11-14,,"Auth. For Hire, ","Intrastate Only (Non-HM), ","General Freight, "
3357899,,CARRIER,ACTIVE,None,LEOS MOVING SERVICES,,LEOS MOVING SERVICES,"6931 CHAPEL MEADOW LN
RICHMOND, TX   77407-3834",(832) 212-5040,(832) 212-5040,LEOSMOVERSHOUSTON@GMAIL.COM,"6931 CHAPEL MEADOW LN
RICHMOND, TX   77407-3834",2,2,2019-11-14,,"Auth. For Hire, ","Intrastate Only (Non-HM), ","Household Goods, "
3357911,,CARRIER,ACTIVE,None,ORLANDO FRANCISCO GARCIA,CEREZO TRUCKING,ORLANDO FRANCISCO GARCIA,"20142 BEECHVIEW LN
KATY, TX   77449-3123",(713) 884-7502,(713) 884-7502,MARCELA.SUAREZ@COSECHAINSURANCE.COM,"20142 BEECHVIEW LN
KATY, TX   77449-3123",1,1,2019-11-19,1 (2018),"Auth. For Hire, ","Intrastate Only (Non-HM), ","Logs, Poles, Beams, Lumber, "
3357912,,CARRIER,ACTIVE,None,SANDERS OF AUSTIN LLC,,SANDERS OF AUSTIN LLC,"5110 HEFLIN LN
AUSTIN, TX   78721-1528",(512) 538-3444,(512) 538-3444,SANDERSREGGIEC@GMAIL.COM,"5110 HEFLIN LN
AUSTIN, TX   78721-1528",1,2,2019-11-14,,"Auth. For Hire, ","Intrastate Only (Non-HM), ","General Freight, "
3357936,,CARRIER,ACTIVE,None,BILLY JACK MCCLELLAND,MCCLELLAND DIRT,BILLY JACK MCCLELLAND,"1608 MATTHEWS LN
KOUNTZE, TX   77625-8365",(409) 201-6044,(409) 201-6044,BRENDA@ROADLEGAL.COM,"1608 MATTHEWS LN
KOUNTZE, TX   77625-8365",1,2,2019-11-14,12 (2019),"Auth. For Hire, ","Intrastate Only (Non-HM), ","DIRT SAND, "
3357971,,CARRIER,ACTIVE,None,FNU ANIL NELSAN,ISAAC TRANSPORT,FNU ANIL NELSAN,"913 MEADOWGATE DR
GARLAND, TX   75040-3643",(469) 989-2467,(469) 989-2467,COMMERCIAL@PRIMETIMEIS.COM,"913 MEADOWGATE DR
GARLAND, TX   75040-3643",1,1,2019-11-22,,"Auth. For Hire, ","Intrastate Only (Non-HM), ","General Freight, "
3357993,,CARRIER,ACTIVE,None,OV TRUCKING LLC,,OV TRUCKING LLC,"372 SHORELINE DR
AZLE, TX   76020",(682) 365-9798,(682) 365-9798,LMENDEZFELICIANO@ICLOUD.COM,"372 SHORELINE DR
AZLE, TX   76020",1,1,2019-11-14,"50,000 (2019)","Auth. For Hire, ","Intrastate Only (Non-HM), ","DIRT SAND GRAVEL, "
3358039,,CARRIER,NOT AUTHORIZED,None,MICHAEL JOSEPH BIRKHOLZ,BIRKHOLZ FAMILY TRUCKING,MICHAEL JOSEPH BIRKHOLZ,"9865 GOBY ST
EL PASO, TX   79924",(941) 584-9868,(941) 584-9868,INFO@DOTORDER.INFO,"PO BOX 4076
EL PASO, TX   79914-4076",1,1,2019-11-14,,"Auth. For Hire, ","Interstate, ","General Freight, "
3358042,,CARRIER,NOT AUTHORIZED,None,COMPLEX TRUCKING LLC,,COMPLEX TRUCKING LLC,"6734 MOUNT HOUSTON RD
HOUSTON, TX   77050",(513) 652-7857,(513) 652-7857,COMPLEXTRUCKING@YAHOO.COM,"7425 MOUNT HOUSTON RD
HOUSTON, TX   77050-5723",1,1,2019-11-14,,"Auth. For Hire, ","Interstate, ","General Freight, Refrigerated Food, Beverages, "
3358044,,CARRIER,ACTIVE,None,ER POWER TRUCKING LLC,,ER POWER TRUCKING LLC,"1232 CATHEY ST
CEDAR HILL, TX   75104-8150",(469) 285-1979,(469) 285-1979,EDBERBOY@YAHOO.COM,"1232 CATHEY ST
CEDAR HILL, TX   75104-8150",1,1,2019-11-14,,"Auth. For Hire, ","Intrastate Only (Non-HM), ","General Freight, Construction, "
3358063,,CARRIER,NOT AUTHORIZED,None,TEXAS MANO'S TRUCKING LLC,,TEXAS MANO'S TRUCKING LLC,"2410 WINDSOR DR
ODESSA, TX   79761",(575) 552-5119,(575) 552-5119,ASHLEEFORTUNE@ICLOUD.COM,"2410 WINDSOR DR
ODESSA, TX   79761-1541",5,5,2019-11-14,1 (2018),"Auth. For Hire, ","Interstate, ","DRILL, "
3358069,,CARRIER,ACTIVE,None,TERRAZAS TRUCKING LLC,,TERRAZAS TRUCKING LLC,"12637 ARROW WEED DR
EL PASO, TX   79928-6234",(915) 740-7809,(915) 740-7809,MARCO597@HOTMAIL.COM,"12637 ARROW WEED DR
EL PASO, TX   79928-6234",1,1,2019-11-14,,"Auth. For Hire, ","Intrastate Only (Non-HM), ","OTHER, "
3358082,,CARRIER,ACTIVE,None,LISARDO SOSA PEREZ,L S P TRUCKING,LISARDO SOSA PEREZ,"2218 GREENHOUSE RD APT 1109
HOUSTON, TX   77084-7952",(713) 922-8260,(713) 922-8260,LISARDOSOSA@GMAIL.COM,"2218 GREENHOUSE RD APT 1109
HOUSTON, TX   77084-7952",1,1,2019-11-14,,"Auth. For Hire, ","Intrastate Only (Non-HM), ","OTHER, "
3358083,,CARRIER,NOT AUTHORIZED,None,BUCK HOT SHOT LLC,,BUCK HOT SHOT LLC,"7024 MOHEGAN DR
FORT WORTH, TX   76179",(817) 258-5044,(817) 258-5044,KCBUCK@YMAIL.COM,"7024 MOHEGAN DR
FORT WORTH, TX   76179-1482",1,1,2019-11-14,,"Auth. For Hire, ","Interstate, ","General Freight, Metal: sheets, coils, rolls, Logs, Poles, Beams, Lumber, Building Materials, Machinery, Large Objects, "
3358105,,CARRIER,NOT AUTHORIZED,None,FAUSTINA TRANSPORTATION LLC,,FAUSTINA TRANSPORTATION LLC,"2906 E MARTIN LUTHER KING JR BLVD APT 2417
AUSTIN, TX   78702",(512) 521-6602,(512) 521-6602,FAUSTINATRANSPORTTX@GMAIL.COM,"2906 E MARTIN LUTHER KING JR BLVD APT 2417
AUSTIN, TX   78702-1671",1,1,2019-11-14,,"Auth. For Hire, ","Interstate, ","General Freight, Metal: sheets, coils, rolls, Logs, Poles, Beams, Lumber, Building Materials, Machinery, Large Objects, Fresh Produce, Garbage/Refuse, Commodities Dry Bulk, Beverages, Paper Products, "
3358112,,CARRIER,NOT AUTHORIZED,None,GULF COAST COMPOSITE MARINE SPECIALIST INC,GULF COAST COMPLETE MARINE SERVICE,GULF COAST COMPOSITE MARINE SPECIALIST INC,"2301 ANDERS LN STE A
KEMAH, TX   77565",(281) 334-4417,(281) 334-4417,DAVID@GULFCOASTCOMPLETE.COM,"2301 ANDERS LN STE A
KEMAH, TX   77565-3263",1,4,2019-11-14,,"Auth. For Hire, ","Interstate, ","General Freight, OTHER, "
3358124,,CARRIER,ACTIVE,None,GRINDN ELITE,,GRINDN ELITE,"1840 EIDSON RD
EAGLE PASS, TX   78852-5660",(830) 765-6593,(830) 765-6593,YARITZASANCHEZ2020@YAHOO.COM,"1840 EIDSON RD
EAGLE PASS, TX   78852-5660",1,1,2019-11-14,,"Auth. For Hire, ","Intrastate Only (Non-HM), ","General Freight, Metal: sheets, coils, rolls, Building Materials, OTHER, "
3358132,,CARRIER,NOT AUTHORIZED,None,JEFFREY HARRIS WEINGART,SAN ANTONIO HEAVY DUTY WRECKER SERVICE,JEFFREY HARRIS WEINGART,"18130 TALAVERA RDG APT 488
SAN ANTONIO, TX   78257",(405) 792-6946,(713) 540-7778,JEFFREYWEINGART@YAHOO.COM,"18130 TALAVERA RDG APT 488
SAN ANTONIO, TX   78257-1465",1,2,2019-11-14,,"Auth. For Hire, ","Interstate, ","General Freight, Motor Vehicles, "
3358147,,CARRIER,NOT AUTHORIZED,None,SCOTRANS LLC,,SCOTRANS LLC,"2807 ALLEN ST # 2005
DALLAS, TX   75204",(661) 492-4783,(661) 492-4783,SCOTRANS@HOTMAIL.COM,"2807 ALLEN ST # 2005
DALLAS, TX   75204-1031",1,1,2019-11-14,1 (2018),"Auth. For Hire, ","Interstate, ","WOOD, STEEL, "
3358161,,CARRIER,NOT AUTHORIZED,None,BORO LOGISTICS LLC,,BORO LOGISTICS LLC,"8518 FATHOM CIR APT 114
AUSTIN, TX   78750",(512) 354-9275,(512) 354-9275,INFO@BOROTRUCKING.COM,"8518 FATHOM CIR APT 114
AUSTIN, TX   78750-3000",1,1,2019-11-21,1 (2018),"Auth. For Hire, ","Interstate, ","General Freight, "
3358183,,CARRIER,ACTIVE,None,LUIS ANGEL ESCALONA SALAS,SALAS TRUCK,LUIS ANGEL ESCALONA SALAS,"19547 OTTER TRAIL CT
KATY, TX   77449-4551",(713) 884-5004,(713) 884-5004,ESCALONASALAS@YAHOO.COM,"19547 OTTER TRAIL CT
KATY, TX   77449-4551",1,1,2019-11-14,,"Auth. For Hire, ","Intrastate Only (Non-HM), ","OTHER, "
3358194,,CARRIER,NOT AUTHORIZED,None,SAFE HAUL TRUCKING LLC,,SAFE HAUL TRUCKING LLC,"680 SPENCER LN
TYLER, TX   75704",(254) 644-8527,(254) 644-8527,SAFEHAULTRUCKINGLLC@GMAIL.COM,"680 SPENCER LN
TYLER, TX   75704-6669",1,1,2019-11-14,,"Auth. For Hire, ","Interstate, ","General Freight, Building Materials, Oilfield Equipment, Construction, "
3358205,,CARRIER,ACTIVE,None,DEGLI'S,QUINTANA TRANSPORTS,DEGLI'S,"4280 TRINITY MILLS RD APT 1402
DALLAS, TX   75287-7647",(915) 799-9831,(915) 799-9831,DGQUINT04@GMAIL.COM,"4280 TRINITY MILLS RD APT 1402
DALLAS, TX   75287-7647",0,2,2019-11-14,,"Auth. For Hire, ","Intrastate Only (Non-HM), ","General Freight, OTHER, "
3358206,,CARRIER,NOT AUTHORIZED,None,TWO AMIGOS ENTERPRISES LLC,,TWO AMIGOS ENTERPRISES LLC,"661 RIVER VIEW RD
MILLSAP, TX   76066",(817) 360-8728,(817) 360-8728,TWOAMIGOSENTERPRISESLLC@GMAIL.COM,"PO BOX 1093
WINK, TX   79789",2,2,2019-11-20,1 (2018),"Auth. For Hire, ","Interstate, ","General Freight, "
3358209,,CARRIER,NOT AUTHORIZED,None,ZEROX INVESTMENT LLC,,ZEROX INVESTMENT LLC,"20900 FM 1093 RD APT 10102
RICHMOND, TX   77407",(346) 239-0957,(346) 239-0957,ZEROXINVESTMENTS@GMAIL.COM,"20900 FM 1093 RD APT 10102
RICHMOND, TX   77407-0836",1,4,2019-11-14,,"Auth. For Hire, ","Interstate, ","Household Goods, "
3358219,,CARRIER,ACTIVE,None,RL TRANSPORTATION,,RL TRANSPORTATION,"125 TUCKER LN
JACKSONVILLE, TX   75766-4023",(903) 393-6133,(903) 393-6133,RICARDOLARA85@YAHOO.COM,"125 TUCKER LN
JACKSONVILLE, TX   75766-4023",1,2,2019-11-14,,"Auth. For Hire, ","Intrastate Only (Non-HM), ","General Freight, OTHER, "
3358225,,CARRIER,ACTIVE,None,CANDICE MOVERS LLC,,CANDICE MOVERS LLC,"1013 FULBOURNE DR
ANNA, TX   75409",(682) 738-4199,(682) 738-4199,ABIGAIL@CANDICECLEANERS.COM,"1013 FULBOURNE DR
ANNA, TX   75409",1,2,2019-11-19,1 (2018),"Auth. For Hire, ","Intrastate Only (Non-HM), ","Household Goods, "
3358233,,CARRIER,NOT AUTHORIZED,None,AMS HOTSHOT,,AMS HOTSHOT,"710 OAKWOOD DR
EULESS, TX   76040",(432) 640-7453,(432) 640-7453,ANTHONYDOMINGUEZ75@HOTMAIL.COM,"710 OAKWOOD DR
EULESS, TX   76040-5233",1,2,2019-11-14,,"Auth. For Hire, ","Interstate, ","General Freight, Metal: sheets, coils, rolls, Motor Vehicles, Logs, Poles, Beams, Lumber, Building Materials, Machinery, Large Objects, Oilfield Equipment, Grain, Feed, Hay, Commodities Dry Bulk, Utilities, Agricultural/Farm Supplies, Construction, Water Well, "
3358234,,CARRIER,NOT AUTHORIZED,None,RAUL GALVAN FRAUSTO,TRANSPORTES GLORIA H G,RAUL GALVAN FRAUSTO,"PASEOS DE LOS CLARINES #8251
JUAREZ, CI   32697",(656) 271-2477,(656) 271-2477,AULLOA_1@YAHOO.COM,"509 S HILLS ST #145
EL PASO, TX   79901",1,1,2019-11-18,1 (2018),"Auth. For Hire, ","Interstate, ","General Freight, "
3358251,,CARRIER,NOT AUTHORIZED,None,ASBA TRANSPORTES S DE RL DE CV,,ASBA TRANSPORTES S DE RL DE CV,"VIA GENOVA 11600
JUAREZ, CI   32546",(614) 120-9847,(614) 120-9847,AULLOA_1@YAHOO.COM,"509 S HILLS ST #145
EL PASO, TX   79901",1,1,2019-11-18,1 (2018),"Auth. For Hire, ","Interstate, ","General Freight, "
3358263,,CARRIER,NOT AUTHORIZED,None,PLATINUM MOTOR COACH LLC,,PLATINUM MOTOR COACH LLC,"7403 WILCOX DR
DALLAS, TX   75232",(469) 446-2676,(469) 446-2676,PLATINUMMOTORCOACH@GMAIL.COM,"PO BOX 763121
DALLAS, TX   75376-3121",1,1,2019-11-14,,"Auth. For Hire, ","Interstate, ","Passengers, "
3358274,,CARRIER,NOT AUTHORIZED,None,FULL TRUCK DELIVERY LLC,,FULL TRUCK DELIVERY LLC,"24119 AVOGADRO DR
KATY, TX   77493",(786) 675-9330,(786) 675-9330,USDOTOPERATIONSSERVICES@GMAIL.COM,"24119 AVOGADRO DR
KATY, TX   77493-3291",1,1,2019-11-15,,"Auth. For Hire, ","Interstate, ","General Freight, "
3358291,,CARRIER,NOT AUTHORIZED,None,R J LIVESTOCK LLC,RICKY JASKINIA,R J LIVESTOCK LLC,"192 COUNTY RD 236
FALLS CITY, TX   78113",(830) 391-0049,(830) 391-0049,RICKJASKINIA7788@GMAIL.COM,"192 COUNTY RD 236
FALLS CITY, TX   78113",2,1,2019-11-22,1 (2018),"Auth. For Hire, ","Interstate, ","General Freight, Livestock, "
3358320,,CARRIER,NOT AUTHORIZED,None,PUTMAN'S TRUCKING CO LLC,,PUTMAN'S TRUCKING CO LLC,"189 WATERWOOD
HUNTSVILLE, TX   77320",(713) 859-1060,(713) 859-1060,MRDRP2010@YAHOO.COM,"189 WATERWOOD
HUNTSVILLE, TX   77320-9666",1,1,2019-11-15,,"Auth. For Hire, ","Interstate, ","General Freight, Oilfield Equipment, "
3358364,,CARRIER,ACTIVE,None,RAMIRO MENDOZA TRUJILLO,JABEZ READY MIX AND CONCRETE FINISH,RAMIRO MENDOZA TRUJILLO,"625 COLGATE DR
LANCASTER, TX   75134-2503",(469) 740-0772,(469) 740-0772,RAMMENDOZA895@GMAIL.COM,"625 COLGATE DR
LANCASTER, TX   75134-2503",1,2,2019-11-15,,"Auth. For Hire, ","Intrastate Only (Non-HM), ","General Freight, OTHER, "
3358381,,CARRIER,ACTIVE,None,LUIS ALFREDO CRUZ VALLADARES,,LUIS ALFREDO CRUZ VALLADARES,"4330 N GRANDVIEW AVE APT 1505
ODESSA, TX   79762-5834",(305) 946-9186,(305) 946-9186,LUISCRUZ.V01@GMAIL.COM,"4330 N GRANDVIEW AVE APT 1505
ODESSA, TX   79762-5834",1,1,2019-11-15,,"Auth. For Hire, ","Intrastate Only (Non-HM), ","SAND AND GRAVEL, "
3358392,,CARRIER,NOT AUTHORIZED,None,GLOBAL AUTO CARRIER INC,,GLOBAL AUTO CARRIER INC,"8630 BOB WHITE DR
HOUSTON, TX   77074",(954) 994-8359,(954) 994-8359,GLOBALAUTOCARRIER@AOL.COM,"8630 BOB WHITE DR
HOUSTON, TX   77074-7408",1,1,2019-11-15,,"Auth. For Hire, ","Interstate, ","Motor Vehicles, "
3358398,,CARRIER,NOT AUTHORIZED,None,JUAN JOSE LOPEZ GONZALEZ,KING RANCH TRANSPORTATION,JUAN JOSE LOPEZ GONZALEZ,"914 VIA SOL DR
EDINBURG, TX   78541",(956) 662-0362,(956) 662-0362,KINGRANCHTRANSPORTATION2@YAHOO.COM,"914 VIA SOL DR
EDINBURG, TX   78541-9366",1,1,2019-11-15,,"Auth. For Hire, ","Interstate, ","General Freight, Fresh Produce, Meat, Refrigerated Food, "
3358402,,CARRIER,NOT AUTHORIZED,None,EXCELLENCE N MOTION LLC,,EXCELLENCE N MOTION LLC,"916 SILVER STREAK DR
SAGINAW, TX   76131",(817) 258-5044,(817) 258-5044,RILLIANA@YAHOO.COM,"916 SILVER STREAK DR
SAGINAW, TX   76131-4835",1,1,2019-11-15,,"Auth. For Hire, ","Interstate, ","General Freight, "
3358434,,CARRIER,NOT AUTHORIZED,None,KFK TRANSPORT LLC,,KFK TRANSPORT LLC,"705 DOVE TRL
EULESS, TX   76039",(682) 226-3310,(682) 226-3310,KFKTRANSPORTLLC@GMAIL.COM,"705 DOVE TRL
EULESS, TX   76039-1999",2,1,2019-11-15,,"Auth. For Hire, ","Interstate, ","General Freight, Metal: sheets, coils, rolls, Logs, Poles, Beams, Lumber, Building Materials, US Mail, Paper Products, Utilities, OTHER, "
3358445,,CARRIER,NOT AUTHORIZED,None,TJ EXPRESS LLC,,TJ EXPRESS LLC,"12580 PIPING ROCK DR APT 55
HOUSTON, TX   77077",(816) 772-4381,(816) 772-4381,JEROME_523@HOTMAIL.COM,"12580 PIPING ROCK DR APT 55
HOUSTON, TX   77077-5804",1,1,2019-11-20,1 (2018),"Auth. For Hire, ","Interstate, ","General Freight, "
3358448,,CARRIER,ACTIVE,None,ROBERTO LAZCANO,ROBERT TRUCKING,ROBERTO LAZCANO,"3917 SHAWNEE TRL
LAKE WORTH, TX   76135-2895",(817) 262-0814,(817) 262-0814,RLAZCANO0814@YAHOO.COM,"3917 SHAWNEE TRL
LAKE WORTH, TX   76135-2895",1,1,2019-11-15,,"Auth. For Hire, ","Intrastate Only (Non-HM), ","General Freight, OTHER, "
3358516,,CARRIER,ACTIVE,None,HIKE CARGO COMPANY LLC,,HIKE CARGO COMPANY,"6000 WESTERN PL STE 1000
FORT WORTH, TX   76107-4664",(817) 258-5044,(305) 951-8452,ONEBULLOCK@GMAIL.COM,"6000 WESTERN PL STE 1000
FORT WORTH, TX   76107-4664",1,1,2019-11-15,,"Auth. For Hire, ","Intrastate Only (Non-HM), ","General Freight, "
3358523,,CARRIER,NOT AUTHORIZED,None,JIMMY BOUTWELL,TJB ENTERPRISE,JIMMY BOUTWELL,"24485 DRIVERS RD
SPLENDORA, TX   77372",(281) 615-0258,(281) 615-0258,BOUTWELLJIMMY@YAHOO.COM,"24485 DRIVERS RD
SPLENDORA, TX   77372-3806",1,1,2019-11-15,,"Auth. For Hire, ","Interstate, ","General Freight, "
3358555,,CARRIER,ACTIVE,None,WOLF LOGISTIX EMPIRE LLC,,WOLF LOGISTIX EMPIRE LLC,"5809 OAK HILL RD
WATAUGA, TX   76148-1223",(214) 724-4995,(214) 724-4995,LINNETTEBOYD@YAHOO.COM,"5809 OAK HILL RD
WATAUGA, TX   76148-1223",1,1,2019-11-18,1 (2018),"Auth. For Hire, ","Intrastate Only (Non-HM), ","General Freight, Building Materials, "
3358596,,CARRIER,ACTIVE,None,FRANK HENRY SARAYNO III,INDEPENDENCE LOGISTICS,FRANK HENRY SARAYNO III,"13983 MCGREGOR RD
CONROE, TX   77302-6529",(832) 948-2211,(832) 948-2211,STACKMASTER26@YAHOO.COM,"13983 MCGREGOR RD
CONROE, TX   77302-6529",1,2,2019-11-15,,"Auth. For Hire, ","Intrastate Only (Non-HM), ","General Freight, "
3358634,,CARRIER,ACTIVE,None,ANGELA ANTUANE VERA ESPINOZA,JJM TRANSPORT,ANGELA ANTUANE VERA ESPINOZA,"900 OVERDOWNS DR
PLANO, TX   75023-4933",(817) 715-1535,(817) 715-1535,AV7044231@GMAIL.COM,"900 OVERDOWNS DR
PLANO, TX   75023-4933",1,1,2019-11-15,,"Auth. For Hire, ","Intrastate Only (Non-HM), ","General Freight, Fresh Produce, OTHER, "
3358652,,CARRIER,NOT AUTHORIZED,None,DEE BEN LOGISTICS LLC,,DEE BEN LOGISTICS LLC,"11746 BOB WHITE DR
HOUSTON, TX   77035",(713) 516-8772,(713) 516-8772,DEEBENLOGISTICS@GMAIL.COM,"11746 BOB WHITE DR
HOUSTON, TX   77035-2208",1,2,2019-11-15,,"Auth. For Hire, ","Interstate, ","General Freight, "
3358653,,CARRIER,NOT AUTHORIZED,None,345 TRANSPORTATION SERVICES,,345 TRANSPORTATION SERVICES,"2213 GLENDALE ST
LA MARQUE, TX   77568",(281) 883-6160,(281) 883-6160,TALLAN0104@YAHOO.COM,"2213 GLENDALE ST
LA MARQUE, TX   77568-5544",1,1,2019-11-15,,"Auth. For Hire, ","Interstate, ","General Freight, Metal: sheets, coils, rolls, Motor Vehicles, Logs, Poles, Beams, Lumber, Building Materials, Machinery, Large Objects, Oilfield Equipment, Construction, OTHER, "
3358664,,CARRIER,ACTIVE,None,Y Y Y TRUCKING LLC,,Y Y Y TRUCKING LLC,"4607 STOREY AVE
MIDLAND, TX   79703",(432) 236-2130,(432) 236-2130,CARO.ALVAREZ5530@GMAIL.COM,"4607 STOREY AVE
MIDLAND, TX   79703",1,1,2019-11-19,1 (2018),"Auth. For Hire, ","Intrastate Only (Non-HM), ","General Freight, Building Materials, "
3358668,,CARRIER,ACTIVE,None,THE TIGER FREIGHT LLC,,THE TIGER FREIGHT LLC,"5315 TIMBER CREEK PLACE DR APT 1310
HOUSTON, TX   77084-5391",(832) 935-3335,(832) 935-3335,THETIGERFREIGHTLLC@GMAIL.COM,"5315 TIMBER CREEK PLACE DR APT 1310
HOUSTON, TX   77084-5391",1,1,2019-11-15,,"Auth. For Hire, ","Intrastate Only (Non-HM), ","General Freight, OTHER, "
3358698,,CARRIER,ACTIVE,None,OSCAR TORREZ,,OSCAR TORREZ,"929 REDONDO DR
HOUSTON, TX   77015-4343",(713) 418-0206,(713) 418-0206,OTTORREZ@GMAIL.COM,"929 REDONDO DR
HOUSTON, TX   77015-4343",1,1,2019-11-15,,"Auth. For Hire, ","Intrastate Only (Non-HM), ","General Freight, Logs, Poles, Beams, Lumber, Building Materials, OTHER, "
3358730,,CARRIER,ACTIVE,None,E -N- J TRUCKN LLC,,E -N- J TRUCKN LLC,"1147 LEVI SLOAN RD
VICTORIA, TX   77904-4730",(361) 582-6848,(361) 582-6848,ENJTRUCKN@GMAIL.COM,"1147 LEVI SLOAN RD
VICTORIA, TX   77904-4730",5,5,2019-11-19,,"Auth. For Hire, ","Intrastate Only (Non-HM), ","General Freight, Metal: sheets, coils, rolls, Logs, Poles, Beams, Lumber, Oilfield Equipment, OTHER, "
3358735,,CARRIER,ACTIVE,None,MARYVALE EXPRESS,,MARYVALE EXPRESS,"2417 SUNFLOWER DR
ARLINGTON, TX   76014-1819",(214) 683-0330,(214) 683-0330,MARYVALEXP@GMAIL.COM,"2417 SUNFLOWER DR
ARLINGTON, TX   76014-1819",1,1,2019-11-15,,"Auth. For Hire, ","Intrastate Only (Non-HM), ","General Freight, "
3358737,,CARRIER,ACTIVE,None,GATHER WILLIAMS II,DGW TRUCKING LOGISTICS,GATHER WILLIAMS II,"11625 CUSTER RD STE 120
FRISCO, TX   75035-8784",(469) 389-7460,(469) 389-7460,INFO@DGWINDUSTRIES.COM,"11625 CUSTER RD STE 120
FRISCO, TX   75035-8784",1,1,2019-11-15,,"Auth. For Hire, ","Intrastate Only (Non-HM), ","OTHER, "
3358743,,CARRIER,ACTIVE,None,ALIUSKY WILLIAM PENA TRISTA,ALY TRUCKING,ALIUSKY WILLIAM PENA TRISTA,"10304 OLD FARM RD
SAN ANTONIO, TX   78245-1022",(210) 852-3197,(210) 852-3197,GATOCUBA.1985@GMAIL.COM,"10304 OLD FARM RD
SAN ANTONIO, TX   78245-1022",1,300,2019-11-15,,"Auth. For Hire, ","Intrastate Only (Non-HM), ","General Freight, OTHER, "
3358798,,CARRIER,ACTIVE,None,ROBERTO RODRIGUEZ CRUZ,S&J TRANSPORT,ROBERTO RODRIGUEZ CRUZ,"3246 THICKET PATH WAY
KATY, TX   77493-4452",(786) 449-7838,(786) 449-7838,ENY.ROBERT@GMAIL.COM,"3246 THICKET PATH WAY
KATY, TX   77493-4452",1,1,2019-11-16,,"Auth. For Hire, ","Intrastate Only (Non-HM), ","General Freight, "
3358819,,CARRIER,ACTIVE,None,KING'S TRANSPORT LLC,,KING'S TRANSPORT LLC,"945 CENTRAL DR
BEAUMONT, TX   77706-4637",(409) 781-7387,(409) 781-7387,SKELFSTROM@GMAIL.COM,"464 LONGMEADOW
BEAUMONT, TX   77707",1,1,2019-11-18,,"Auth. For Hire, ","Intrastate Only (Non-HM), ","DIRT SAND AND GR, "
3358820,,CARRIER,ACTIVE,None,WTS SERVICES LLC,,WTS SERVICES LLC,"8639 RUSTLING LVS DR
HOUSTON, TX   77083-6861",(205) 202-9403,(205) 202-9403,WTSSVC@GMAIL.COM,"8639 RUSTLING LVS DR
HOUSTON, TX   77083-6861",1,1,2019-11-16,,"Auth. For Hire, ","Intrastate Only (Non-HM), ","General Freight, "
3358842,,CARRIER,ACTIVE,None,CESAR HERNANDEZ,BLACK MAGIC PRODUCTS LLC,CESAR HERNANDEZ,"2817 JENSEN DR
HOUSTON, TX   77026-6017",(832) 745-0923,(832) 745-0923,READYMIXNEBO@GMAIL.COM,"2817 JENSEN DR
HOUSTON, TX   77026-6017",1,2,2019-11-16,,"Auth. For Hire, ","Intrastate Only (Non-HM), ","General Freight, OTHER, "
3358868,,CARRIER,NOT AUTHORIZED,None,CLAYTON GALYEAN TRUCKING,,CLAYTON GALYEAN TRUCKING,"502 7TH ST NE
CHILDRESS, TX   79201",(940) 585-8994,(940) 585-8994,CHEESEBURGER10@ATT.NET,"502 7TH ST NE
CHILDRESS, TX   79201-3836",1,4,2019-11-16,,"Auth. For Hire, ","Interstate, ","General Freight, Building Materials, Livestock, Grain, Feed, Hay, Agricultural/Farm Supplies, "
3358873,,CARRIER,NOT AUTHORIZED,None,CHAMPION FREIGHT PROFESSIONALS LLC,,CHAMPION FREIGHT PROFESSIONALS LLC,"3530 ROSEMARY LN
HOUSTON, TX   77093",(832) 622-5628,(832) 622-5628,MICHAEL@CHAMPIONFREIGHTPROS.COM,"3530 ROSEMARY LN
HOUSTON, TX   77093",1,1,2019-11-20,1 (2018),"Auth. For Hire, ","Interstate, ","General Freight, "
3358876,,CARRIER,NOT AUTHORIZED,None,ELITE EXPRESS LLC,,ELITE EXPRESS LLC,"811 S CENTRAL EXPY STE 300 D
RICHARDSON, TX   75080",(214) 404-7575,(214) 404-7575,KARDEAL@GMAIL.COM,"811 S CENTRAL EXPY STE 300 D
RICHARDSON, TX   75080-7424",4,8,2019-11-21,,"Auth. For Hire, ","Interstate, ","General Freight, Fresh Produce, Commodities Dry Bulk, Refrigerated Food, Beverages, Paper Products, Utilities, OTHER, "
3358899,,CARRIER,NOT AUTHORIZED,None,ECADIS LLC,,ECADIS LLC,"5258 SAN PABLO GARDENS DR
HOUSTON, TX   77045",(832) 507-8769,(832) 507-8769,MBAMEGBRICE@GMAIL.COM,"5258 SAN PABLO GARDENS DR
HOUSTON, TX   77045-4043",1,1,2019-11-17,,"Auth. For Hire, ","Interstate, ","General Freight, "
3358933,,CARRIER,NOT AUTHORIZED,None,NIRMANN LOGISTCIS INC,,NIRMANN LOGISTCIS INC,"1315 CLEAR CREEK DR
WYLIE, TX   75098",(469) 578-6363,(469) 578-6363,NIRMANNLOGISTICS@GMAIL.COM,"1315 CLEAR CREEK DR
WYLIE, TX   75098-6676",1,1,2019-11-17,,"Auth. For Hire, ","Interstate, ","General Freight, Fresh Produce, Paper Products, "
3358957,,CARRIER,NOT AUTHORIZED,None,D3 TRANSPORT LLC,,D3 TRANSPORT LLC,"119 BARKWOOD DR
BROOKELAND, TX   75931",(832) 784-5687,(832) 784-5687,D3TRANSPORTLLC2020@GMAIL.COM,"PO BOX 1694
LIVINGSTON, TX   77351-0031",1,1,2019-11-17,,"Auth. For Hire, ","Interstate, ","General Freight, Metal: sheets, coils, rolls, Motor Vehicles, Logs, Poles, Beams, Lumber, Building Materials, Machinery, Large Objects, Intermodal Cont., Oilfield Equipment, Utilities, Agricultural/Farm Supplies, Construction, "
3358967,,CARRIER,ACTIVE,None,JOSE IGOR REYES,REPO CARRIERS & TRANSPORT,JOSE IGOR REYES,"3965 PENBROOK ST APT 141
ODESSA, TX   79762-5944",(214) 555-5555,(214) 555-5555,REPO.CNT@OUTLOOK.COM,"3965 PENBROOK ST APT 141
ODESSA, TX   79762-5944",1,1,2019-11-17,,"Auth. For Hire, ","Intrastate Only (Non-HM), ","General Freight, "
3359049,,CARRIER,NOT AUTHORIZED,None,STRTR LOGISTICS LLC,,STRTR LOGISTICS LLC,"8552 GLENCREST LN
DALLAS, TX   75209",(972) 489-7605,(972) 489-7605,BEDFORD.WYNNE@GMAIL.COM,"PO BOX 630394
IRVING, TX   75063-0119",0,10,2019-11-18,,"Auth. For Hire, ","Interstate, ","General Freight, "
3359065,,CARRIER,NOT AUTHORIZED,None,CHAM LOGISTICS LLC,,CHAM LOGISTICS LLC,"9218 BALCONES CLUB DR APT 1513
AUSTIN, TX   78750",(512) 243-8888,(512) 243-8888,CHIGHALI2015@HOTMAIL.COM,"9218 BALCONES CLUB DR APT 1513
AUSTIN, TX   78750-2753",1,1,2019-11-18,,"Auth. For Hire, ","Interstate, ","General Freight, "
3359068,,CARRIER,ACTIVE,None,DIANA RODRIGUEZ SALAZAR,HAMMER DOWN EXPRESS,DIANA RODRIGUEZ SALAZAR,"3126 N 28 1/2 ST
MCALLEN, TX   78501-6221",(956) 800-8063,(956) 800-8063,HAMMERDOWNXPRESS@GMAIL.COM,"3126 N 28 1/2 ST
MCALLEN, TX   78501-6221",1,1,2019-11-18,,"Auth. For Hire, ","Intrastate Only (Non-HM), ","Logs, Poles, Beams, Lumber, Building Materials, Commodities Dry Bulk, "
3359075,,CARRIER,NOT AUTHORIZED,None,NESTOR DANIEL OCHOA CERVANTES,NH TRANSPORTES INTERNACIONAL,NESTOR DANIEL OCHOA CERVANTES,"GREGORIO GARCIA 62
NUEVO LAREDO, TA   88275",(956) 775-5517,(956) 775-5517,NESTOR_D_8A@HOTMAIL.COM,"PO BOX 420596
LAREDO, TX   78042-8596",2,2,2019-11-18,,"Auth. For Hire, ","Interstate, ","General Freight, "
3359078,,CARRIER,ACTIVE,None,JEANETTE RIVERA MONTELONGO,L & J CONSTRUCTION SERVICES,JEANETTE RIVERA MONTELONGO,"3730 NOMAS ST
DALLAS, TX   75212-3525",(469) 649-6949,(469) 649-6949,RIVERA862004@YAHOO.COM,"3730 NOMAS ST
DALLAS, TX   75212-3525",2,2,2019-11-19,,"Auth. For Hire, ","Intrastate Only (Non-HM), ","General Freight, Building Materials, Utilities, Construction, CONSTRUCTION MAT, "
3359083,,CARRIER,ACTIVE,None,RALIZ TRANSPORTATION LLC,,RALIZ TRANSPORTATION LLC,"6916 HORSESHOE POND DR
DEL VALLE, TX   78617-3482",(512) 689-4476,(512) 689-4476,RALIZTRANSPORTATIONLLC@GMAIL.COM,"6916 HORSESHOE POND DR
DEL VALLE, TX   78617-3482",1,1,2019-11-18,,"Auth. For Hire, ","Intrastate Only (Non-HM), ","Building Materials, OTHER, "
3359133,,CARRIER,ACTIVE,None,ROSMERY NOHEMY VILLATORO FERMAN,DIEGO'S TRANSPORT,ROSMERY NOHEMY VILLATORO FERMAN,"208 SWENSON DR
HUTTO, TX   78634-4375",(713) 300-4855,(713) 300-4855,CHRISTIAN.P@PREVENTTY.COM,"208 SWENSON DR
HUTTO, TX   78634-4375",1,1,2019-11-19,1 (2019),"Auth. For Hire, ","Intrastate Only (Non-HM), ","Construction, CEMENT, "
3359134,,CARRIER,NOT AUTHORIZED,None,FALCON MOVE LLC,,FALCON MOVE LLC,"10204 PAUL REVERE WAY
MCKINNEY, TX   75072",(347) 531-3630,(347) 531-3630,PANATALIA15@GMAIL.COM,"10204 PAUL REVERE WAY
MCKINNEY, TX   75072-5630",1,1,2019-11-18,,"Auth. For Hire, ","Interstate, ","General Freight, "
3359136,,CARRIER,ACTIVE,None,AFG TRUCKING LLC,,AFG TRUCKING LLC,"1718 CHARLTON HOUSE LN
KATY, TX   77493-2672",(972) 845-5247,(972) 845-5247,ARTURO@ELITEGROUPINS.COM,"1718 CHARLTON HOUSE LN
KATY, TX   77493-2672",1,1,2019-11-18,,"Auth. For Hire, ","Intrastate Only (Non-HM), ","General Freight, "
3359141,,CARRIER,ACTIVE,None,JATCO LLC,,JATCO LLC,"2103 HUGHES ST
MIDLAND, TX   79705-8313",(432) 212-4903,(432) 212-4903,JATCOLLC@GMAIL.COM,"2103 HUGHES ST
MIDLAND, TX   79705-8313",1,1,2019-11-18,,"Auth. For Hire, ","Intrastate Only (Non-HM), ","General Freight, Oilfield Equipment, "
3359146,,CARRIER,ACTIVE,None,ILIANA JUDITH MONTOYA VALDEZ,,ILIANA JUDITH MONTOYA VALDEZ,"406 PEQUIN RD
CROSBY, TX   77532-2250",(832) 888-2956,(832) 888-2956,FABIANPUGA1991@GMAIL.COM,"406 PEQUIN RD
CROSBY, TX   77532-2250",2,2,2019-11-18,,"Auth. For Hire, ","Intrastate Only (Non-HM), ","General Freight, Building Materials, OTHER, "
3359160,,CARRIER,NOT AUTHORIZED,None,JUSTIN RANDALL SHEFFIELD,SHEFFIELD HAULING,JUSTIN RANDALL SHEFFIELD,"529 AN COUNTY ROAD 139
PALESTINE, TX   75801",(903) 388-1215,(903) 388-1215,JSHEFFIELD2144@GMAIL.COM,"529 AN COUNTY ROAD 139
PALESTINE, TX   75801",1,3,2019-11-19,,"Auth. For Hire, ","Interstate, ","General Freight, "
3359187,,CARRIER,ACTIVE,None,HEIDI MENHCACA,EXODUS TRUCKING,HEIDI MENHCACA,"248 NOMAD LN
CIBOLO, TX   78108-3777",(210) 562-3334,(210) 562-3334,EXODUSTRUCKINGCO@YAHOO.COM,"248 NOMAD LN
CIBOLO, TX   78108-3777",5,5,2019-11-18,,"Auth. For Hire, ","Intrastate Only (Non-HM), ","Building Materials, Construction, "
3359204,,CARRIER,ACTIVE,None,N1EXPRESS,,N1EXPRESS,"703 LE ANN LN
CEDAR PARK, TX   78613-6702",(512) 659-2996,(512) 659-2996,NARCISORESENDIZ@GMAIL.COM,"703 LE ANN LN
CEDAR PARK, TX   78613-6702",0,2,2019-11-18,,"Auth. For Hire, ","Intrastate Only (Non-HM), ","General Freight, Commodities Dry Bulk, Construction, OTHER, "
3359223,,CARRIER,NOT AUTHORIZED,None,R3B LOGISTICS LLC,,R3B LOGISTICS LLC,"2029 FM 975
CALDWELL, TX   77836",(979) 587-3927,(979) 587-3927,CWILLIAMS798743@GMAIL.COM,"2029 FM 975
CALDWELL, TX   77836-7682",1,1,2019-11-22,,"Auth. For Hire, ","Interstate, ","General Freight, "
3359224,,CARRIER,ACTIVE,None,ISALIANA'S IMPERIAL TRUCKING LLC,,ISALIANA'S IMPERIAL TRUCKING LLC,"3214 E YVONNE ST
EDINBURG, TX   78542-9532",(956) 250-8343,(956) 250-8343,MARIO080776@GMAIL.COM,"3214 E YVONNE ST
EDINBURG, TX   78542-9532",1,1,2019-11-18,,"Auth. For Hire, ","Intrastate Only (Non-HM), ","General Freight, "
3359282,,CARRIER,ACTIVE,None,SANTIAGO OLVERA BETANCOURT,SB TRANSPORTATION,SANTIAGO OLVERA BETANCOURT,"3101 S INT HWY 45 E
CORSICANA, TX   75110-4626",(972) 972-1111,(972) 972-1111,EZUBIA@ARROWINS.COM,"3101 S INT HWY 45 E
CORSICANA, TX   75110-4626",1,1,2019-11-18,,"Auth. For Hire, ","Intrastate Only (Non-HM), ","SAND & GRAVEL, "
3359293,,CARRIER,ACTIVE,None,CHRISTERLON WILLIAMS & CHARLES OGOTI,CKO LOGISTICS,CHRISTERLON WILLIAMS & CHARLES OGOTI,"8739 CHERIE GROVE CIR
HOUSTON, TX   77088-1279",(346) 371-8717,(346) 371-8717,CHRISTERLON93@GMAIL.COM,"8739 CHERIE GROVE CIR
HOUSTON, TX   77088-1279",1,1,2019-11-18,,"Auth. For Hire, ","Intrastate Only (Non-HM), ","General Freight, "
3359331,,CARRIER,ACTIVE,None,OTTO ARCIEL ALFONSO,TEAM APEX LLC,OTTO ARCIEL ALFONSO,"20110 NEW SUNRISE TRL
CYPRESS, TX   77433-7371",(713) 248-9672,(713) 248-9672,OTTOARCIELALFONSO@GMAIL.COM,"20110 NEW SUNRISE TRL
CYPRESS, TX   77433-7371",1,1,2019-11-18,,"Auth. For Hire, ","Intrastate Only (Non-HM), ","Motor Vehicles, "
3359388,,CARRIER,NOT AUTHORIZED,None,VALDES DELIVERY SERVICE LLC,,VALDES DELIVERY SERVICE LLC,"2305 AVENUE B
GRAND PRAIRIE, TX   75051",(214) 264-0706,(214) 264-0706,ELIZABETHVLDS@YAHOO.COM,"2305 AVENUE B
GRAND PRAIRIE, TX   75051-4590",1,1,2019-11-18,1 (2018),"Auth. For Hire, ","Interstate, ","General Freight, "
3359413,,CARRIER,NOT AUTHORIZED,None,CHAMP EXPRESS LLC,,CHAMP EXPRESS LLC,"6821 BLUEBELL DR
ROWLETT, TX   75089",(469) 235-1014,(469) 235-1014,CHAMPEXPRESS1119@GMAIL.COM,"6821 BLUEBELL DR
ROWLETT, TX   75089-6720",1,1,2019-11-18,,"Auth. For Hire, ","Interstate, ","General Freight, "
3359421,,CARRIER,NOT AUTHORIZED,None,SHANE HOTSHOTS,,SHANE HOTSHOTS,"2720 MURPHY DR
LANCASTER, TX   75134",(706) 508-5453,(706) 508-5453,BOSTONDAVIS3@GMAIL.COM,"2720 MURPHY DR
LANCASTER, TX   75134-1995",2,2,2019-11-18,,"Auth. For Hire, ","Interstate, ","General Freight, "
3359425,,CARRIER,NOT AUTHORIZED,None,PREMIER FREIGHT SOLUTIONS LLC,,PREMIER FREIGHT SOLUTIONS LLC,"24624 INTERSTATE 45 N STE 200
SPRING, TX   77386",(405) 792-6946,(810) 624-4912,BO@PREMIERFREIGHTSOLUTIONS.COM,"24624 INTERSTATE 45 N STE 200
SPRING, TX   77386-4084",1,1,2019-11-18,,"Auth. For Hire, ","Interstate, ","General Freight, "
3359433,,CARRIER,NOT AUTHORIZED,None,MARIA LAURA ZAYAS,LAURA'S TRUCKING,MARIA LAURA ZAYAS,"1201 MAYFIELD AVE
GARLAND, TX   75041",(469) 900-5961,(469) 900-5961,LAURASTRUCKING99@GMAIL.COM,"1201 MAYFIELD AVE
GARLAND, TX   75041-5041",1,2,2019-11-18,,"Auth. For Hire, ","Interstate, ","General Freight, Commodities Dry Bulk, Beverages, Paper Products, "
3359464,,CARRIER,ACTIVE,None,ISAI CHAPARRO,IC TRUCKING,ISAI CHAPARRO,"13216 BARTENY CV
AUSTIN, TX   78724-4405",(512) 803-3857,(512) 803-3857,CHAPARRO985@GMAIL.COM,"13216 BARTENY CV
AUSTIN, TX   78724-4405",1,1,2019-11-18,,"Auth. For Hire, ","Intrastate Only (Non-HM), ","General Freight, Building Materials, Commodities Dry Bulk, OTHER, "
3359500,,CARRIER,NOT AUTHORIZED,None,QUALITY TRUSTED MOVERS LLC,,QUALITY TRUSTED MOVERS LLC,"106 E 3RD ST APT 8
ARLINGTON, TX   76010",(682) 256-5246,(682) 256-5246,QTMOVER@GMAIL.COM,"106 E 3RD ST APT 8
ARLINGTON, TX   76010-7306",1,0,2019-11-18,,"Auth. For Hire, ","Interstate, ","Household Goods, "
3359503,,CARRIER,NOT AUTHORIZED,None,WINGS OF HERMES,,WINGS OF HERMES,"16311 PARKSLEY DR
HOUSTON, TX   77059",(281) 898-5201,(281) 898-5201,VALDES.ADRIAN@HOTMAIL.COM,"16311 PARKSLEY DR
HOUSTON, TX   77059-4716",2,0,2019-11-18,,"Auth. For Hire, ","Interstate, ","OTHER, "
3359582,,CARRIER,ACTIVE,None,ARIES FREIGHT TRANSPORT LLC,,ARIES FREIGHT TRANSPORT LLC,"1501 E RICHEY RD
HOUSTON, TX   77073-3510",(281) 209-8100,(281) 209-8100,BRYAN.BARTELS@ARIESWW.COM,"1501 E RICHEY RD
HOUSTON, TX   77073-3510",1,1,2019-11-19,,"Auth. For Hire, ","Intrastate Only (Non-HM), ","General Freight, OTHER, "
3359615,,CARRIER,ACTIVE,None,TEXAS RURAL WASTE INC,,TEXAS RURAL WASTE INC,"129 E MAIN ST STE A
WHITESBORO, TX   76273-1739",(903) 624-2182,(903) 624-2182,YOKLEY@COX.NET,"129 E MAIN ST STE A
WHITESBORO, TX   76273-1739",4,3,2019-11-19,,"Auth. For Hire, ","Intrastate Only (Non-HM), ","Garbage/Refuse, "
3359640,,CARRIER,ACTIVE,None,FACUNDO S THOMA FERRARI,AMERICAN FIRST SOLUTIONS,FACUNDO S THOMA FERRARI,"2510 FOX RIVER LN
SPRING, TX   77386-2793",(832) 404-1852,(832) 404-1852,FTHOMAFERRARI@GMAIL.COM,"2510 FOX RIVER LN
SPRING, TX   77386-2793",1,1,2019-11-19,,"Auth. For Hire, ","Intrastate Only (Non-HM), ","OTHER, "
3359643,,CARRIER,ACTIVE,None,SMC OF TX LLC,,SMC OF TX LLC,"9550 FOREST LANE
DALLAS, TX   75243",(405) 792-6946,(405) 792-6946,STEVEWASHERE55@GMAIL.COM,"9550 FOREST LANE
DALLAS, TX   75243",1,1,2019-11-19,,"Auth. For Hire, ","Intrastate Only (Non-HM), ","General Freight, "
3359644,,CARRIER,NOT AUTHORIZED,None,ALFONSO SOTO REA,,ALFONSO SOTO REA,"NAVE H BODEGA 16
IRAPUATO, GJ   36590",(462) 164-4445,(462) 164-4445,TONYSOLORZANO7108@GMAIL.COM,"501 N BRIDGE ST STE 566
HIDALGO, TX   78557-2530",6,6,2019-11-19,,"Auth. For Hire, ","Interstate, ","General Freight, Fresh Produce, Refrigerated Food, "
3359659,,CARRIER,NOT AUTHORIZED,None,SIA TRANSPORT INC,,SIA TRANSPORT INC,"10624 JACKSON HOLE LN
MCKINNEY, TX   75072",(469) 471-8997,(469) 471-8997,MUHAMMAD_SALMAN786@HOTMAIL.COM,"10624 JACKSON HOLE LN
MCKINNEY, TX   75072-5950",1,1,2019-11-19,,"Auth. For Hire, ","Interstate, ","General Freight, "
3359668,,CARRIER,ACTIVE,None,HGO TRANSPORTS LLC,,HGO TRANSPORTS LLC,"6425 BUFORD ST
HOUSTON, TX   77023-5712",(832) 687-0499,(832) 687-0499,ADRIANACLASSIC@HOTMAIL.COM,"6425 BUFORD ST
HOUSTON, TX   77023-5712",1,1,2019-11-19,"45,890 (2019)","Auth. For Hire, ","Intrastate Only (Non-HM), ","SAND AND GRAVEL, "
3359669,,CARRIER,NOT AUTHORIZED,None,A G MILLER TRANSPORT SERVICES LLC,,A G MILLER TRANSPORT SERVICES LLC,"1251 NEW YORK AVE STE B
FORT WORTH, TX   76104",(970) 424-4868,(970) 424-4868,GRANT.M1219@GMAIL.COM,"1251 NEW YORK AVE STE B
FORT WORTH, TX   76104-5233",1,1,2019-11-19,,"Auth. For Hire, ","Interstate, ","General Freight, "
3359673,,CARRIER,ACTIVE,None,CASAB TRANSPORT INC,,CASAB TRANSPORT INC,"5411 MCPHERSON RD STE 102
LAREDO, TX   78041-6890",(956) 284-8719,(956) 284-8719,ROARM50@GMAIL.COM,"5411 MCPHERSON RD STE 102
LAREDO, TX   78041-6890",1,1,2019-11-19,,"Auth. For Hire, ","Intrastate Only (Non-HM), ","General Freight, Beverages, Paper Products, OTHER, "
3359682,,CARRIER,NOT AUTHORIZED,None,PALOMA LOGISTICS INC,,PALOMA LOGISTICS INC,"102 ROSARIO ST APT 3
LAREDO, TX   78040",(956) 489-1515,(956) 489-1515,MARCELLAMARTINEZ2745@GMAIL.COM,"102 ROSARIO ST APT 3
LAREDO, TX   78040-6140",1,1,2019-11-19,,"Auth. For Hire, ","Interstate, ","Commodities Dry Bulk, Beverages, Paper Products, OTHER, "
3359689,,CARRIER,NOT AUTHORIZED,None,J & JS TRUCKING LLC,JUAN CRISTOBAL SALINAS,J & JS TRUCKING LLC,"614 CHEYENNE CT
BROWNSVILLE, TX   78526",(956) 518-6874,(956) 518-6874,YOUNGBLACKCOBRA@GMAIL.COM,"614 CHEYENNE CT
BROWNSVILLE, TX   78526-9430",1,1,2019-11-19,,"Auth. For Hire, ","Interstate, ","General Freight, Drive/Tow away, Fresh Produce, "
3359712,,CARRIER,ACTIVE,None,SCRAP-IT LLC,,SCRAP-IT LLC,"4424 W LOVERS LN
DALLAS, TX   75209-3130",(214) 654-0233,(214) 654-0233,MATT@SCRAP-IT.COM,"4424 W LOVERS LN
DALLAS, TX   75209-3130",2,1,2019-11-19,,"Auth. For Hire, ","Intrastate Only (Non-HM), ","General Freight, Building Materials, "
3359715,,CARRIER,ACTIVE,None,RAUL LUIS SILVA AGUILAR,RSA TRUCKING,RAUL LUIS SILVA AGUILAR,"10000 N LAMAR BLVD APT 1016
AUSTIN, TX   78753-4125",(512) 716-9451,(512) 716-9451,RAULAGUILAR0335@GMAIL.COM,"10000 N LAMAR BLVD APT 1016
AUSTIN, TX   78753-4125",1,1,2019-11-19,,"Auth. For Hire, ","Intrastate Only (Non-HM), ","OTHER, "
3359732,,CARRIER,NOT AUTHORIZED,None,A&J LEASING SERVICE LLC,,A&J LEASING SERVICE LLC,"11339 NEESHAW DR
HOUSTON, TX   77065",(941) 584-9868,(941) 584-9868,INFO@DOTORDER.INFO,"11839 KEY BISCAYNE CT
HOUSTON, TX   77065-4090",1,1,2019-11-19,,"Auth. For Hire, ","Interstate, ","General Freight, Motor Vehicles, Building Materials, Mobile Homes, Construction, "
3359741,,CARRIER,NOT AUTHORIZED,None,KCCK TRUCKING LLC,,KCCK TRUCKING LLC,"3467 FM 2194
CELESTE, TX   75423",(405) 792-6946,(405) 792-6946,KCCKTRUCKING@GMAIL.COM,"3467 FM 2194
CELESTE, TX   75423-5743",1,1,2019-11-19,,"Auth. For Hire, ","Interstate, ","General Freight, "
3359778,,CARRIER,NOT AUTHORIZED,None,GREGGORY HARRIS AND CHRIS JENKINS,GRINDIN GEARZ,GREGGORY HARRIS AND CHRIS JENKINS,"4205 BERYL LN
GRANBURY, TX   76049",(941) 584-9868,(941) 584-9868,INFO@DOTORDER.INFO,"4205 BERYL LN
GRANBURY, TX   76049-6602",2,2,2019-11-19,,"Auth. For Hire, ","Interstate, ","General Freight, "
3359787,,CARRIER,ACTIVE,None,HEINRICH D GUENTHER,S & H DIRTWORKS,HEINRICH D GUENTHER,"282 COUNTY ROAD 303
SEMINOLE, TX   79360-5959",(432) 758-6042,(432) 758-6042,SHDIRTWORKS@GMAIL.COM,"282 COUNTY ROAD 303
SEMINOLE, TX   79360-5959",1,1,2019-11-19,,"Auth. For Hire, ","Intrastate Only (Non-HM), ","OTHER, "
3359804,,CARRIER,NOT AUTHORIZED,None,JAMES BREWSTER,PO TOWN TRANSPORT,JAMES BREWSTER,"394 MOLLIE LN
MARSHALL, TX   75672",(903) 632-2319,(903) 632-2319,EEYORE_394@YAHOO.COM,"394 MOLLIE LN
MARSHALL, TX   75672-5973",1,1,2019-11-19,,"Auth. For Hire, ","Interstate, ","General Freight, Motor Vehicles, "
3359859,,CARRIER,ACTIVE,None,D&E PINEDA LLC,,D&E PINEDA LLC,"11554 WILLWOOD DR
HOUSTON, TX   77072-1335",(832) 744-0395,(832) 744-0395,DAVIDPINEDA13@GMAIL.COM,"11554 WILLWOOD DR
HOUSTON, TX   77072-1335",1,1,2019-11-19,,"Auth. For Hire, ","Intrastate Only (Non-HM), ","General Freight, "
3359863,,CARRIER,NOT AUTHORIZED,None,RAINCAST LLC,,RAINCAST LLC,"4315 AVENUE M
FORT WORTH, TX   76105",(817) 500-1703,(817) 500-1703,RAINCASTTRUCKING@GMAIL.COM,"4101 W GREEN OAKS BLVD STE 305
ARLINGTON, TX   76016-6800",1,1,2019-11-19,,"Auth. For Hire, ","Interstate, ","General Freight, "
3359868,,CARRIER,NOT AUTHORIZED,None,PURE CHOICE TRUCKING LLC,,PURE CHOICE TRUCKING LLC,"2300 BILL OWENS PKWY APT 121
LONGVIEW, TX   75604",(903) 241-3955,(903) 241-3955,PURECHOICETRUCKING@GMAIL.COM,"2300 BILL OWENS PKWY APT 121
LONGVIEW, TX   75604-3037",1,1,2019-11-19,,"Auth. For Hire, ","Interstate, ","General Freight, Logs, Poles, Beams, Lumber, Building Materials, Machinery, Large Objects, "
3359889,,CARRIER,NOT AUTHORIZED,None,C J AND T TRUCKING LLC,,C J AND T TRUCKING LLC,"8020 HALLMARK DR
N RICHLND HLS, TX   76182",(941) 584-9868,(941) 584-9868,INFO@DOTORDER.INFO,"8020 HALLMARK DR
N RICHLND HLS, TX   76182-8693",3,3,2019-11-19,,"Auth. For Hire, ","Interstate, ","General Freight, Building Materials, Construction, "
3359898,,CARRIER,NOT AUTHORIZED,None,CATERING TO PEOPLE LLC,,CATERING TO PEOPLE LLC,"12338 OAKLEAF BEND DR
HUMBLE, TX   77346",(469) 279-2952,(469) 279-2952,E.BUCHANAN721@GMAIL.COM,"12338 OAKLEAF BEND DR
HUMBLE, TX   77346-4281",1,1,2019-11-19,,"Auth. For Hire, ","Interstate, ","General Freight, "
3359905,,CARRIER,ACTIVE,None,ODISA TRUCK LLC,,ODISA TRUCK LLC,"9971 QUAIL BLVD APT 1216
AUSTIN, TX   78758-5793",(512) 797-1550,(512) 797-1550,REY7HERNANDEZ@GMAIL.COM,"9971 QUAIL BLVD APT 1216
AUSTIN, TX   78758-5793",1,1,2019-11-19,,"Auth. For Hire, ","Intrastate Only (Non-HM), ","General Freight, OTHER, "
3359918,,CARRIER,ACTIVE,None,4D TRANSPORT LLC,,4D TRANSPORT LLC,"10331 DAWSON HILL LN
HOUSTON, TX   77044-6383",(713) 518-3938,(713) 518-3938,I.DISPATCH@YAHOO.COM,"10331 DAWSON HILL LN
HOUSTON, TX   77044-6383",1,2,2019-11-19,,"Auth. For Hire, ","Intrastate Only (Non-HM), ","General Freight, Building Materials, Commodities Dry Bulk, "
3359922,,CARRIER,ACTIVE,None,LUCIO JIMENEZ MONTEZ,JOEL'S HAULING,LUCIO JIMENEZ MONTEZ,"402 GREEN ACRES
GEORGETOWN, TX   78626-1780",(512) 748-8024,(512) 748-8024,VICKIMONTEZ61@GMAIL.COM,"402 GREEN ACRES
GEORGETOWN, TX   78626-1780",1,1,2019-11-20,,"Auth. For Hire, ","Intrastate Only (Non-HM), ","OTHER, "
3359934,,CARRIER,ACTIVE,None,I DE LA ROSA TRUCKING LLC,,I DE LA ROSA TRUCKING LLC,"3780 N HWY 285
ORLA, TX   79770",(575) 689-7548,(575) 689-7548,ISRAELFLORES1224@ICLOUD.COM,"PO BOX 134
ORLA, TX   79770-0134",3,3,2019-11-21,1 (2019),"Auth. For Hire, ","Intrastate Only (Non-HM), ","OTHER, "
3359937,,CARRIER,NOT AUTHORIZED,None,H BELTRAN TRUCKING LLC,,H BELTRAN TRUCKING LLC,"6811 GREENCASTLE ST
SAN ANTONIO, TX   78242",(205) 202-9403,(205) 202-9403,HBELTRAN4173@YAHOO.COM,"6811 GREENCASTLE ST
SAN ANTONIO, TX   78242-1315",1,1,2019-11-19,,"Auth. For Hire, ","Interstate, ","General Freight, "
3359958,,CARRIER,ACTIVE,None,LJW LOGISTICS LLC,,LJW LOGISTICS LLC,"26518 EVERETT GLEN DR
KATY, TX   77494-0565",(346) 287-0502,(346) 287-0502,BHONEYBEE23@GMAIL.COM,"26518 EVERETT GLEN DR
KATY, TX   77494-0565",1,2,2019-11-19,,"Auth. For Hire, ","Intrastate Only (Non-HM), ","Construction, OTHER, "
3359977,,CARRIER,ACTIVE,None,LAGO TRUCKING LLC,,LAGO TRUCKING LLC,"12000 SAWMILL RD APT 2513
SPRING, TX   77380-2112",(336) 456-1162,(336) 456-1162,USDOTOPERATIONSSERVICES@GMAIL.COM,"12000 SAWMILL RD APT 2513
SPRING, TX   77380-2112",1,1,2019-11-19,,"Auth. For Hire, ","Intrastate Only (Non-HM), ","OTHER, "
3360022,,CARRIER,NOT AUTHORIZED,None,4D TRANSPORTATION LLC,,4D TRANSPORTATION LLC,"3220 ESSEX DR
MANSFIELD, TX   76063",(214) 980-6201,(214) 980-6201,A4DTRANSPORTATIONLLC@GMAIL.COM,"3220 ESSEX DR
MANSFIELD, TX   76063-7624",1,1,2019-11-21,1 (2018),"Auth. For Hire, ","Interstate, ","General Freight, Metal: sheets, coils, rolls, Motor Vehicles, Logs, Poles, Beams, Lumber, Building Materials, Oilfield Equipment, Grain, Feed, Hay, Commodities Dry Bulk, Paper Products, Utilities, Construction, "
3360050,,CARRIER,NOT AUTHORIZED,None,M & D EXPRESS LLC,,M & D EXPRESS LLC,"208 N WARD DR NONE
LONGVIEW, TX   75604",(407) 417-8421,(407) 417-8421,EXPRESS.D.AND.J@GMAIL.COM,"208 N WARD DR NONE
LONGVIEW, TX   75604-4339",1,1,2019-11-20,,"Auth. For Hire, ","Interstate, ","General Freight, "
3360052,,CARRIER,NOT AUTHORIZED,None,UPPER ECHELON ONLINE LLC,,UPPER ECHELON ONLINE LLC,"7250 W GREENS RD APT 1416
HOUSTON, TX   77064",(281) 413-5399,(281) 413-5399,UPPERECHELON.ONLINE@GMAIL.COM,"7250 W GREENS RD APT 1416
HOUSTON, TX   77064-1130",1,1,2019-11-20,,"Auth. For Hire, ","Interstate, ","General Freight, "
3360061,,CARRIER,NOT AUTHORIZED,None,SOTO ATX DELIVERY LLC,,SOTO ATX DELIVERY LLC,"1512 WHELESS LN APT 102
AUSTIN, TX   78723",(512) 369-9119,(512) 369-9119,HECTORZAVSOT@YAHOO.COM,"1512 WHELESS LN APT 102
AUSTIN, TX   78723-1101",1,1,2019-11-20,,"Auth. For Hire, ","Interstate, ","General Freight, "
3360080,,CARRIER,NOT AUTHORIZED,None,NILOBE DC TRUCKING CORP,,NILOBE DC TRUCKING CORP,"14011 LORNE DR
HOUSTON, TX   77049",(602) 622-6303,(602) 622-6303,DARIAMCESPEDES@YAHOO.COM,"14011 LORNE DR
HOUSTON, TX   77049-4004",1,1,2019-11-20,,"Auth. For Hire, ","Interstate, ","General Freight, "
3360089,,CARRIER,NOT AUTHORIZED,None,MAMALON ENTERPRISES LLC,,MAMALON ENTERPRISES LLC,"484 TATA DR
FABENS, TX   79838",(432) 488-7457,(432) 488-7457,JOESANCHEZ.COM@GMAIL.COM,"PO BOX 384755
FABENS, TX   79838-4755",1,1,2019-11-22,1 (2019),"Auth. For Hire, ","Interstate, ","Livestock, "
3360100,,CARRIER,ACTIVE,None,JUAN RICARDO SMITH,SAL DELIVERY,JUAN RICARDO SMITH,"210 DYER ST
WILLS POINT, TX   75169-2936",(214) 403-2322,(214) 403-2322,JRSMITH132003@YAHOO.COM,"210 DYER ST
WILLS POINT, TX   75169-2936",1,1,2019-11-22,1 (2018),"Auth. For Hire, ","Intrastate Only (Non-HM), ","General Freight, "
3360112,,CARRIER,ACTIVE,None,ANTHONY RAY MENDOZA,ATM TRANSPORTING,ANTHONY RAY MENDOZA,"154 COUNTY ROAD 3074
ORANGE GROVE, TX   78372-3621",(361) 389-3859,(361) 389-3859,TRACYSFRENCHIES@YAHOO.COM,"154 COUNTY ROAD 3074
ORANGE GROVE, TX   78372-3621",1,2,2019-11-22,,"Auth. For Hire, ","Intrastate Only (Non-HM), ","General Freight, Mobile Homes, "
3360146,,CARRIER,NOT AUTHORIZED,None,EXPRESSWAY TRUCKING LLC,,EXPRESSWAY TRUCKING LLC,"222 COUNTY ROAD 4220
JACKSONVILLE, TX   75766",(903) 339-8559,(903) 339-8559,EXPRESSWAYTRUCKINGLLC@YAHOO.COM,"222 COUNTY ROAD 4220
JACKSONVILLE, TX   75766-7394",1,1,2019-11-20,,"Auth. For Hire, ","Interstate, ","General Freight, Logs, Poles, Beams, Lumber, Building Materials, Machinery, Large Objects, Construction, "
3360168,,CARRIER,ACTIVE,None,LIBAN PARGAS BATISTA,,LIBAN PARGAS BATISTA,"312 W WINKLER ST
KERMIT, TX   79745-4131",(432) 258-5867,(432) 258-5867,LIBANPARGAS@YAHOO.COM,"312 W WINKLER ST
KERMIT, TX   79745-4131",1,1,2019-11-20,,"Auth. For Hire, ","Intrastate Only (Non-HM), ","General Freight, "
3360177,,CARRIER,ACTIVE,None,JOHNSON TRUCKING SERVICE LLC,,JOHNSON TRUCKING SERVICE LLC,"501 E JASMINE AVE APT 122
MCALLEN, TX   78501-9232",(956) 961-1976,(956) 961-1976,OSHAY7848@GMAIL.COM,"501 E JASMINE AVE APT 122
MCALLEN, TX   78501-9232",1,1,2019-11-20,,"Auth. For Hire, ","Intrastate Only (Non-HM), ","General Freight, Fresh Produce, "
3360182,,CARRIER,ACTIVE,None,MARCELO'S TRUCKING LLC,,MARCELO'S TRUCKING LLC,"3602 BOB BILLA ST
SAN ANTONIO, TX   78223-2812",(304) 224-3339,(304) 224-3339,CWILLIAMS798743@GMAIL.COM,"3602 BOB BILLA ST
SAN ANTONIO, TX   78223-2812",1,1,2019-11-20,,"Auth. For Hire, ","Intrastate Only (Non-HM), ","Household Goods, "
3360206,,CARRIER,NOT AUTHORIZED,None,ERICSON INTERNATIONAL LLC,,ERICSON INTERNATIONAL LLC,"825 WATTERS CREEK BLVD STE 250
ALLEN, TX   75013",(214) 763-4267,(214) 763-4267,ORLANDO.Y@ERICSONBERGEN.COM,"825 WATTERS CREEK BLVD STE 250
ALLEN, TX   75013-3770",3,3,2019-11-20,,"Auth. For Hire, ","Interstate, ","General Freight, Commodities Dry Bulk, "
3360231,,CARRIER,ACTIVE,None,WE MOVE CARGO LLC,,WE MOVE CARGO LLC,"17806 IH 10 W STE 300
SAN ANTONIO, TX   78257-8222",(210) 721-1730,(210) 721-1730,JORGE@WEMOVECARGOTX.COM,"17806 IH 10 W STE 300
SAN ANTONIO, TX   78257-8222",1,4,2019-11-20,,"Auth. For Hire, ","Intrastate Only (Non-HM), ","General Freight, Metal: sheets, coils, rolls, Building Materials, Beverages, Paper Products, "
3360236,,CARRIER,NOT AUTHORIZED,None,LEAWIG LOGISTICS LLC,,LEAWIG LOGISTICS LLC,"2027 S 61ST ST STE 115A
TEMPLE, TX   76504",(254) 541-6766,(254) 541-6766,LEAWIGLOGISTICS@YAHOO.COM,"2027 S 61ST ST STE 115A
TEMPLE, TX   76504-6857",1,1,2019-11-20,,"Auth. For Hire, ","Interstate, ","Building Materials, Machinery, Large Objects, Agricultural/Farm Supplies, Construction, "
3360253,,CARRIER,ACTIVE,None,BORGES LARA TRUCKING LLC,,BORGES LARA TRUCKING LLC,"2926 BARKER CYPRESS RD APT 10104
HOUSTON, TX   77084-7946",(281) 330-8004,(281) 330-8004,BORGESLARATRUCKINGLLC1@GMAIL.COM,"2926 BARKER CYPRESS RD APT 10104
HOUSTON, TX   77084-7946",1,1,2019-11-20,,"Auth. For Hire, ","Intrastate Only (Non-HM), ","OTHER, "
3360258,,CARRIER,ACTIVE,None,RAMON LOPEZ TREJO,TREJO CONCRETE,RAMON LOPEZ TREJO,"6615 ALFARO DR
HOUSTON, TX   77076",(832) 919-1946,(832) 919-1946,RH47430@GMAIL.COM,"6615 ALFARO DR
HOUSTON, TX   77076",1,1,2019-11-21,,"Auth. For Hire, ","Intrastate Only (Non-HM), ","CONCRETE, "
3360260,,CARRIER,ACTIVE,None,KKBUSTERS LLC,,KKBUSTERS LLC,"275 BARCELONA AVE
BROWNSVILLE, TX   78526-1806",(956) 574-9770,(956) 574-9770,MARIO.HERNANDEZ91@YAHOO.COM,"275 BARCELONA AVE
BROWNSVILLE, TX   78526-1806",3,3,2019-11-20,,"Auth. For Hire, ","Intrastate Only (Non-HM), ","General Freight, "
3360274,,CARRIER,ACTIVE,None,LUIS ALBERTO TORRES QUINTANA,,LUIS ALBERTO TORRES QUINTANA,"125 GLENMORE ST
IRVING, TX   75060-4332",(682) 375-0473,(682) 375-0473,PERSONALLINES@VILLATEXASINS.COM,"125 GLENMORE ST
IRVING, TX   75060-4332",1,1,2019-11-21,,"Auth. For Hire, ","Intrastate Only (Non-HM), ","General Freight, Building Materials, Construction, OTHER, "
3360289,,CARRIER,ACTIVE,None,JAVIER HUMBERTO MOLANO,MOLANO'S TRUCKING,JAVIER HUMBERTO MOLANO,"14502 CYPRESS MEADOW DR
CYPRESS, TX   77429-1950",(360) 688-9442,(360) 688-9442,INTERMOLANO@GMAIL.COM,"14502 CYPRESS MEADOW DR
CYPRESS, TX   77429-1950",1,1,2019-11-22,,"Auth. For Hire, ","Intrastate Only (Non-HM), ","General Freight, Construction, "
3360298,,CARRIER,NOT AUTHORIZED,None,RAO XPRESS INC,,RAO XPRESS INC,"421 N 1ST ST
DONNA, TX   78537",(956) 407-3202,(956) 407-3202,ALENREY1224@OUTLOOK.COM,"421 N 1ST ST
DONNA, TX   78537-2322",1,1,2019-11-20,,"Auth. For Hire, ","Interstate, ","General Freight, "
3360318,,CARRIER,ACTIVE,None,MARCO F MORALES LAMEIRO,HH HAULING SOLUTIONS,MARCO F MORALES LAMEIRO,"2777 WOODLAND PARK DR APT 808
HOUSTON, TX   77082-6648",(346) 801-0174,(346) 801-0174,ENEAMAZON@GMAIL.COM,"2777 WOODLAND PARK DR APT 808
HOUSTON, TX   77082-6648",1,2,2019-11-21,,"Auth. For Hire, ","Intrastate Only (Non-HM), ","General Freight, Motor Vehicles, Construction, "
3360333,,CARRIER,NOT AUTHORIZED,None,ARCH LOGISTICS LLC,,ARCH LOGISTICS LLC,"602 E AZALEA AVE # 4909
HIDALGO, TX   78557",(956) 651-7552,(956) 651-7552,ARCH73LOGI@GMAIL.COM,"602 E AZALEA AVE # 4909
HIDALGO, TX   78557-2631",3,3,2019-11-20,,"Auth. For Hire, ","Interstate, ","General Freight, Building Materials, Paper Products, Utilities, Agricultural/Farm Supplies, "
3360357,,CARRIER,ACTIVE,None,502 LOGISTICS LLC,,502 LOGISTICS LLC,"502 W ELM ST
DENVER CITY, TX   79323-3422",(806) 790-7164,(806) 790-7164,502LOGISTICSLLC@GMAIL.COM,"502 W ELM ST
DENVER CITY, TX   79323-3422",3,1,2019-11-20,,"Auth. For Hire, ","Intrastate Only (Non-HM), ","OTHER, "
3360364,,CARRIER,ACTIVE,None,WILFREDO ENAMORADO,WED TRUCKING,WILFREDO ENAMORADO,"2001 BURKE RD APT 53
PASADENA, TX   77502-3021",(308) 217-2357,(308) 217-2357,COMPLIANCE@PERSONALTRUCKSERVICES.COM,"2001 BURKE RD APT 53
PASADENA, TX   77502-3021",1,1,2019-11-21,1 (2018),"Auth. For Hire, ","Intrastate Only (Non-HM), ","DIRT SAND AND GR, "
3360382,,CARRIER,ACTIVE,None,TWENTYFOUR CONCRETE,CONSTRUCTION MATERIALS,TWENTYFOUR CONCRETE,"201 BURCH RD
SHEPHERD, TX   77371-2063",(832) 335-2265,(832) 335-2265,MAGALYVARGAS1010@GMAIL.COM,"201 BURCH RD
SHEPHERD, TX   77371-2063",1,1,2019-11-20,,"Auth. For Hire, ","Intrastate Only (Non-HM), ","General Freight, "
3360383,,CARRIER,NOT AUTHORIZED,None,ROSSER TRUCKING LLC,,ROSSER TRUCKING LLC,"3801 E HIGHWAY 80 TRLR 82
MIDLAND, TX   79706",(405) 792-6946,(405) 792-6946,BIGRIGUP@GMAIL.COM,"3801 E HIGHWAY 80 TRLR 82
MIDLAND, TX   79706-4416",1,1,2019-11-20,,"Auth. For Hire, ","Interstate, ","General Freight, "
3360411,,CARRIER,ACTIVE,None,TEXAS SNOW STORM OF SOUTH CENTRAL TX LLC,,TEXAS SNOW STORM OF SOUTH CENTRAL TX LLC,"2106 LONGWOOD DR
BRENHAM, TX   77833-5242",(979) 830-1954,(979) 830-1954,POLARICETEXAS1954@GMAIL.COM,"PO BOX 2312
BRENHAM, TX   77834-2312",1,1,2019-11-22,"50,000 (2019)","Auth. For Hire, ","Intrastate Only (Non-HM), ","General Freight, Refrigerated Food, "
3360469,,CARRIER,ACTIVE,None,JAVIER OVIDIO CAZARES,YYY CAZARES TRUCKING,JAVIER OVIDIO CAZARES,"2716 THOMAS AVE
PASADENA, TX   77506-3141",(346) 317-2372,(346) 317-2372,CRISTIAN@THEKEYSTONEGROUP.NET,"2716 THOMAS AVE
PASADENA, TX   77506-3141",1,1,2019-11-20,,"Auth. For Hire, ","Intrastate Only (Non-HM), ","OTHER, "
3360475,,CARRIER,ACTIVE,None,ARIEL MENDOZA,TRANSPORTES RARAMURI,ARIEL MENDOZA,"303 E HILL ST
BROWNFIELD, TX   79316-3607",(806) 638-2050,(806) 638-2050,ARIELMDZA930@GMAIL.COM,"303 E HILL ST
BROWNFIELD, TX   79316-3607",1,1,2019-11-20,,"Auth. For Hire, ","Intrastate Only (Non-HM), ","Passengers, "
3360483,,CARRIER,ACTIVE,None,LG TRUCKING,,LUIS ALBERTO GAINZA,"150 KLATTENHOFF LN APT 15205
HUTTO, TX   78634-4618",(786) 459-7917,(786) 459-7917,LGAINZALT@GMAIL.COM,"150 KLATTENHOFF LN APT 15205
HUTTO, TX   78634-4618",1,1,2019-11-20,,"Auth. For Hire, ","Intrastate Only (Non-HM), ","General Freight, "
3360490,,CARRIER,NOT AUTHORIZED,None,MATTHEW DRAKE,,MATTHEW DRAKE,"8450 RICE DR
LUMBERTON, TX   77657",(409) 781-0177,(409) 781-0177,AQUADOCSTX@GMAIL.COM,"8450 RICE DR
LUMBERTON, TX   77657-8937",1,1,2019-11-21,,"Auth. For Hire, ","Interstate, ","General Freight, OTHER, "
3360495,,CARRIER,NOT AUTHORIZED,None,KAHLON BROTHERS INC,,KAHLON BROTHERS INC,"14144 MUESCHKE RD APT 12205
CYPRESS, TX   77433",(832) 770-1135,(832) 770-1135,ATINDERKAHLON@GMAIL.COM,"14144 MUESCHKE RD APT 12205
CYPRESS, TX   77433-3037",1,1,2019-11-20,,"Auth. For Hire, ","Interstate, ","General Freight, Fresh Produce, Paper Products, "
3360533,,CARRIER,NOT AUTHORIZED,None,RODGERS & RODGERS LLC,,RODGERS & RODGERS LLC,"1411 BISTINEAU DR
CEDAR HILL, TX   75104",(214) 438-9698,(214) 438-9698,RODGERS.RODGERSLLC@GMAIL.COM,"1411 BISTINEAU DR
CEDAR HILL, TX   75104-6242",1,1,2019-11-20,,"Auth. For Hire, ","Interstate, ","General Freight, Metal: sheets, coils, rolls, Motor Vehicles, Logs, Poles, Beams, Lumber, Building Materials, Machinery, Large Objects, Construction, "
3360546,,CARRIER,NOT AUTHORIZED,None,STEPHANIE SMITH-ANDERSON DANIELLE LAWSON,S AND D FAMILY LOGISTICS,STEPHANIE SMITH-ANDERSON DANIELLE LAWSON,"736 REEVES LN
SEAGOVILLE, TX   75159",(214) 723-2187,(214) 723-2187,ANDERSONSTEPH12@GMAIL.COM,"736 REEVES LN
SEAGOVILLE, TX   75159-1754",1,1,2019-11-20,,"Auth. For Hire, ","Interstate, ","General Freight, "
3360570,,CARRIER,NOT AUTHORIZED,None,L&M TRANSPORT,,L&M TRANSPORT,"10200 COUNTY ROAD 1016
BURLESON, TX   76028",(817) 994-8328,(817) 994-8328,LAURALEIGHG@HOTMAIL.COM,"PO BOX 2284
BURLESON, TX   76097-2284",1,4,2019-11-20,,"Auth. For Hire, ","Interstate, ","General Freight, "
3360573,,CARRIER,NOT AUTHORIZED,None,EUFEMIO MANUEL MALPICA,MALPICA TRUCKING,EUFEMIO MANUEL MALPICA,"491 COUNTY ROAD 703
NACOGDOCHES, TX   75964",(936) 615-2737,(936) 615-2737,EMALPICA936@ICLOUD.COM,"491 COUNTY ROAD 703
NACOGDOCHES, TX   75964-5560",1,1,2019-11-21,,"Auth. For Hire, ","Intrastate Only (Non-HM), ","General Freight, Motor Vehicles, "
3360633,,CARRIER,NOT AUTHORIZED,None,365 HOTSHOT LLC,,365 HOTSHOT LLC,"5022 QUEBEC BLVD
RICHMOND, TX   77469",(405) 792-6946,(405) 792-6946,JTHOTSHOT77@GMAIL.COM,"5022 QUEBEC BLVD
RICHMOND, TX   77469-2626",1,1,2019-11-21,,"Auth. For Hire, ","Interstate, ","General Freight, "
3360644,,CARRIER,ACTIVE,None,OMAR SALOMON ROJAS,ROJAS TRUCKING,OMAR SALOMON ROJAS,"13318 ANTELOPE RUN
SAINT HEDWIG, TX   78152-0059",(210) 326-8691,(210) 326-8691,ROJASTRUCKING218@GMAIL.COM,"13318 ANTELOPE RUN
SAINT HEDWIG, TX   78152-0059",1,1,2019-11-21,,"Auth. For Hire, ","Intrastate Only (Non-HM), ","General Freight, Beverages, "
3360645,,CARRIER,ACTIVE,None,CROWS TRUCKING,,CROWS TRUCKING,"17614 NORTHFALK DR
HOUSTON, TX   77084-1679",(832) 231-2869,(832) 231-2869,YADRIELGARCIALEN@YAHOO.COM,"17614 NORTHFALK DR
HOUSTON, TX   77084-1679",1,2,2019-11-21,,"Auth. For Hire, ","Intrastate Only (Non-HM), ","General Freight, OTHER, "
3360672,,CARRIER,NOT AUTHORIZED,None,TRUCKING 4 A PURPOSE LLC,,TRUCKING 4 A PURPOSE LLC,"16810 BLACKBERRY LILY LN
CONROE, TX   77385-2006",(347) 359-2183,(347) 359-2183,T4APTRUCKING@GMAIL.COM,"16810 BLACKBERRY LILY LN
CONROE, TX   77385-2006",1,1,2019-11-21,1 (2019),"Auth. For Hire, ","Interstate, ","General Freight, "
3360677,,CARRIER,ACTIVE,None,DUMERCY ANTONIO CRUZ CORPENO,,DUMERCY ANTONIO CRUZ CORPENO,"108 S FRONT ST
KYLE, TX   78640-4171",(512) 698-8009,(512) 698-8009,CHRISTIAN.P@PREVENTTY.COM,"108 S FRONT ST
KYLE, TX   78640-4171",1,1,2019-11-21,,"Auth. For Hire, ","Intrastate Only (Non-HM), ","OTHER, "
3360726,,CARRIER,ACTIVE,None,ACCELERATED TRANSPORTATION & LOGISTICS LLC,,ACCELERATED TRANSPORTATION & LOGISTICS LLC,"1415 NOTTINGHAM DR
KAUFMAN, TX   75142-9568",(469) 805-2280,(469) 805-2280,ACCELERATEDTRANSLOG@GMAIL.COM,"1415 NOTTINGHAM DR
KAUFMAN, TX   75142-9568",1,1,2019-11-21,,"Auth. For Hire, ","Interstate, ","General Freight, Motor Vehicles, "
3360738,,CARRIER,NOT AUTHORIZED,None,WOODY'S TRUCKING COMPANY LLC,,WOODY'S TRUCKING COMPANY LLC,"12329 W DORIS DR
ODESSA, TX   79764",(432) 254-6058,(432) 254-6058,CLOYA78@GMAIL.COM,"12329 W DORIS DR
ODESSA, TX   79764-9416",4,2,2019-11-21,,"Auth. For Hire, ","Interstate, ","General Freight, "
3360743,,CARRIER,ACTIVE,None,CRISTIAN CLAUDIU CIULA,,CRISTIAN CLAUDIU CIULA,"5722 ROCKY TRAIL DR
KINGWOOD, TX   77339-3386",(216) 650-7629,(216) 650-7629,CCCIULA@YAHOO.COM,"5722 ROCKY TRAIL DR
KINGWOOD, TX   77339-3386",1,2,2019-11-21,,"Auth. For Hire, ","Intrastate Only (Non-HM), ","General Freight, "
3360751,,CARRIER,NOT AUTHORIZED,None,ONE CIRCLE LLC,ONE CIRCLE LLC|ONE CIRCLE LLC,ONE CIRCLE LLC,"505 HONEYDALE RD TRLR 42
BROWNSVILLE, TX   78520",(956) 579-1061,(956) 579-1061,LAURA_MEJIA@ROMEDU.COM,"505 HONEYDALE RD TRLR 42
BROWNSVILLE, TX   78520-7849",2,2,2019-11-21,,"Auth. For Hire, ","Interstate, ","General Freight, "
3360756,,CARRIER,NOT AUTHORIZED,None,HEROES TRUCKING,,HEROES TRUCKING,"3626 LOCUST AVE
ODESSA, TX   79762",(432) 425-9027,(432) 425-9027,HJUAN4931@GMAIL.COM,"3626 LOCUST AVE
ODESSA, TX   79762-7751",1,1,2019-11-21,,"Auth. For Hire, ","Interstate, ","General Freight, "
3360759,,CARRIER,ACTIVE,None,ENDEAVOUR TRANSPORT LLC,,ENDEAVOUR TRANSPORT LLC,"1556 COMMERCE DR
PLANO, TX   75093-2640",(972) 689-1616,(972) 689-1616,LIZ@PRIMETIMEIS.COM,"1556 COMMERCE DR
PLANO, TX   75093-2640",1,1,2019-11-21,,"Auth. For Hire, ","Intrastate Only (Non-HM), ","General Freight, OTHER, "
3360774,,CARRIER,NOT AUTHORIZED,None,TEXAS CONTAINER TRANSPORT,,TEXAS CONTAINER TRANSPORT,"13235 PLEASANT VALLEY DR
ROSHARON, TX   77583",(979) 388-3146,(979) 388-3146,ROBCUMMINGS74@GMAIL.COM,"13235 PLEASANT VALLEY DR
ROSHARON, TX   77583-6236",1,2,2019-11-21,,"Auth. For Hire, ","Interstate, ","General Freight, Intermodal Cont., "
3360787,,CARRIER,ACTIVE,None,D & W TRUCKING LLC,YORK BROTHERS TRUCKING,D & W TRUCKING LLC,"604 COUNTY ROAD 3655
PARADISE, TX   76073-4122",(940) 389-0803,(940) 389-0803,YORKLARRY25@YAHOO.COM,"604 COUNTY ROAD 3655
PARADISE, TX   76073-4122",1,5,2019-11-21,,"Auth. For Hire, ","Intrastate Only (Non-HM), ","General Freight, Liquids/Gases, "
3360794,,CARRIER,ACTIVE,None,TRICE TRANSPORTS LLC,,TRICE TRANSPORTS LLC,"2906 HARRISBURG LN
TEXARKANA, TX   75503-4501",(903) 556-2054,(903) 556-2054,JACK11RICHARDSON@GMAIL.COM,"2906 HARRISBURG LN
TEXARKANA, TX   75503-4501",2,2,2019-11-21,,"Auth. For Hire, ","Intrastate Only (Non-HM), ","Motor Vehicles, "
3360827,,CARRIER,ACTIVE,None,MAYHEM TRANSPORT INC,,MAYHEM TRANSPORT INC,"2412 BRAZEAL ST
WALLER, TX   77484-8438",(832) 291-8005,(832) 291-8005,BRANDI@MAYHEMTRANSPORT.COM,"2412 BRAZEAL ST
WALLER, TX   77484-8438",1,2,2019-11-21,,"Auth. For Hire, ","Intrastate Only (Non-HM), ","General Freight, Building Materials, "
3360849,,CARRIER,ACTIVE,None,BIG RIVER VALLEY TRANSPORT LLC,,BIG RIVER VALLEY TRANSPORT LLC,"1108 STONE ST
WESLACO, TX   78596-5728",(956) 642-6211,(956) 642-6211,BIGRIVERVALLEYTRANSPORTLLC@YAHOO.COM,"1108 STONE ST
WESLACO, TX   78596-5728",1,1,2019-11-21,,"Auth. For Hire, ","Intrastate Only (Non-HM), ","General Freight, "
3360854,,CARRIER,NOT AUTHORIZED,None,R W BURK TRUCK LINE LLC,,R W BURK TRUCK LINE LLC,"9529 FOSTERS BND
CLEVELAND, TX   77328",(832) 721-7074,(832) 721-7074,MELINDABURK01@GMAIL.COM,"9529 FOSTERS BND
CLEVELAND, TX   77328-6976",1,2,2019-11-21,,"Auth. For Hire, ","Interstate, ","General Freight, Logs, Poles, Beams, Lumber, Building Materials, Machinery, Large Objects, "
3360889,,CARRIER,NOT AUTHORIZED,None,WRTB ENTERPRISES LLC,,WRTB ENTERPRISES LLC,"26222 DARK HORSE LN
SAN ANTONIO, TX   78260",(302) 470-1024,(302) 470-1024,CWILLIAMS798743@GMAIL.COM,"PO BOX 201836
SAN ANTONIO, TX   78220-8836",1,1,2019-11-21,,"Auth. For Hire, ","Interstate, ","General Freight, "
3360910,,CARRIER,ACTIVE,None,VVA LOGISTICS LLC,,VVA LOGISTICS LLC,"6313 88TH ST
LUBBOCK, TX   79424-3525",(575) 605-1055,(575) 605-1055,VASILIBOSTAN@YAHOO.COM,"6313 88TH ST
LUBBOCK, TX   79424-3525",1,1,2019-11-21,,"Auth. For Hire, ","Intrastate Only (Non-HM), ","General Freight, OTHER, "
3360920,,CARRIER,NOT AUTHORIZED,None,READY FLOW LIMITED LIABILITY,,READY FLOW LIMITED LIABILITY,"512 N HAMPTON RD APT 153
DESOTO, TX   75115",(972) 217-9940,(972) 217-9940,READYFLOWLC@GMAIL.COM,"512 N HAMPTON RD APT 153
DESOTO, TX   75115-4920",1,3,2019-11-21,,"Auth. For Hire, ","Interstate, ","General Freight, "
3360921,,CARRIER,ACTIVE,None,DARRIN OKEITH JR GRIFFIN,D LYNN CARRIERS,DARRIN OKEITH JR GRIFFIN,"4439 MONTEITH DR
SPRING, TX   77373-6838",(832) 507-9417,(832) 507-9417,DARRINGRIFFIN1986@GMAIL.COM,"4439 MONTEITH DR
SPRING, TX   77373-6838",1,1,2019-11-21,,"Auth. For Hire, ","Intrastate Only (Non-HM), ","General Freight, "
3360923,,CARRIER,NOT AUTHORIZED,None,EDGAR I CARO,CARO SONS,EDGAR I CARO,"13171 SYLVIA ANDREA DR
SAN ELIZARIO, TX   79849",(915) 929-7282,(915) 929-7282,LUPEYOUREPREALTOR@GMAIL.COM,"13171 SYLVIA ANDREA DR
SAN ELIZARIO, TX   79849-8639",1,1,2019-11-21,,"Auth. For Hire, ","Interstate, ","General Freight, "
3360942,,CARRIER,ACTIVE,None,BENNIE EDWARD LINDSEY,JILL & DAD TRUCKING CO,BENNIE EDWARD LINDSEY,"305 GEORGETOWN DR
GARLAND, TX   75043-2404",(214) 755-8100,(214) 755-8100,BENNIE_LINDSEY@YAHOO.COM,"305 GEORGETOWN DR
GARLAND, TX   75043-2404",1,1,2019-11-22,1 (2018),"Auth. For Hire, ","Intrastate Only (Non-HM), ","General Freight, OTHER, "
3360959,,CARRIER,ACTIVE,None,JAVIER GOMEZ,,JAVIER GOMEZ,"11014 UNITED ST
HOUSTON, TX   77093-3945",(832) 643-8887,(832) 643-8887,JAVIERGOMEZ181996@GMAIL.COM,"11014 UNITED ST
HOUSTON, TX   77093-3945",1,1,2019-11-21,,"Auth. For Hire, ","Intrastate Only (Non-HM), ","General Freight, Building Materials, "
3360961,,CARRIER,ACTIVE,None,EAE LUJAN SERVICES LLC,,EAE LUJAN SERVICES LLC,"1805 E COUNTY ROAD 148
MIDLAND, TX   79706-7657",(432) 257-5406,(432) 257-5406,REMING06@ICLOUD.COM,"1805 E COUNTY ROAD 148
MIDLAND, TX   79706-7657",1,1,2019-11-21,1 (2018),"Auth. For Hire, ","Intrastate Only (Non-HM), ","WATER/SAND, "
3360970,,CARRIER,ACTIVE,None,ABT CARRIERS LLC,,ABT CARRIERS LLC,"2000 HOGAN LN STE B
WACO, TX   76705-2422",(254) 644-2829,(254) 644-2829,ABTCARRIERSLLC@GMAIL.COM,"PO BOX 179
ELM MOTT, TX   76640-0179",1,2,2019-11-21,,"Auth. For Hire, ","Intrastate Only (Non-HM), ","General Freight, "
3360996,,CARRIER,ACTIVE,None,ANDREW LEBLANC,LEBLANC TRUCKING,ANDREW JERMAINE LEBLANC,"1409 CHURCH ST
BEAUMONT, TX   77705",(304) 224-3339,(409) 812-1536,4094550874.AL@GMAIL.COM,"1409 CHURCH ST
BEAUMONT, TX   77705",1,1,2019-11-22,,"Auth. For Hire, ","Intrastate Only (Non-HM), ","General Freight, "
3361028,,CARRIER,ACTIVE,None,EL GALLERO TRUCKING,,ADRIANA VALADEZ STEPHENS,"809 MAGNUSSON AVE
PALACIOS, TX   77465-3843",(361) 920-1891,(361) 920-1891,STEPHENSANDREA197@GMAIL.COM,"809 MAGNUSSON AVE
PALACIOS, TX   77465-3843",1,1,2019-11-22,,"Auth. For Hire, ","Intrastate Only (Non-HM), ","General Freight, "
3361071,,CARRIER,ACTIVE,None,ESPARTAKUS HOT SHOT TRUCKING LLC,,ESPARTAKUS HOT SHOT TRUCKING LLC,"1650 SAINT JAMES
EL PASO, TX   79936-6567",(915) 545-3675,(915) 545-3675,MLOYA@BORDERCITYINS.COM,"1650 SAINT JAMES
EL PASO, TX   79936-6567",1,1,2019-11-21,1 (2018),"Auth. For Hire, ","Intrastate Only (Non-HM), ","General Freight, Logs, Poles, Beams, Lumber, Building Materials, Beverages, Utilities, Construction, "
3361074,,CARRIER,NOT AUTHORIZED,None,ANYTHING ANYTIME ANYWHERE LOGISTICS LLC,,ANYTHING ANYTIME ANYWHERE LOGISTICS LLC,"15319 FALLEN GRV
SAN ANTONIO, TX   78247",(205) 202-9403,(205) 202-9403,BREADOFLIFESATX@GMAIL.COM,"15319 FALLEN GRV
SAN ANTONIO, TX   78247-2961",3,3,2019-11-21,,"Auth. For Hire, ","Interstate, ","General Freight, "
3361173,,CARRIER,ACTIVE,None,EDGEFIELD HAULING SERVICES LLC,,EDGEFIELD HAULING SERVICES LLC,"419 ADDISON ST
EDGEFIELD, SC   29824-1205",(806) 433-9811,(806) 433-9811,TGQUINLIN@GMAIL.COM,"100 S SHORE DR
AMARILLO, TX   79118-8006",1,1,2019-11-22,,"Auth. For Hire, ","Intrastate Only (Non-HM), ","OTHER, "
3361224,,CARRIER,ACTIVE,None,PEDROSO TRUCKING,,JUAN ALBERTO PEDROSO POVEA,"3707 W PIONEER DR APT 2207
IRVING, TX   75061-8281",(786) 778-3054,(786) 778-3054,JUANPEDROSO1984@GMAIL.COM,"3707 W PIONEER DR APT 2207
IRVING, TX   75061-8281",2,0,2019-11-22,,"Auth. For Hire, ","Intrastate Only (Non-HM), ","General Freight, OTHER, "
3361253,,CARRIER,ACTIVE,None,KORYAN'S DELIVERY SERVICE LLC,,KORYAN'S DELIVERY SERVICE LLC,"2850 OAK RD APT 9309
PEARLAND, TX   77584-8883",(407) 209-4058,(407) 209-4058,K.SPIRITA13@GMAIL.COM,"PO BOX 300875
HOUSTON, TX   77230-0875",1,1,2019-11-22,1 (2018),"Auth. For Hire, ","Intrastate Only (Non-HM), ","General Freight, "
3361271,,CARRIER,NOT AUTHORIZED,None,B & C EXPRESS TRUCKING LLC,,B & C EXPRESS TRUCKING LLC,"400 MAIN ST
ENCINAL, TX   78019",(956) 703-6099,(956) 703-6099,BLINK0473@AOL.COM,"PO BOX 158
ENCINAL, TX   78019-0158",1,1,2019-11-22,,"Auth. For Hire, ","Interstate, ","General Freight, "
3361274,,CARRIER,ACTIVE,None,VIDAL & SON TRANSPORT,,JUSEL WYNDY VIDAL,"20806 WESTFIELD TERRACE TRL
KATY, TX   77449-2390",(201) 417-9117,(201) 417-9117,SANTIAGUERO2001@YAHOO.ES,"20806 WESTFIELD TERRACE TRL
KATY, TX   77449-2390",1,2,2019-11-22,,"Auth. For Hire, ","Intrastate Only (Non-HM), ","General Freight, "
3361277,,CARRIER,NOT AUTHORIZED,None,HEYMI TRUCKING LLC,,HEYMI TRUCKING LLC,"191 COACH LAMP LN
HOUSTON, TX   77060",(206) 773-5185,(206) 773-5185,STARZZPERMITS@YAHOO.COM,"191 COACH LAMP LN
HOUSTON, TX   77060-4201",2,4,2019-11-22,,"Auth. For Hire, ","Interstate, ","General Freight, "
3361295,,CARRIER,ACTIVE,None,8 FLEET LLC,,8 FLEET LLC,"2509 SANDSTONE DR
MISSION, TX   78574-2774",(956) 522-5606,(956) 522-5606,8FLEETLLC@GMAIL.COM,"2509 SANDSTONE DR
MISSION, TX   78574-2774",1,2,2019-11-22,,"Auth. For Hire, ","Intrastate Only (Non-HM), ","General Freight, Fresh Produce, "
3361307,,CARRIER,ACTIVE,None,LUIS CABRERA TURCIOS,,LUIS CABRERA TURCIOS,"4400 W AIRPORT BLVD APT 1202
HOUSTON, TX   77045-2359",(346) 303-0647,(346) 303-0647,YESENIANORIEGA24@OUTLOOK.COM,"4400 W AIRPORT BLVD APT 1202
HOUSTON, TX   77045-2359",1,1,2019-11-22,,"Auth. For Hire, ","Intrastate Only (Non-HM), ","OTHER, "
3361334,,CARRIER,NOT AUTHORIZED,None,TSJ TRUCKING LLC,,TSJ TRUCKING LLC,"9655 CHIMNEY HILL LN APT 2133
DALLAS, TX   75243",(469) 508-9374,(469) 508-9374,TSJTRUCKING1119@GMAIL.COM,"9655 CHIMNEY HILL LN APT 2133
DALLAS, TX   75243-2928",1,1,2019-11-22,,"Auth. For Hire, ","Interstate, ","General Freight, "
3361343,,CARRIER,ACTIVE,None,FAM TRUCKING LLC,,FAM TRUCKING LLC,"1743 SPUR 529
RICHMOND, TX   77471",(832) 935-0299,(832) 935-0299,CLAUINS@MSN.COM,"1743 SPUR 529
RICHMOND, TX   77471",2,2,2019-11-22,,"Auth. For Hire, ","Intrastate Only (Non-HM), ","OTHER, "
3361397,,CARRIER,ACTIVE,None,R & M TRUCKING,,R & M TRUCKING,"1809 PALM CREEK BLVD
PALMVIEW, TX   78574-0328",(956) 280-5122,(956) 280-5122,YADIRA2987@YAHOO.COM,"1809 PALM CREEK BLVD
PALMVIEW, TX   78574-0328",1,2,2019-11-22,,"Auth. For Hire, ","Intrastate Only (Non-HM), ","General Freight, "
3361417,,CARRIER,NOT AUTHORIZED,None,BROWN AND PATTERSON TRUCKING LLC,,BROWN AND PATTERSON TRUCKING LLC,"10615 EAGLE CT
BAYTOWN, TX   77523",(405) 792-6946,(405) 792-6946,DAVIDBROWN123456@GMAIL.COM,"10615 EAGLE CT
BAYTOWN, TX   77523-9592",1,1,2019-11-22,,"Auth. For Hire, ","Interstate, ","General Freight, "
3361436,,CARRIER,ACTIVE,None,TRUCK KINGZ TRANSPORT LLC,,TRUCK KINGZ TRANSPORT LLC,"1119 S ELLISON DR
SAN ANTONIO, TX   78245-1417",(210) 420-6853,(210) 420-6853,JOSELUISMTZ1073@GMAIL.COM,"1119 S ELLISON DR
SAN ANTONIO, TX   78245-1417",1,1,2019-11-22,,"Auth. For Hire, ","Intrastate Only (Non-HM), ","OTHER, "
3361438,,CARRIER,NOT AUTHORIZED,None,BERNARD CLAUDIUS THORNTON,ALL AROUND TRANSPORT,BERNARD CLAUDIUS THORNTON,"14001 MAIN ST
HOUSTON, TX   77035",(281) 912-4380,(281) 912-4380,BRNTHR@AOL.COM,"14001 MAIN ST
HOUSTON, TX   77035-5439","100,000",8,2019-11-22,,"Auth. For Hire, ","Interstate, ","Motor Vehicles, "
3361459,,CARRIER,ACTIVE,None,JUAN AGUILAR,,JUAN AGUILAR,"3835 COUNTY ROAD 309
LEXINGTON, TX   78947-9492",(469) 754-9227,(469) 754-9227,JUAN.CRUZ@FINOCOMPANY.COM,"3835 COUNTY ROAD 309
LEXINGTON, TX   78947-9492",1,1,2019-11-22,,"Auth. For Hire, ","Intrastate Only (Non-HM), ","General Freight, OTHER, "
3361505,,CARRIER,NOT AUTHORIZED,None,LS PERFORMANCE SERVICES LLC,,LS PERFORMANCE SERVICES LLC,"332 FM 1235
MERKEL, TX   79536",(405) 792-6946,(405) 792-6946,SHANEPRIDDYRACING@GMAIL.COM,"332 FM 1235
MERKEL, TX   79536-4416",1,1,2019-11-22,,"Auth. For Hire, ","Interstate, ","General Freight, Motor Vehicles, Building Materials, OTHER, "
3361514,,CARRIER,ACTIVE,None,DMS TRANSPORTATION LLC,,DMS TRANSPORTATION LLC,"9915 CYPRESS CREEK PKWY APT 1507
HOUSTON, TX   77070-6066",(786) 675-2944,(786) 675-2944,DMSTRANSPORTATION17@GMAIL.COM,"9915 CYPRESS CREEK PKWY APT 1507
HOUSTON, TX   77070-6066",1,1,2019-11-22,,"Auth. For Hire, ","Intrastate Only (Non-HM), ","General Freight, "
3361542,,CARRIER,NOT AUTHORIZED,None,ASSURANCE TRUCKING SERVICES LLC,,ASSURANCE TRUCKING SERVICES LLC,"77 BLUE FOX RD
SPRING, TX   77380",(832) 871-7059,(832) 871-7059,MARCPEREZ770@GMAIL.COM,"8503 SILENT CRK
SAN ANTONIO, TX   78255-3532",1,8,2019-11-22,,"Auth. For Hire, ","Interstate, ","General Freight, "
3361572,,CARRIER,NOT AUTHORIZED,None,JONNY BLAZE LLC,,JONNY BLAZE LLC,"3412 MAPLE GROVE DR
FREDERICKSBRG, VA   22407",(540) 429-3689,(540) 429-3689,OFFICE@JONNYBLAZELLC.COM,"539 W COMMERCE ST # 269
DALLAS, TX   75208-1953",1,1,2019-11-22,,"Auth. For Hire, ","Interstate, ","General Freight, Metal: sheets, coils, rolls, Motor Vehicles, Logs, Poles, Beams, Lumber, Building Materials, Machinery, Large Objects, Paper Products, Utilities, Agricultural/Farm Supplies, Construction, "
3361573,,CARRIER,NOT AUTHORIZED,None,SUMALU TRUCKING,,SUMALU TRUCKING,"227 W GARDEN ST
UVALDE, TX   78801",(830) 488-5103,(830) 488-5103,PABLOSUGAKI@GMAIL.COM,"227 W GARDEN ST
UVALDE, TX   78801-5525",1,5,2019-11-22,,"Auth. For Hire, ","Interstate, ","General Freight, "
3361594,,CARRIER,NOT AUTHORIZED,None,GRISCOM TRUCKING LLC,,GRISCOM TRUCKING LLC,"99 CATAMARAN CT
GORDONVILLE, TX   76245",(281) 546-4151,(281) 546-4151,COLEGRISCOM@GMAIL.COM,"99 CATAMARAN CT
GORDONVILLE, TX   76245-3155",1,1,2019-11-22,,"Auth. For Hire, ","Interstate, ","General Freight, Livestock, "
3361615,,CARRIER,ACTIVE,None,NOVICK TRANSPORT LLC,,NOVICK TRANSPORT LLC,"7103 TOURANT RD
SAN ANTONIO, TX   78240-2400",(818) 296-7037,(818) 296-7037,VLADIMIRVUKICEVIC107@GMAIL.COM,"7103 TOURANT RD
SAN ANTONIO, TX   78240-2400",1,1,2019-11-23,,"Auth. For Hire, ","Intrastate Only (Non-HM), ","OTHER, "
3361669,,CARRIER,ACTIVE,None,TRANSPORTREX,,TRANSPORTREX,"1435 FRIO CIR
GARLAND, TX   75040-5403",(432) 530-8375,(432) 530-8375,TREVIZOTRUCKING@HOTMAIL.COM,"1435 FRIO CIR
GARLAND, TX   75040-5403",1,1,2019-11-23,,"Auth. For Hire, ","Intrastate Only (Non-HM), ","General Freight, OTHER, "
3361670,,CARRIER,ACTIVE,None,EDDIE ALEMAN TRUCKING LLC,,EDDIE ALEMAN TRUCKING LLC,"9727 ROYAL CREST WAY
HOUSTON, TX   77083-6390",(713) 598-2414,(713) 598-2414,ANGIE@ALLNATIONSINSURANCE.COM,"9727 ROYAL CREST WAY
HOUSTON, TX   77083-6390",1,1,2019-11-23,,"Auth. For Hire, ","Intrastate Only (Non-HM), ","Garbage/Refuse, "
3361724,,CARRIER,NOT AUTHORIZED,None,KCS EXPRESS TRUCKING LLC,,KCS EXPRESS TRUCKING LLC,"3296 S FM 1194
LUFKIN, TX   75904",(936) 637-9634,(936) 637-9634,JAMESCSMITH_62@YAHOO.COM,"3296 S FM 1194
LUFKIN, TX   75904-0320",1,1,2019-11-24,,"Auth. For Hire, ","Interstate, ","General Freight, "
3361737,,CARRIER,ACTIVE,None,DITA GLEZ TRUCKING LLC,,DITA GLEZ TRUCKING LLC,"305 E YAGER LN APT 322
AUSTIN, TX   78753-1668",(432) 251-9352,(432) 251-9352,NERI2008.ERI@GMAIL.COM,"305 E YAGER LN APT 322
AUSTIN, TX   78753-1668",1,1,2019-11-24,,"Auth. For Hire, ","Intrastate Only (Non-HM), ","General Freight, Metal: sheets, coils, rolls, Logs, Poles, Beams, Lumber, Building Materials, OTHER, "
3361777,,CARRIER,ACTIVE,None,CW3 COURIER SERVICE LLC,,CW3 COURIER SERVICE LLC,"105 CONURES DR
DESOTO, TX   75115-7232",(901) 649-0010,(901) 649-0010,CW3COURIERSERVICE@GMAIL.COM,"105 CONURES DR
DESOTO, TX   75115-7232",1,4,2019-11-24,,"Auth. For Hire, ","Intrastate Only (Non-HM), ","General Freight, "
3361791,,CARRIER,NOT AUTHORIZED,None,TEXAS LOGPAC LLC,,TEXAS LOGPAC LLC,"10782 ADIN ST
EL PASO, TX   79924",(520) 508-3845,(520) 508-3845,JEROMYGOODNIGHT@GMAIL.COM,"10782 ADIN ST
EL PASO, TX   79924-2453",1,1,2019-11-24,,"Auth. For Hire, ","Interstate, ","General Freight, Metal: sheets, coils, rolls, Motor Vehicles, Logs, Poles, Beams, Lumber, Building Materials, Machinery, Large Objects, Oilfield Equipment, Grain, Feed, Hay, Commodities Dry Bulk, Utilities, Agricultural/Farm Supplies, Construction, OTHER, "
3361827,,CARRIER,NOT AUTHORIZED,None,OSCAR VASQUEZ,VASQUEZ TRANSPORT,OSCAR VASQUEZ,"3429 SCARLET POINT DR
EL PASO, TX   79938",(915) 630-7148,(915) 630-7148,DORALVASQUEZ@HOTMAIL.COM,"3429 SCARLET POINT DR
EL PASO, TX   79938-2501",1,1,2019-11-24,,"Auth. For Hire, ","Interstate, ","General Freight, "
3361930,,CARRIER,ACTIVE,None,KING COURIERS LLC,,KING COURIERS LLC,"6333 E MOCKINGBIRD LN STE 147 PMB 2001
DALLAS, TX   75214-2672",(469) 431-4008,(469) 431-4008,RODRAWLINS@KINGCOURIERSLLC.COM,"6333 E MOCKINGBIRD LN STE 147 PMB 2001
DALLAS, TX   75214-2672",1,1,2019-11-25,,"Auth. For Hire, ","Intrastate Only (Non-HM), ","General Freight, "
3361950,,CARRIER,ACTIVE,None,CHRISTINA GAMMEL,C&G CARTAGE,CHRISTINA GAMMEL,"8066 KATHLEEN DR
FORT WORTH, TX   76137-6102",(817) 302-6558,(817) 302-6558,CHRISTINACOLLINS52@YAHOO.COM,"8066 KATHLEEN DR
FORT WORTH, TX   76137-6102",2,2,2019-11-25,,"Auth. For Hire, ","Intrastate Only (Non-HM), ","General Freight, "
3361985,,CARRIER,ACTIVE,None,DUSIED CRUZ BENITEZ,DUSIED CRUZ TRANSFER,DUSIED CRUZ BENITEZ,"20600 N NAVASOTA DR
NEW CANEY, TX   77357-4468",(832) 531-9773,(832) 531-9773,DUSIED.CRUZ@GMAIL.COM,"20600 N NAVASOTA DR
NEW CANEY, TX   77357-4468",1,1,2019-11-25,,"Auth. For Hire, ","Intrastate Only (Non-HM), ","OTHER, "
3362002,,CARRIER,NOT AUTHORIZED,None,G LOGISTICS LLC,,G LOGISTICS LLC,"5949 RIVERBEND PL
FORT WORTH, TX   76112",(555) 555-5555,(555) 555-5555,JOSH@AUTHORITYEXPRESSLLC.COM,"5949 RIVERBEND PL
FORT WORTH, TX   76112-1063",1,2,2019-11-25,,"Auth. For Hire, ","Interstate, ","General Freight, "
3362027,,CARRIER,NOT AUTHORIZED,None,JEG XPRESS LLC,,JEG XPRESS LLC,"5409 WALE ST
RIO GRANDE CY, TX   78582",(956) 789-7405,(956) 789-7405,JEG.XPRESS@YAHOO.COM,"5409 WALE ST
RIO GRANDE CY, TX   78582-9666",1,1,2019-11-25,,"Auth. For Hire, ","Interstate, ","General Freight, Fresh Produce, Meat, Refrigerated Food, Beverages, "
3362028,,CARRIER,NOT AUTHORIZED,None,DANSBY TRUCK LINE LLC,,DANSBY TRUCK LINE LLC,"390 LEARY RD
TEXARKANA, TX   75501",(903) 471-8899,(903) 471-8899,DANSBYTRUCKLINE@GMAIL.COM,"390 LEARY RD
TEXARKANA, TX   75501-2861",2,2,2019-11-25,,"Auth. For Hire, ","Interstate, ","General Freight, Logs, Poles, Beams, Lumber, "
3362045,,CARRIER,ACTIVE,None,SALTEX TRUCKING,,SALTEX TRUCKING,"8314 MASTIC DR
BAYTOWN, TX   77521-7522",(832) 414-8440,(832) 414-8440,SALTEXTRUCKING@GMAIL.COM,"8314 MASTIC DR
BAYTOWN, TX   77521-7522",0,2,2019-11-25,,"Auth. For Hire, ","Intrastate Only (Non-HM), ","General Freight, "
3362080,,CARRIER,ACTIVE,None,FERNANDO VAZQUEZ RAZO,,FRANCISCO VAZQUEZ RAZO,"4123 ROSALIN LN
HOUSTON, TX   77053",(832) 818-5936,(832) 818-5936,FERNANDORAZO91@ICLOUD.COM,"4123 ROSALIN LN
HOUSTON, TX   77053",1,1,2019-11-27,10 (2018),"Auth. For Hire, ","Intrastate Only (Non-HM), ","DIRT SAND GRAVEL, "
3362106,,CARRIER,NOT AUTHORIZED,None,NASAX EXPRESS INTERNATIONAL LLC,,NASAX EXPRESS INTERNATIONAL LLC,"719 CHIHUAHUA ST STE 102
LAREDO, TX   78040",(528) 253-4727,(528) 253-4727,ROMANS@NASAXEXPRESS.COM,"719 CHIHUAHUA ST STE 102
LAREDO, TX   78040-5271",1,1,2019-11-25,,"Auth. For Hire, ","Interstate, ","General Freight, Commodities Dry Bulk, "
3362124,,CARRIER,NOT AUTHORIZED,None,SLY LOGISTICS LLC,,SLY LOGISTICS LLC,"404 E BORDER ST APT 336
ARLINGTON, TX   76010",(405) 792-6946,(405) 792-6946,SLYLOGISTICSLLC@GMAIL.COM,"404 E BORDER ST APT 336
ARLINGTON, TX   76010-1775",1,1,2019-11-25,,"Auth. For Hire, ","Interstate, ","General Freight, "
3362148,,CARRIER,NOT AUTHORIZED,None,PAVIA TRANSPORTS LLC,,PAVIA TRANSPORTS LLC,"740 CREEKWOOD DR S
FAIRVIEW, TX   75069",(211) 699-8966,(211) 699-8966,PAVIAPRESTON@GMAIL.COM,"740 CREEKWOOD DR S
FAIRVIEW, TX   75069-8909",2,3,2019-11-25,,"Auth. For Hire, ","Interstate, ","General Freight, Motor Vehicles, "
3362164,,CARRIER,NOT AUTHORIZED,None,ENRIQUE AGUILAR,LANDIN LEGACY TRUCK LINES,ENRIQUE AGUILAR,"813 CRATHORNE ST
HORIZON CITY, TX   79928",(915) 777-0693,(915) 777-0693,DISPATCH.LEGACY@OUTLOOK.COM,"813 CRATHORNE ST
HORIZON CITY, TX   79928-8004",1,1,2019-11-25,,"Auth. For Hire, ","Interstate, ","General Freight, Fresh Produce, Livestock, Meat, "
3362165,,CARRIER,NOT AUTHORIZED,None,LTA LOGISTICS LLC,,LTA LOGISTICS LLC,"2612 LARKSPUR AVE APT 2
EDINBURG, TX   78541",(956) 369-2715,(956) 369-2715,LTALOGISTICSTX@GMAIL.COM,"PO BOX 2973
EDINBURG, TX   78540-2973",1,1,2019-11-25,,"Auth. For Hire, ","Interstate, ","General Freight, Fresh Produce, Meat, Refrigerated Food, Beverages, "
3362178,,CARRIER,ACTIVE,None,DIAMONDBACK DOT LLC,DIAMONDBACK TRUCKING,DIAMONDBACK DOT LLC,"1426 E ST
JOURDANTON, TX   78026-1624",(361) 207-6644,(361) 207-6644,GEYELVH1@YAHOO.COM,"1426 E ST
JOURDANTON, TX   78026-1624",3,6,2019-11-25,,"Auth. For Hire, ","Intrastate Only (Non-HM), ","General Freight, Oilfield Equipment, "
3362179,,CARRIER,ACTIVE,None,ZEMORRIS DEJONT INVESTMENTS LLC,,ZEMORRIS DEJONT INVESTMENTS LLC,"4025 LINBERGH DR
ADDISON, TX   75001",(302) 470-1024,(302) 470-1024,CWILLIAM798743@GMAIL.COM,"4025 LINBERGH DR
ADDISON, TX   75001",1,1,2019-11-25,,"Auth. For Hire, ","Interstate, ","General Freight, "
3362192,,CARRIER,ACTIVE,None,BETO EXPRESS LLC,,BETO EXPRESS LLC,"1245 ACACIA AVE
ALAMO, TX   78516",(956) 961-7629,(956) 961-7629,DAGOBERT.RODRIGUEZ@YAHOO.COM,"1245 ACACIA AVE
ALAMO, TX   78516",1,1,2019-11-25,,"Auth. For Hire, ","Intrastate Only (Non-HM), ","General Freight, Building Materials, Construction, "
3362233,,CARRIER,ACTIVE,None,HOLLAND TRUCKING LLC,,HOLLAND TRUCKING LLC,"2312 FORESTER CIR APT 3202
ARLINGTON, TX   76006-5528",(214) 632-1341,(214) 632-1341,ANTHONYHOLLAND2013@GMAIL.COM,"2312 FORESTER CIR APT 3202
ARLINGTON, TX   76006-5528",1,1,2019-11-25,1 (2018),"Auth. For Hire, ","Intrastate Only (Non-HM), ","General Freight, "
3362245,,CARRIER,ACTIVE,None,GENESIS TRUCKING LLC,,GENESIS TRUCKING LLC,"1500 FARO DR APT 125
AUSTIN, TX   78741-3257",(512) 669-2490,(512) 669-2490,COMPLIANCE@PERSONALTRUCKSERVICES.COM,"1500 FARO DR APT 125
AUSTIN, TX   78741-3257",1,1,2019-11-26,1 (2018),"Auth. For Hire, ","Intrastate Only (Non-HM), ","General Freight, DIRT, SAND AND G, "
3362281,,CARRIER,ACTIVE,None,RJ'S TRUCKING LLC,,RJ'S TRUCKING LLC,"2810 EL BARQUITO DR
PALMVIEW, TX   78572-8724",(956) 599-0716,(956) 599-0716,RJSTRUCKING91@GMAIL.COM,"2810 EL BARQUITO DR
PALMVIEW, TX   78572-8724",1,1,2019-11-25,,"Auth. For Hire, ","Intrastate Only (Non-HM), ","General Freight, Fresh Produce, Refrigerated Food, "
3362298,,CARRIER,NOT AUTHORIZED,None,DANIEL CASTILLO,CASTILLO TRANSPORT,DANIEL CASTILLO,"208 S COMMERCIAL ST
EDCOUCH, TX   78538",(956) 472-9535,(956) 472-9535,MARICASTILLO15@GMAIL.COM,"208 S COMMERCIAL ST
EDCOUCH, TX   78538",1,1,2019-11-26,,"Auth. For Hire, ","Interstate, ","General Freight, Fresh Produce, Commodities Dry Bulk, Refrigerated Food, Paper Products, "
3362304,,CARRIER,NOT AUTHORIZED,None,ODAA EXPRESS LLC,,ODAA EXPRESS LLC,"5840 GULFTON ST APT 1750
HOUSTON, TX   77081",(832) 715-1125,(832) 715-1125,ODAAEXPRESSLLC@GMAIL.COM,"5840 GULFTON ST APT 1750
HOUSTON, TX   77081-2506",1,1,2019-11-27,,"Auth. For Hire, ","Interstate, ","General Freight, Beverages, Paper Products, "
3362308,,CARRIER,ACTIVE,None,LANDY TRUCKING LLC,,LANDY TRUCKING LLC,"5244 W LOOP 250 N APT 611
MIDLAND, TX   79707-4145",(786) 970-4232,(786) 970-4232,LANDYTRUCKING2018@GMAIL.COM,"5244 W LOOP 250 N APT 611
MIDLAND, TX   79707-4145",4,4,2019-11-25,,"Auth. For Hire, ","Intrastate Only (Non-HM), ","General Freight, OTHER, "
3362312,,CARRIER,NOT AUTHORIZED,None,ALISH LOGISTICS CORPORATION,,ALISH LOGISTICS CORPORATION,"12507 DRAKE PRAIRIE LN
CYPRESS, TX   77429",(281) 416-6725,(281) 416-6725,ALISHLOGISTICS@YAHOO.COM,"12507 DRAKE PRAIRIE LN
CYPRESS, TX   77429-3893",1,4,2019-11-25,,"Auth. For Hire, ","Interstate, ","General Freight, Building Materials, Oilfield Equipment, Construction, "
3362315,,CARRIER,ACTIVE,None,JORGE ARIAS TREJO,WHITE DOGS LOGISTICS,JORGE ARIAS TREJO,"7936 JOHN RALSTON RD
HOUSTON, TX   77044-2639",(813) 420-9932,(813) 420-9932,JORGEARIAS880123@GMAIL.COM,"7936 JOHN RALSTON RD
HOUSTON, TX   77044-2639",1,1,2019-11-25,,"Auth. For Hire, ","Intrastate Only (Non-HM), ","General Freight, "
3362340,,CARRIER,NOT AUTHORIZED,None,7 GLOBE TRANSPORT LLC,,7 GLOBE TRANSPORT LLC,"419 HENNESSEE LN
WEBSTER, TX   77598",(404) 732-0777,(404) 732-0777,7GTRANS@GMAIL.COM,"419 HENNESSEE LN
WEBSTER, TX   77598-1805",1,4,2019-11-25,,"Auth. For Hire, ","Interstate, ","General Freight, Fresh Produce, Refrigerated Food, Paper Products, "
3362365,,CARRIER,ACTIVE,None,SARAH SELLS,T&S TRUCKING,SARAH SELLS,"440 N OAK ST
KOUNTZE, TX   77625-4504",(409) 273-9098,(409) 273-9098,MZSELLS29@GMAIL.COM,"440 N OAK ST
KOUNTZE, TX   77625-4504",1,1,2019-11-27,,"Auth. For Hire, ","Intrastate Only (Non-HM), ","General Freight, "
3362393,,CARRIER,ACTIVE,None,FOX TOWING LLC,,FOX TOWING LLC,"301 N WESLEY DR APT 326
LEAGUE CITY, TX   77573-3689",(979) 616-8174,(979) 616-8174,DR.MUD@HOTMAIL.COM,"301 N WESLEY DR APT 326
LEAGUE CITY, TX   77573-3689",1,0,2019-11-25,,"Auth. For Hire, ","Intrastate Only (Non-HM), ","General Freight, Motor Vehicles, "
3362430,,CARRIER,ACTIVE,None,EL CHALATECO TRUCKING LLC,,EL CHALATECO TRUCKING LLC,"410 MANTOVA DR
HOUSTON, TX   77073-2824",(281) 730-2033,(281) 730-2033,GFMULTISERVICES@HOTMAIL.COM,"410 MANTOVA DR
HOUSTON, TX   77073-2824",1,1,2019-11-26,,"Auth. For Hire, ","Intrastate Only (Non-HM), ","Building Materials, "
3362456,,CARRIER,ACTIVE,None,EDDY DEL MONTE GONZALEZ,DEL MONTE TRUCKING,EDDY DEL MONTE GONZALEZ,"700 UNDERWOOD ST
KERMIT, TX   79745-4521",(432) 227-3843,(432) 227-3843,EDDYDM019@GMAIL.COM,"700 UNDERWOOD ST
KERMIT, TX   79745-4521",1,1,2019-11-26,,"Auth. For Hire, ","Intrastate Only (Non-HM), ","General Freight, "
3362473,,CARRIER,NOT AUTHORIZED,None,ISA 22 22 LLC,CAW LOGISTICS,ISA 22 22 LLC,"4321 KINGWOOD DR UNIT 164
KINGWOOD, TX   77339",(832) 541-5626,(832) 541-5626,CAWLOGISTICS@YAHOO.COM,"4321 KINGWOOD DR UNIT 164
KINGWOOD, TX   77339-3700",1,1,2019-11-26,1 (2018),"Auth. For Hire, ","Interstate, ","General Freight, Drive/Tow away, "
3362516,,CARRIER,ACTIVE,None,LEONEL HERNANDEZ GRANDELA,HERNANDEZ TRUCKING,LEONEL HERNANDEZ GRANDELA,"7936 JOHN RALSTON RD
HOUSTON, TX   77044-2639",(407) 952-5617,(407) 952-5617,MAXPAYNECU@GMAIL.COM,"7936 JOHN RALSTON RD
HOUSTON, TX   77044-2639",1,1,2019-11-26,,"Auth. For Hire, ","Intrastate Only (Non-HM), ","General Freight, "
3362528,,CARRIER,NOT AUTHORIZED,None,STAR ENTERPRISES LLC,,STAR ENTERPRISES LLC,"5751 GREENHOUSE RD APT 1011
KATY, TX   77449",(713) 257-1134,(713) 257-1134,STARENTERPRISESLLC1@GMAIL.COM,"5751 GREENHOUSE RD APT 1011
KATY, TX   77449-3472",1,1,2019-11-26,,"Auth. For Hire, ","Interstate, ","General Freight, Building Materials, OTHER, "
3362580,,CARRIER,ACTIVE,None,WESSON EXPRESS,TRANSPORTATION,WESSON EXPRESS,"1324 DAVENTRY DR
DESOTO, TX   75115-7756",(817) 673-1210,(817) 673-1210,BKWESSON@GMAIL.COM,"1324 DAVENTRY DR
DESOTO, TX   75115-7756",0,2,2019-11-26,,"Auth. For Hire, ","Intrastate Only (Non-HM), ","General Freight, "
3362612,,CARRIER,ACTIVE,None,PLUMMER TRANSPORT LLC,,PLUMMER TRANSPORT LLC,"3204 SILVER CREEK DR N/A
MESQUITE, TX   75181-2967",(214) 554-6999,(214) 554-6999,BRANDONPLUMMER30@GMAIL.COM,"3204 SILVER CREEK DR N/A
MESQUITE, TX   75181-2967",1,1,2019-11-26,,"Auth. For Hire, ","Intrastate Only (Non-HM), ","General Freight, "
3362625,,CARRIER,NOT AUTHORIZED,None,PASO DEL NORTE MATERIALS LLC,,PASO DEL NORTE MATERIALS LLC,"8000 ESCOBAR DR
EL PASO, TX   79907",(915) 319-0001,(915) 319-0001,SHERRERA@JARCONCRETE.COM,"8000 ESCOBAR DR
EL PASO, TX   79907-1854",30,30,2019-11-26,1 (2018),"Auth. For Hire, ","Interstate, ","Construction, ROCK, SAND, DIRT, "
3362641,,CARRIER,NOT AUTHORIZED,None,JRB TRUCK RUNNERS LLC,,JRB TRUCK RUNNERS LLC,"6015 WICHITA ST
FOREST HILL, TX   76119",(307) 247-9373,(307) 247-9373,JOHNNIEBISHOP72@GMAIL.COM,"6015 WICHITA ST
FOREST HILL, TX   76119-6640",1,4,2019-11-26,,"Auth. For Hire, ","Interstate, ","General Freight, "
3362651,,CARRIER,ACTIVE,None,PETRO SAND LLC,,PETRO SAND LLC,"711 LODGEHILL LN
HOUSTON, TX   77090-1923",(713) 876-1812,(713) 876-1812,SGONZALEZ@PHOENIXIFS.COM,"711 LODGEHILL LN
HOUSTON, TX   77090-1923",1,1,2019-11-26,,"Auth. For Hire, ","Intrastate Only (Non-HM), ","General Freight, "
3362674,,CARRIER,NOT AUTHORIZED,None,NEREIS LOGISTICS LLC,,NEREIS LOGISTICS LLC,"1500 S JUPITER RD APT 1708
ALLEN, TX   75002",(469) 554-5747,(469) 554-5747,NILKAREY1972@GMAIL.COM,"1500 S JUPITER RD APT 1708
ALLEN, TX   75002-4146",1,1,2019-11-26,,"Auth. For Hire, ","Interstate, ","General Freight, "
3362676,,CARRIER,ACTIVE,None,WILEY JACKSON TRUCKING LLC,,WILEY JACKSON TRUCKING LLC,"6003 SANDWICK DR
SAN ANTONIO, TX   78238-5144",(210) 773-2145,(210) 773-2145,CAROLJACKSON1964@GMAIL.COM,"6003 SANDWICK DR
SAN ANTONIO, TX   78238-5144",1,1,2019-11-26,0 (2018),"Auth. For Hire, ","Intrastate Only (Non-HM), ","General Freight, "
3362701,,CARRIER,ACTIVE,None,PEDRO ZACARIAS,,PEDRO ZACARIAS,"102 HURST CIR
FERRIS, TX   75125-9791",(214) 304-9163,(214) 304-9163,PEDROKILO133@GMAIL.COM,"102 HURST CIR
FERRIS, TX   75125-9791",1,2,2019-11-26,,"Auth. For Hire, ","Intrastate Only (Non-HM), ","General Freight, Building Materials, "
3362713,,CARRIER,NOT AUTHORIZED,None,TEXAS RED LOGISTICS LLC,,TEXAS RED LOGISTICS LLC,"11929 UNIVERSITY BLVD STE 2D
SUGAR LAND, TX   77479",(405) 792-6946,(405) 792-6946,MREDIX@GMAIL.COM,"11929 UNIVERSITY BLVD STE 2D
SUGAR LAND, TX   77479-4757",1,1,2019-11-26,,"Auth. For Hire, ","Interstate, ","General Freight, "
3362728,,CARRIER,ACTIVE,None,T&M TRUCKING,,T&M TRUCKING,"9503 WILLOWLAKE PARK DR
HOUSTON, TX   77064-3822",(832) 614-2623,(832) 614-2623,MRSTANGELAWALDRUP@GMAIL.COM,"9503 WILLOWLAKE PARK DR
HOUSTON, TX   77064-3822",1,1,2019-11-26,,"Auth. For Hire, ","Intrastate Only (Non-HM), ","General Freight, "
3362730,,CARRIER,NOT AUTHORIZED,None,ROCK SECURITIES & TRANSPORT PLLC,,ROCK SECURITIES & TRANSPORT PLLC,"9900 SPECTRUM DR
AUSTIN, TX   78717",(312) 523-4698,(312) 523-4698,ROCKSECURITIES@GMAIL.COM,"9900 SPECTRUM DR
AUSTIN, TX   78717-4555",1,1,2019-11-26,,"Auth. For Hire, ","Interstate, ","General Freight, Motor Vehicles, Logs, Poles, Beams, Lumber, Paper Products, "
3362813,,CARRIER,ACTIVE,None,MARTINEZ S SYRIA,BAYOU CITY HOTSHOT SERVICES,MARTINEZ S SYRIA,"18327 HIGH SUMMIT LN
CYPRESS, TX   77433-4160",(832) 226-4909,(832) 226-4909,MARTI_SYRIA@YAHOO.COM,"18327 HIGH SUMMIT LN
CYPRESS, TX   77433-4160",1,1,2019-11-26,,"Auth. For Hire, ","Intrastate Only (Non-HM), ","General Freight, Oilfield Equipment, "
3362830,,CARRIER,NOT AUTHORIZED,None,GAZELLE LOGISTICS LLC,,GAZELLE LOGISTICS LLC,"22403 ROBERTS CEMETERY RD
HOCKLEY, TX   77447",(507) 358-9991,(507) 358-9991,TXMXHOTLVR@GMAIL.COM,"22403 ROBERTS CEMETERY RD
HOCKLEY, TX   77447-9567",1,3,2019-11-26,,"Auth. For Hire, ","Interstate, ","General Freight, "
3362831,,CARRIER,NOT AUTHORIZED,None,SS TRANSPORTATION LIMITED LIABILITY COMPANY,,SS TRANSPORTATION LIMITED LIABILITY COMPANY,"125 N CENTER ST
ROMA, TX   78584",(956) 298-1753,(956) 298-1753,MARIO.SALINAS39@GMAIL.COM,"PO BOX 43
SULLIVAN CITY, TX   78595-0043",1,1,2019-11-26,,"Auth. For Hire, ","Interstate, ","General Freight, Fresh Produce, Meat, Refrigerated Food, Beverages, "
3362874,,CARRIER,NOT AUTHORIZED,None,HOTSHOT HAMSTERS LLC,,HOTSHOT HAMSTERS LLC,"7914 SAGEMARK RIDGE DR
CYPRESS, TX   77433",(832) 988-2600,(832) 988-2600,HOTSHOTHAMSTERS@GMAIL.COM,"PO BOX 571589
HOUSTON, TX   77257-1589",1,1,2019-11-26,,"Auth. For Hire, ","Interstate, ","General Freight, "
3362964,,CARRIER,ACTIVE,None,M&D DISPATCHING LLC,,M&D DISPATCHING LLC,"1312 QUAIL DR
SAN JUAN, TX   78589-3234",(956) 261-9735,(956) 261-9735,MDDISPATCHING@GMAIL.COM,"1312 QUAIL DR
SAN JUAN, TX   78589-3234",1,1,2019-11-27,,"Auth. For Hire, ","Intrastate Only (Non-HM), ","General Freight, "
3362974,,CARRIER,ACTIVE,None,TRAILBOSS VENTURES LLC,,TRAILBOSS VENTURES LLC,"1402 VZ COUNTY ROAD 2721
MABANK, TX   75147-6147",(302) 470-1024,(302) 470-1024,CWILLIAMS798743@GMAIL.COM,"1402 VZ COUNTY ROAD 2721
MABANK, TX   75147-6147",1,1,2019-11-27,,"Auth. For Hire, ","Intrastate Only (Non-HM), ","Livestock, "
3363005,,CARRIER,NOT AUTHORIZED,None,EPG TARUCKING INC,,EPG TARUCKING INC,"4435 PIEMONT DR
HOUSTON, TX   77072",(201) 923-0049,(201) 923-0049,EPGEPG31@GMAIL.COM,"7500 COOK RD APT 152
HOUSTON, TX   77072",1,1,2019-11-27,,"Auth. For Hire, ","Interstate, ","PROCESSED WOOD,, "
3363032,,CARRIER,NOT AUTHORIZED,None,JR TRUCKING,,JR TRUCKING,"2214 DARTMOUTH DR
ARLINGTON, TX   76015",(817) 273-6273,(817) 273-6273,JANIEGUZMA82@GAMIL.COM,"2214 DARTMOUTH DR
ARLINGTON, TX   76015-3219",1,6,2019-11-27,,"Auth. For Hire, ","Interstate, ","General Freight, "
3363038,,CARRIER,NOT AUTHORIZED,None,COMFORT TRANSPORTATION LLC,COMFORT TRANSPORTATION OF SA,COMFORT TRANSPORTATION LLC,"10642 CAVELIER PT
SAN ANTONIO, TX   78254",(210) 291-4049,(210) 291-4049,COMFORTTRANSPORTATIONSA@GMAIL.COM,"10642 CAVELIER PT
SAN ANTONIO, TX   78254-5593",1,1,2019-11-27,1 (2019),"Auth. For Hire, ","Interstate, ","General Freight, "
3363077,,CARRIER,ACTIVE,None,NELSON VALENCIA GUIRAN,TRANSLOADS TRUCKING,NELSON VALENCIA GUIRAN,"1706 WALD RD
NEW BRAUNFELS, TX   78132-5032",(210) 730-8483,(210) 730-8483,TRANSLOADSTRUCKING19@GMAIL.COM,"4003 N LOOP 1604 W APT 4106
SAN ANTONIO, TX   78257-1782",1,1,2019-11-27,,"Auth. For Hire, ","Intrastate Only (Non-HM), ","General Freight, OTHER, "
3363099,,CARRIER,NOT AUTHORIZED,None,RNV TRUCKING CO,,RNV TRUCKING CO,"13333 REDFISH LN STE 105
STAFFORD, TX   77477",(281) 935-8697,(281) 935-8697,RNVTRUCKING2019@GMAIL.COM,"13333 REDFISH LN STE 105
STAFFORD, TX   77477-4426",0,1,2019-11-27,,"Auth. For Hire, ","Interstate, ","General Freight, Building Materials, OTHER, "
3363110,,CARRIER,ACTIVE,None,KYZRAHABI COMPANY,,KYZRAHABI COMPANY,"2727 SYNOTT RD APT 706
HOUSTON, TX   77082-3545",(404) 955-1286,(404) 955-1286,EVANS1900@GMAIL.COM,"2727 SYNOTT RD APT 706
HOUSTON, TX   77082-3545",1,1,2019-11-27,,"Auth. For Hire, ","Intrastate Only (Non-HM), ","General Freight, "
3363120,,CARRIER,NOT AUTHORIZED,None,SMARTWRKS SOLUTIONS LLC,,SMARTWRKS SOLUTIONS LLC,"4607 LONG CLIMB CYN
HUMBLE, TX   77396",(800) 841-4668,(800) 841-4668,SMARTWRKSSOLUTION@GMAIL.COM,"4607 LONG CLIMB CYN
HUMBLE, TX   77396-4165",2,2,2019-11-27,,"Auth. For Hire, ","Interstate, ","General Freight, "
3363146,,CARRIER,NOT AUTHORIZED,None,STOKES FREIGHT SERVICES LLC,,STOKES FREIGHT SERVICES LLC,"14215 BATHURST DR
HOUSTON, TX   77045",(281) 944-7450,(281) 944-7450,INFO@STOKESFREIGHTLLC.COM,"7205 ALMEDA RD # 300414
HOUSTON, TX   77230-1179",2,4,2019-11-27,,"Auth. For Hire, ","Interstate, ","General Freight, "
3363154,,CARRIER,ACTIVE,None,KHAMISI LLC,,KHAMISI LLC,"2234 DEL MAR DR
LA MARQUE, TX   77568-2599",(346) 818-0080,(346) 818-0080,GENEJORDAN86@YAHOO.COM,"2234 DEL MAR DR
LA MARQUE, TX   77568-2599",1,1,2019-11-27,0 (2018),"Auth. For Hire, ","Intrastate Only (Non-HM), ","General Freight, "
3363188,,CARRIER,ACTIVE,None,PULL AND DUMP INC,,PULL AND DUMP INC,"5826 PATRIDGE DR
PEARLAND, TX   77584-8328",(832) 652-9207,(832) 652-9207,PULLANDDUMP@YAHOO.COM,"5826 PATRIDGE DR
PEARLAND, TX   77584-8328",1,1,2019-11-27,,"Auth. For Hire, ","Intrastate Only (Non-HM), ","General Freight, OTHER, "
3363207,,CARRIER,NOT AUTHORIZED,None,D HINES TRUCKING LLC,,D HINES TRUCKING LLC,"419 AUSTIN ST
ATLANTA, TX   75551",(903) 930-0586,(903) 930-0586,DHINESTRUCKING@GMAIL.COM,"PO BOX 135
LODI, TX   75564-0135",0,4,2019-11-27,,"Auth. For Hire, ","Interstate, ","General Freight, Logs, Poles, Beams, Lumber, Building Materials, Machinery, Large Objects, Paper Products, Construction, "
3363209,,CARRIER,ACTIVE,None,REYNALDO GARCIA JR,ARM TRUCKING,REYNALDO GARCIA JR,"27 CODORNIZ LN
RIO GRANDE CY, TX   78582-6115",(956) 317-6173,(956) 317-6173,REYGARCIA0606@GMAIL.COM,"PO BOX 623
SULLIVAN CITY, TX   78595-0623",1,1,2019-11-27,,"Auth. For Hire, ","Intrastate Only (Non-HM), ","General Freight, Building Materials, OTHER, "
3363251,,CARRIER,NOT AUTHORIZED,None,RICHARD E TOMPKINS,,RICHARD E TOMPKINS,"6501 E COUNTY ROAD 110
MIDLAND, TX   79706",(432) 559-0718,(432) 559-0718,TOMP0520@MAIL.COM,"6501 E COUNTY ROAD 110
MIDLAND, TX   79706-5407",1,1,2019-11-27,,"Auth. For Hire, ","Interstate, ","Metal: sheets, coils, rolls, Building Materials, Machinery, Large Objects, Construction, OTHER, "
3363259,,CARRIER,ACTIVE,None,T&F UNITED LLC,,T&F UNITED LLC,"4910 ADA ST
BEAUMONT, TX   77708-4409",(409) 363-3965,(409) 363-3965,TANK0909@YAHOO.COM,"4910 ADA ST
BEAUMONT, TX   77708-4409",1,1,2019-11-27,,"Auth. For Hire, ","Intrastate Only (Non-HM), ","General Freight, "
3363276,,CARRIER,NOT AUTHORIZED,None,FM2020 CARRIERS LLC,,FM2020 CARRIERS LLC,"7901 SAINT FILLANS LN
ROWLETT, TX   75089",(469) 970-0735,(469) 970-0735,FM2020CARRIER@GMAIL.COM,"PO BOX 740696
DALLAS, TX   75374-0696",1,1,2019-11-27,,"Auth. For Hire, ","Interstate, ","General Freight, "
3363287,,CARRIER,ACTIVE,None,EVEREST TRANSPORTATION LLC,,EVEREST TRANSPORTATION LLC,"13333 WEST RD APT 1322
HOUSTON, TX   77041-6151",(214) 566-5000,(214) 566-5000,EVERESTTRASNSPRTATION2@GMAIL.COM,"13333 WEST RD APT 1322
HOUSTON, TX   77041-6151",1,1,2019-11-27,,"Auth. For Hire, ","Intrastate Only (Non-HM), ","General Freight, "
3363329,,CARRIER,ACTIVE,None,OBBAIRE CONCRET LLC,,OBBAIRE CONCRET LLC,"20915 FOX TROT CT
HUMBLE, TX   77338-1356",(832) 995-9763,(832) 995-9764,IYOSLEIVIS@YAHOO.COM,"20915 FOX TROT CT
HUMBLE, TX   77338-1356",1,1,2019-11-30,,"Auth. For Hire, ","Intrastate Only (Non-HM), ","General Freight, Construction, OTHER, "
3363370,,CARRIER,NOT AUTHORIZED,None,NYATI EXPRESS LLC,,,"7780 MCCALLUM BLVD APT 23308
DALLAS, TX   75252",(941) 584-9868,,,"7780 MCCALLUM BLVD APT 23308
DALLAS, TX   75252-8136",1,1,2019-11-29,,"Auth. For Hire, ","Interstate, ","General Freight, Paper Products, "
3363406,,CARRIER,NOT AUTHORIZED,None,PER & GON TRUCKING LLC,,,"12425 TIERRA LIMON DR
EL PASO, TX   79938",(432) 310-5271,,,"12425 TIERRA LIMON DR
EL PASO, TX   79938-4516",1,1,2019-11-29,,"Auth. For Hire, ","Interstate, ","General Freight, OTHER, "
3363419,,CARRIER,ACTIVE,None,UNITED TRUCKING,,,"1008 LYLE RD
ALLEYTON, TX   78935",(979) 942-0949,,,"1008 LYLE RD
ALLEYTON, TX   78935",1,1,2019-11-29,,"Auth. For Hire, ","Intrastate Only (Non-HM), ","General Freight, "
3363443,,CARRIER,NOT AUTHORIZED,None,SHADOW VALLEY LOGISTICS,,,"5225 VERDE VALLEY LN APT 145
DALLAS, TX   75254",(682) 300-5849,,,"5225 VERDE VALLEY LN APT 145
DALLAS, TX   75254-7941",1,2,2019-11-30,,"Auth. For Hire, ","Interstate, ","General Freight, "
3363450,,CARRIER,NOT AUTHORIZED,None,K & M ACTION TRANSPORT LLC,,,"4920 FARM HOUSE
SAN ANTONIO, TX   78253",(210) 260-9070,,,"4920 FARM HOUSE
SAN ANTONIO, TX   78253-6494",2,2,2019-11-29,,"Auth. For Hire, ","Interstate, ","Building Materials, Machinery, Large Objects, Construction, "
3363497,,CARRIER,NOT AUTHORIZED,None,CAMALEON CARRIER LLC,,,"2103 S VILLA REAL DR
PHARR, TX   78577",(956) 402-1296,,,"2103 S VILLA REAL DR
PHARR, TX   78577-9897",2,1,2019-11-29,,"Auth. For Hire, ","Interstate, ","Motor Vehicles, "
3363527,,CARRIER,ACTIVE,None,PAUL WAYNE GUNTER,TRIPLE G TRUCKING,,"295 PRIVATE ROAD 5040
SAN AUGUSTINE, TX   75972-4002",(409) 622-2884,,,"PO BOX 4
SAN AUGUSTINE, TX   75972-0004",2,1,2019-11-29,,"Auth. For Hire, ","Intrastate Only (Non-HM), ","Logs, Poles, Beams, Lumber, "
3363529,,CARRIER,NOT AUTHORIZED,None,FROSTED FREIGHT FORWARDERS,,,"5109 ANDERSON ST
FORT WORTH, TX   76105",(817) 344-0266,,,"5109 ANDERSON ST
FORT WORTH, TX   76105-4423",1,1,2019-11-29,,"Auth. For Hire, ","Interstate, ","General Freight, "
3363554,,CARRIER,NOT AUTHORIZED,None,JOSHUA N IHEANACHOR,,,"400 FRYERS CREEK DR APT L5
TEMPLE, TX   76504",(704) 363-7255,,,"400 FRYERS CREEK DR APT L5
TEMPLE, TX   76504-7529",3,4,2019-11-29,,"Auth. For Hire, ","Interstate, ","General Freight, "
3363566,,CARRIER,NOT AUTHORIZED,None,PLATEAU CARGO & LOGISTICS LLC,,,"9536 PEAT CT
FORT WORTH, TX   76244",(515) 770-7093,,,"9536 PEAT CT
FORT WORTH, TX   76244-5973",3,3,2019-11-29,,"Auth. For Hire, ","Interstate, ","General Freight, "
3363570,,CARRIER,NOT AUTHORIZED,None,MAPO LOGISTICS LLC,NONE,,"1311 BOLD FORBES DR
GRAND PRAIRIE, TX   75052",(214) 629-8697,,,"1311 BOLD FORBES DR
GRAND PRAIRIE, TX   75052-6839",2,12,2019-11-30,,"Auth. For Hire, ","Interstate, ","General Freight, US Mail, Refrigerated Food, Beverages, Paper Products, "
3363584,,CARRIER,NOT AUTHORIZED,None,SHAN TRUCKING LLC,,,"11911 GREENVILLE AVE APT 2106
DALLAS, TX   75243",(316) 821-0400,,,"11911 GREENVILLE AVE APT 2106
DALLAS, TX   75243-3664",1,1,2019-11-30,,"Auth. For Hire, ","Interstate, ","General Freight, "
3363601,,CARRIER,NOT AUTHORIZED,None,INTERSTATE TRUCKING SOLUTIONS LLC,,,"12416 J RENDON RD
BURLESON, TX   76028",(817) 727-7899,,,"12416 J RENDON RD
BURLESON, TX   76028-3146",1,1,2019-11-30,,"Auth. For Hire, ","Interstate, ","General Freight, "
3363623,,CARRIER,ACTIVE,None,BOSTICK TRUCKING,,,"11530 FM 751
WILLS POINT, TX   75169-4219",(469) 974-7377,,,"11530 FM 751
WILLS POINT, TX   75169-4219",1,1,2019-11-30,,"Auth. For Hire, ","Intrastate Only (Non-HM), ","OTHER, "
3363644,,CARRIER,ACTIVE,None,GATELEY TRANSPORTATION LLC,,,"6143 BLAZING TRL
SAN ANTONIO, TX   78249-2114",(210) 501-2966,,,"PO BOX 690652
SAN ANTONIO, TX   78269-0652",1,1,2019-11-30,,"Auth. For Hire, ","Intrastate Only (Non-HM), ","General Freight, Metal: sheets, coils, rolls, Logs, Poles, Beams, Lumber, Building Materials, Machinery, Large Objects, Oilfield Equipment, Commodities Dry Bulk, Construction, OTHER, "
3363657,,CARRIER,NOT AUTHORIZED,None,S&J BOLT INC,,,"3812 FOX HOLLOW DR
BEDFORD, TX   76021",(817) 966-4022,,,"3812 FOX HOLLOW DR
BEDFORD, TX   76021-2111",1,1,2019-11-30,,"Auth. For Hire, ","Interstate, ","General Freight, "
3363726,,CARRIER,NOT AUTHORIZED,None,ASKOL INTERNATIONAL LLC,,,"10607 PILKINGTON DR
RICHMOND, TX   77407",(832) 847-3769,,,"10607 PILKINGTON DR
RICHMOND, TX   77407",1,1,2019-12-07,300 (2018),"Auth. For Hire, ","Interstate, ","General Freight, "
3363812,,CARRIER,ACTIVE,None,JOSE LUIS REYNA,REYNA TRUCKING,,"922 LAKE BLUFF DR
LAKE DALLAS, TX   75065-2898",(214) 883-7766,,,"922 LAKE BLUFF DR
LAKE DALLAS, TX   75065-2898",1,1,2019-12-02,,"Auth. For Hire, ","Intrastate Only (Non-HM), ","General Freight, OTHER, "
3363839,,CARRIER,NOT AUTHORIZED,None,WE-HAUL LLC,,,"217 COMET DR JARRELL TEXAS 76537
JARRELL, TX   76537",(773) 297-6878,,,"217 COMET DR JARRELL TEXAS 76537
JARRELL, TX   76537-5007",1,1,2019-12-02,,"Auth. For Hire, ","Interstate, ","General Freight, "
3363853,,CARRIER,NOT AUTHORIZED,None,JOSE MALDONADO,WHITE LIGHTNING CARRIERS,,"165 LOLITA ST
SAN BENITO, TX   78586",(955) 893-3035,,,"165 LOLITA ST
SAN BENITO, TX   78586-3518",1,1,2019-12-02,,"Auth. For Hire, ","Interstate, ","General Freight, "
3363870,,CARRIER,ACTIVE,None,BIG C TRANSPORT,,,"1933 DAY BREAK DR
LANCASTER, TX   75146-4949",(214) 723-8046,,,"1933 DAY BREAK DR
LANCASTER, TX   75146-4949",1,1,2019-12-02,,"Auth. For Hire, ","Intrastate Only (Non-HM), ","General Freight, "
3363889,,CARRIER,NOT AUTHORIZED,None,CANNONBALL TRUCKING LLC,,,"2008 COUNTY ROAD 1435
BOGATA, TX   75417",(903) 249-2805,,,"PO BOX 337
BOGATA, TX   75417-0337",2,2,2019-12-05,1 (2018),"Auth. For Hire, ","Interstate, ","General Freight, Agricultural/Farm Supplies, "
3363890,,CARRIER,NOT AUTHORIZED,None,SUMO LIMITED LIABILITY COMPANY,,,"10811 W COUNTY ROAD 72
MIDLAND, TX   79707",(405) 792-6946,,,"10811 W COUNTY ROAD 72
MIDLAND, TX   79707-4402",1,1,2019-12-02,,"Auth. For Hire, ","Interstate, ","General Freight, "
3363932,,CARRIER,NOT AUTHORIZED,None,GEMSTONE LOGISTICS LLC,,,"9414 NASHVILLE
SAN ANTONIO, TX   78245",(405) 792-6946,,,"9414 NASHVILLE
SAN ANTONIO, TX   78245-2022",1,1,2019-12-02,,"Auth. For Hire, ","Interstate, ","General Freight, "
3363961,,CARRIER,NOT AUTHORIZED,None,PIEDRA GROUP INVESTMENTS LLC,,,"233 COUNTRY PL S
ABILENE, TX   79606-7027",(325) 669-3453,,,"PO BOX 5387
ABILENE, TX   79608-5387",3,5,2019-12-02,,"Auth. For Hire, ","Intrastate Only (Non-HM), ","General Freight, Machinery, Large Objects, Oilfield Equipment, Water Well, "
3363972,,CARRIER,NOT AUTHORIZED,None,FRANCIA CRYSTAL KELL,F & E MOBILE SERVICE,,"331 E MAY ST
ODESSA, TX   79761",(432) 258-2956,,,"331 E MAY ST
ODESSA, TX   79761-6439",1,2,2019-12-02,,"Auth. For Hire, ","Interstate, ","Machinery, Large Objects, "
3364082,,CARRIER,NOT AUTHORIZED,None,J & G HAULING LLC,,,"193 SIMMONS DR
COPPELL, TX   75019",(214) 991-1012,,,"193 SIMMONS DR
COPPELL, TX   75019-3304",1,4,2019-12-02,,"Auth. For Hire, ","Interstate, ","General Freight, Motor Vehicles, Logs, Poles, Beams, Lumber, Building Materials, Machinery, Large Objects, Oilfield Equipment, Utilities, Construction, "
3364089,,CARRIER,NOT AUTHORIZED,None,JABARI HUMPHREY,HUMPHREY HOTSHOT SERVICE,,"13613 COUNTRY GLN
TYLER, TX   75706",(405) 792-6946,,,"13613 COUNTRY GLN
TYLER, TX   75706-4858",1,1,2019-12-02,,"Auth. For Hire, ","Interstate, ","General Freight, "
3364101,,CARRIER,NOT AUTHORIZED,None,BLUE DUCK TRANSPORT LLC,,,"159 COUNTY ROAD 117
CLYDE, TX   79510",(720) 473-0748,,,"159 COUNTY ROAD 117
CLYDE, TX   79510-5125",1,4,2019-12-02,,"Auth. For Hire, ","Interstate, ","General Freight, Metal: sheets, coils, rolls, Motor Vehicles, Logs, Poles, Beams, Lumber, Building Materials, Machinery, Large Objects, Oilfield Equipment, Grain, Feed, Hay, Agricultural/Farm Supplies, Construction, Water Well, "
3364248,,CARRIER,ACTIVE,None,108 REVOLUTION TRANSPORTATION,,,"1530 P B LN # K4467
WICHITA FALLS, TX   76302-2612",(360) 441-0337,,,"1530 P B LN # K4467
WICHITA FALLS, TX   76302-2612",1,2,2019-12-02,,"Auth. For Hire, ","Intrastate Only (Non-HM), ","Oilfield Equipment, "
3364250,,CARRIER,ACTIVE,None,FIREBIRD LOGISTICS INC,,,"3605 N CHAMPAGNE DR
PHARR, TX   78577-7780",(956) 878-3656,,,"3605 N CHAMPAGNE DR
PHARR, TX   78577-7780",1,1,2019-12-02,,"Auth. For Hire, ","Intrastate Only (Non-HM), ","General Freight, "
3364326,,CARRIER,ACTIVE,None,C & C TRUCKING,,,"237 PRIVATE ROAD 5040
SAN AUGUSTINE, TX   75972-4002",(936) 288-9021,,,"237 PRIVATE ROAD 5040
SAN AUGUSTINE, TX   75972-4002",1,1,2019-12-02,,"Auth. For Hire, ","Intrastate Only (Non-HM), ","General Freight, Logs, Poles, Beams, Lumber, Machinery, Large Objects, "
3364352,,CARRIER,NOT AUTHORIZED,None,ALL DUNN DELIVERY & STORAGE LLC,,,"5185 GOLD BASIN RD
FORT WORTH, TX   76179",(800) 403-9304,,,"5185 GOLD BASIN RD
FORT WORTH, TX   76179-2397",2,8,2019-12-03,,"Auth. For Hire, ","Interstate, ","General Freight, "
3364378,,CARRIER,ACTIVE,None,DAVIDSON TRAILERS LLC,,,"515 COUNTY ROAD 4311
NAPLES, TX   75568-6324",(903) 897-0018,,,"515 COUNTY ROAD 4311
NAPLES, TX   75568-6324",1,2,2019-12-03,,"Auth. For Hire, ","Intrastate Only (Non-HM), ","OTHER, "
3364396,,CARRIER,NOT AUTHORIZED,None,ROCKIN J EXPRESS LLC,,,"260 SHORELINE DR
AZLE, TX   76020",(817) 925-3101,,,"260 SHORELINE DR
AZLE, TX   76020-4036",4,4,2019-12-03,,"Auth. For Hire, ","Interstate, ","General Freight, "
3364420,,CARRIER,ACTIVE,None,YOELVIS TRUCKING LLC,,,"12550 VERSAILLES DR
HOUSTON, TX   77015-3354",(346) 350-7401,,,"12550 VERSAILLES DR
HOUSTON, TX   77015-3354",1,1,2019-12-03,,"Auth. For Hire, ","Intrastate Only (Non-HM), ","Motor Vehicles, "
3364425,,CARRIER,NOT AUTHORIZED,None,NONE STOP TRANSPORT LLC,,,"12732 FOXPAW TRL
FORT WORTH, TX   76244",(941) 584-9868,,,"12732 FOXPAW TRL
FORT WORTH, TX   76244-4392",1,1,2019-12-05,1 (2019),"Auth. For Hire, ","Interstate, ","General Freight, Motor Vehicles, Building Materials, Machinery, Large Objects, Oilfield Equipment, "
3364429,,CARRIER,NOT AUTHORIZED,None,EVERY KNEE WILL BOW JESUS LLC,,,"16865 FM 429
TERRELL, TX   75161",(469) 508-2693,,,"16865 FM 429
TERRELL, TX   75161-7148",1,1,2019-12-03,,"Auth. For Hire, ","Interstate, ","General Freight, "
3364458,,CARRIER,ACTIVE,None,JUAN CARLOS MONTEALEGRE RAMIREZ,KRISMOVA DM TRUCKING,,"8638 DOSKOCIL DR
HOUSTON, TX   77044-1154",(832) 795-3110,,,"8638 DOSKOCIL DR
HOUSTON, TX   77044-1154",1,1,2019-12-03,,"Auth. For Hire, ","Intrastate Only (Non-HM), ","OTHER, "
3364468,,CARRIER,ACTIVE,None,ENRIQUE SOTO JR,ENRIQUE SOTO JR TRUCKING,,"1840 CALLE OAXACA
EAGLE PASS, TX   78852-5663",(830) 776-0190,,,"1840 CALLE OAXACA
EAGLE PASS, TX   78852-5663",1,1,2019-12-04,,"Auth. For Hire, ","Intrastate Only (Non-HM), ","Grain, Feed, Hay, OTHER, "
3364490,,CARRIER,NOT AUTHORIZED,None,CHILI CARGO LLC,,,"12618 TICONDEROGA RD
HOUSTON, TX   77044",(405) 792-6946,,,"PO BOX 96413
HOUSTON, TX   77213-6413",1,1,2019-12-03,,"Auth. For Hire, ","Interstate, ","General Freight, Refrigerated Food, Beverages, Agricultural/Farm Supplies, "
3364537,,CARRIER,NOT AUTHORIZED,None,GOODLIFE TRANSPORTATION LLC,,,"2403 SCOTLAND DR
DALLAS, TX   75216",(469) 971-5580,,,"2403 SCOTLAND DR
DALLAS, TX   75216-6541",1,1,2019-12-03,,"Auth. For Hire, ","Interstate, ","General Freight, Commodities Dry Bulk, Refrigerated Food, "
3364542,,CARRIER,ACTIVE,None,ANDRES PEREZ,AP TRUCKING,,"908 E DOROTHY CIR
PHARR, TX   78577-2624",(574) 549-4191,,,"908 E DOROTHY CIR
PHARR, TX   78577-2624",1,1,2019-12-03,,"Auth. For Hire, ","Intrastate Only (Non-HM), ","OTHER, "
3364560,,CARRIER,ACTIVE,None,CANDY TRUCKING LLC,,,"13906 STARDUST LN
DALLAS, TX   75234-3537",(214) 783-3312,,,"13906 STARDUST LN
DALLAS, TX   75234-3537",2,1,2019-12-03,,"Auth. For Hire, ","Intrastate Only (Non-HM), ","Construction, OTHER, "
3364564,,CARRIER,ACTIVE,None,AUSTIN LEISURE SIGHTSEEING HOP ON HOP OFF LLC,,,"301 BRAZOS ST UNIT 1422
AUSTIN, TX   78701-4632",(415) 254-6799,,,"301 BRAZOS ST UNIT 1422
AUSTIN, TX   78701-4632",1,1,2019-12-03,,"Auth. For Hire, ","Intrastate Only (Non-HM), ","Passengers, "
3364583,,CARRIER,NOT AUTHORIZED,None,HUSAMS TOWING LLC,,,"2332 SUMMER OAKS CT
ARLINGTON, TX   76011",(682) 222-4565,,,"2332 SUMMER OAKS CT
ARLINGTON, TX   76011-2404",1,1,2019-12-09,,"Auth. For Hire, ","Intrastate Only (Non-HM), ","General Freight, Drive/Tow away, "
3364637,,CARRIER,NOT AUTHORIZED,None,TMG CARRIERS LLC,,,"9005 MINES RD APT 2
LAREDO, TX   78045",(956) 725-1508,,,"9005 MINES RD APT 2
LAREDO, TX   78045-8833",1,4,2019-12-03,,"Auth. For Hire, ","Interstate, ","General Freight, "
3364658,,CARRIER,NOT AUTHORIZED,None,MICHAEL SMITH,M & L TRANSPORTATION,,"875 UNION STATION PKWY APT 15401
LEWISVILLE, TX   75057",(244) 215-7227,,,"875 UNION STATION PKWY APT 15401
LEWISVILLE, TX   75057-5274",1,1,2019-12-03,,"Auth. For Hire, ","Interstate, ","General Freight, "
3364669,,CARRIER,ACTIVE,None,ROJAS EXPRESS TRUCKING,,,"10131 WOODICO CT
HOUSTON, TX   77038-2435",(713) 398-5258,,,"10131 WOODICO CT
HOUSTON, TX   77038-2435",1,1,2019-12-03,,"Auth. For Hire, ","Intrastate Only (Non-HM), ","General Freight, "
3364682,,CARRIER,NOT AUTHORIZED,None,E R TRANSPORT SERVICES LLC,,,"408 2ND ST
WILLIS, TX   77378",(936) 444-5733,,,"408 2ND ST
WILLIS, TX   77378-8833",1,1,2019-12-03,,"Auth. For Hire, ","Interstate, ","General Freight, "
3364686,,CARRIER,ACTIVE,None,GABRIEL GARAY,LIGHTNING TRANSPORT & WINCH TRUCKING,,"3100 S COUNTY ROAD 1193
MIDLAND, TX   79706-3903",(799) 344-9111,,,"3100 S COUNTY ROAD 1193
MIDLAND, TX   79706-3903",3,1,2019-12-03,,"Auth. For Hire, ","Intrastate Only (Non-HM), ","General Freight, Oilfield Equipment, OTHER, "
3364703,,CARRIER,NOT AUTHORIZED,None,DRAMA TRANSPORATION LLC,,,"9375 VISCOUNT BLVD APT 329
EL PASO, TX   79925",(915) 249-0886,,,"9375 VISCOUNT BLVD APT 329
EL PASO, TX   79925-8060",1,1,2019-12-03,,"Auth. For Hire, ","Interstate, ","General Freight, Building Materials, Beverages, Paper Products, "
3364718,,CARRIER,NOT AUTHORIZED,None,GONZALEZ TRUCK LINES LLC,,,"14422 INVESTMENT AVE STE A
LAREDO, TX   78045",(956) 533-7233,,,"PO BOX 5537
BROWNSVILLE, TX   78523-5537",1,1,2019-12-03,,"Auth. For Hire, ","Interstate, ","General Freight, "
3364733,,CARRIER,NOT AUTHORIZED,None,JORDAN 3RD EYE LLC,,,"1000 PLANTATION DR 1000 PLANTATION DR
DESOTO, TX   75115",(214) 985-4068,,,"1000 PLANTATION DR 1000 PLANTATION DR
DESOTO, TX   75115-5282",4,4,2019-12-03,,"Auth. For Hire, ","Interstate, ","General Freight, Household Goods, US Mail, "
3364759,,CARRIER,ACTIVE,None,DUMPSTERS LINK LLC,DUMPSTERS LINK,,"3736 FM 482 LOT 205
NEW BRAUNFELS, TX   78132-5057",(830) 387-5101,,,"3736 FM 482 LOT 205
NEW BRAUNFELS, TX   78132-5057",1,1,2019-12-03,,"Auth. For Hire, ","Intrastate Only (Non-HM), ","General Freight, "
3364781,,CARRIER,ACTIVE,None,JOSE ANGEL FRANCO IBARRA,TFI CARRIERS,,"2352 N VETERANS BLVD APT 1
EAGLE PASS, TX   78852-6654",(830) 765-7473,,,"2352 N VETERANS BLVD APT 1
EAGLE PASS, TX   78852-6654",1,1,2019-12-03,,"Auth. For Hire, ","Intrastate Only (Non-HM), ","General Freight, "
3364789,,CARRIER,ACTIVE,None,ADRIAN GARCIA CAMPOS,,,"6107 CARPENTERS COVE LN
HOUSTON, TX   77049-1358",(832) 938-7040,,,"6107 CARPENTERS COVE LN
HOUSTON, TX   77049-1358",1,1,2019-12-03,,"Auth. For Hire, ","Intrastate Only (Non-HM), ","General Freight, OTHER, "
3364794,,CARRIER,ACTIVE,None,OSCAR RODRIGUEZ DOMINGUEZ DBA ORD TRUCKING,ORD TRUCKING,,"6037 FRY RD STE 126
KATY, TX   77449-1804",(941) 822-2471,,,"6037 FRY RD STE 126
KATY, TX   77449-1804",1,1,2019-12-03,,"Auth. For Hire, ","Intrastate Only (Non-HM), ","General Freight, "
3364803,,CARRIER,ACTIVE,None,BEL-TRAN SPECIALIZED HAULING INC,,,"11109 ARMSTRONG LN
PEARLAND, TX   77584-7236",(832) 493-2351,,,"11109 ARMSTRONG LN
PEARLAND, TX   77584-7236",1,4,2019-12-03,,"Auth. For Hire, ","Intrastate Only (Non-HM), ","General Freight, Metal: sheets, coils, rolls, Machinery, Large Objects, Oilfield Equipment, Agricultural/Farm Supplies, Construction, "
3364810,,CARRIER,NOT AUTHORIZED,None,RITA CARDOZA MONTES,RC TRUCKING,,"13602 ALAMEDA AVE APT 161
CLINT, TX   79836",(623) 388-1155,,,"13602 ALAMEDA AVE APT 161
CLINT, TX   79836-6137",1,1,2019-12-03,,"Auth. For Hire, ","Interstate, ","Building Materials, "
3364831,,CARRIER,ACTIVE,None,VIRGINELLA PARKER,,,"311 N VISTA DR APT 1812
HOUSTON, TX   77073-5394",(832) 602-5434,,,"311 N VISTA DR APT 1812
HOUSTON, TX   77073-5394",2,2,2019-12-03,,"Auth. For Hire, ","Intrastate Only (Non-HM), ","General Freight, OTHER, "
3364836,,CARRIER,ACTIVE,None,FELIX OMAR CAMPA,MTH TRANSPORTATION,,"2800 PEARL AVE
FORT WORTH, TX   76106-6939",(682) 564-6845,,,"2800 PEARL AVE
FORT WORTH, TX   76106-6939",1,1,2019-12-03,,"Auth. For Hire, ","Intrastate Only (Non-HM), ","General Freight, OTHER, "
3364881,,CARRIER,NOT AUTHORIZED,None,CLAUDIA BRUCKMANN,M B TRANSPORT,,"2727 SYNOTT RD APT 605
HOUSTON, TX   77082",(346) 270-5030,,,"2727 SYNOTT RD APT 605
HOUSTON, TX   77082-3543",0,1,2019-12-04,,"Auth. For Hire, ","Interstate, ","General Freight, Motor Vehicles, "
3364891,,CARRIER,ACTIVE,None,DOUBLE O TRANSPORT LLC,,,"240 HINGE CHASE
CIBOLO, TX   78108-3354",(210) 862-9786,,,"240 HINGE CHASE
CIBOLO, TX   78108-3354",1,1,2019-12-03,"10,000 (2019)","Auth. For Hire, ","Intrastate Only (Non-HM), ","General Freight, "
3364899,,CARRIER,ACTIVE,None,D&D TRUCKING COMPANY,,,"1331 JAMES AVE
PORT ARTHUR, TX   77642-1676",(409) 300-9149,,,"1331 JAMES AVE
PORT ARTHUR, TX   77642-1676",1,1,2019-12-03,,"Auth. For Hire, ","Intrastate Only (Non-HM), ","General Freight, "
3364990,,CARRIER,NOT AUTHORIZED,None,VAP TRANSPORTS LLC,,,"2009 ORCHID ST
EDINBURG, TX   78542",(956) 626-1954,,,"2009 ORCHID ST
EDINBURG, TX   78542-6444",1,2,2019-12-04,,"Auth. For Hire, ","Interstate, ","General Freight, Fresh Produce, Refrigerated Food, Beverages, "
3364994,,CARRIER,NOT AUTHORIZED,None,SANTINO SPEEDY DELIVERY LLC,,,"19627 RIVER POINTE LN
KATY, TX   77449",(302) 470-1024,,,"19627 RIVER POINTE LN
KATY, TX   77449-4736",1,1,2019-12-04,,"Auth. For Hire, ","Interstate, ","General Freight, "
3364999,,CARRIER,NOT AUTHORIZED,None,TEXPRO EXPRESS INC,,,"11142 PIGEON BLUFF DR
HOUSTON, TX   77065",(346) 400-9961,,,"11142 PIGEON BLUFF DR
HOUSTON, TX   77065-1851",3,6,2019-12-04,,"Auth. For Hire, ","Interstate, ","General Freight, "
3365018,,CARRIER,ACTIVE,None,PAUL LAWRENCE ROBERSON,,,"1428 FM HWY 161N
HUGHES SPRINGS, TX   75656",(903) 946-3211,,,"PO BOX 1174
HUGHES SPGS, TX   75656-1174",1,1,2019-12-05,1 (2018),"Auth. For Hire, ","Intrastate Only (Non-HM), ","Building Materials, "
3365030,,CARRIER,NOT AUTHORIZED,None,SHOTGUN XPRESS LLC,,,"1806 W 19TH ST
MISSION, TX   78572",(956) 400-3464,,,"1806 W 19TH ST
MISSION, TX   78572-0729",1,1,2019-12-04,,"Auth. For Hire, ","Interstate, ","General Freight, Building Materials, Beverages, Paper Products, "
3365034,,CARRIER,ACTIVE,None,KELLY M&G TRUCKING LLC,,,"921 FIR ST
PLAINVIEW, TX   79072-4844",(806) 685-0637,,,"1308 VERNON ST
PLAINVIEW, TX   79072-4844",1,1,2019-12-07,,"Auth. For Hire, ","Intrastate Only (Non-HM), ","General Freight, Grain, Feed, Hay, "
3365049,,CARRIER,NOT AUTHORIZED,None,EMPIRE AUTOMOTIVE GROUP LLC,,,"7813 RANCHO DE LA OSA TRL
MCKINNEY, TX   75070",(903) 919-0241,,,"7813 RANCHO DE LA OSA TRL
MCKINNEY, TX   75070-6041",1,1,2019-12-04,,"Auth. For Hire, ","Interstate, ","General Freight, "
3365065,,CARRIER,NOT AUTHORIZED,None,NO PRESSURE LOGISTICS LIMITED LIABILITY COMPANY,,,"8215 OAT MEADOW TRL
HOUSTON, TX   77049",(405) 792-6946,,,"8215 OAT MEADOW TRL
HOUSTON, TX   77049-1375",1,1,2019-12-04,,"Auth. For Hire, ","Interstate, ","General Freight, Motor Vehicles, "
3365089,,CARRIER,ACTIVE,None,PETER BARTSCH MARTENS LLC,,,"188 COUNTY ROAD 401 I
SEMINOLE, TX   79360-6019",(432) 758-2403,,,"PO BOX 190 188 COUNTY ROAD 401 I
SEMINOLE, TX   79360-0190",1,1,2019-12-04,,"Auth. For Hire, ","Intrastate Only (Non-HM), ","General Freight, "
3365127,,CARRIER,NOT AUTHORIZED,None,DMS TRANSPORT LLC,,,"1808 GALVESTON ST
LAREDO, TX   78043",(956) 949-0948,,,"1808 GALVESTON ST
LAREDO, TX   78043-2905",1,1,2019-12-04,,"Auth. For Hire, ","Interstate, ","General Freight, Commodities Dry Bulk, Beverages, Paper Products, "
3365136,,CARRIER,NOT AUTHORIZED,None,MIDNIGHT EXPRESS LOGISTICS LLC,,,"4068 COUNTY ROAD 1123
GODLEY, TX   76044",(817) 357-2870,,,"4068 COUNTY ROAD 1123
GODLEY, TX   76044-4344",1,1,2019-12-04,,"Auth. For Hire, ","Interstate, ","General Freight, Logs, Poles, Beams, Lumber, Building Materials, Machinery, Large Objects, Construction, "
3365151,,CARRIER,ACTIVE,None,AVS TRUCKING CORP,,,"14735 PLACID PT
HUMBLE, TX   77396-3485",(832) 741-1794,,,"14735 PLACID PT
HUMBLE, TX   77396-3485",1,1,2019-12-04,,"Auth. For Hire, ","Intrastate Only (Non-HM), ","General Freight, Commodities Dry Bulk, "
3365161,,CARRIER,NOT AUTHORIZED,None,DOLORES F CASTILLO,CASTLE EXPRESS,,"3221 RODDY DR
FORT WORTH, TX   76123",(817) 298-0515,,,"3221 RODDY DR
FORT WORTH, TX   76123-2060",1,1,2019-12-04,,"Auth. For Hire, ","Interstate, ","General Freight, "
3365205,,CARRIER,NOT AUTHORIZED,None,SCHEREIBER TRANSPORTATION LLC,,,"1800 TEASLEY LN APT 109
DENTON, TX   76205",(940) 305-9656,,,"1800 TEASLEY LN APT 109
DENTON, TX   76205-5349",1,1,2019-12-06,,"Auth. For Hire, ","Interstate, ","General Freight, Metal: sheets, coils, rolls, Logs, Poles, Beams, Lumber, Building Materials, Paper Products, Utilities, Construction, OTHER, "
3365214,,CARRIER,ACTIVE,None,CJ TRANSPORTATION 52 LLC,,,"5601 FM 517 RD E APT 409
DICKINSON, TX   77539-7173",(832) 960-8133,,,"5601 FM 517 RD E APT 409
DICKINSON, TX   77539-7173",1,1,2019-12-04,,"Auth. For Hire, ","Intrastate Only (Non-HM), ","General Freight, "
3365220,,CARRIER,NOT AUTHORIZED,None,ERIC BROWN,BACKSTREET TRANSPORTATION,,"15710 BANNOWSKY LN
HOUSTON, TX   77049",(405) 792-6946,,,"15710 BANNOWSKY LN
HOUSTON, TX   77049-1163",1,1,2019-12-04,,"Auth. For Hire, ","Interstate, ","General Freight, "
3365239,,CARRIER,ACTIVE,None,DIAMOND I TRUCKING LLC,,,"415 W WALL ST STE 1507
MIDLAND, TX   79701-4455",(432) 631-9179,,,"PO BOX 10873
MIDLAND, TX   79702-7873",1,1,2019-12-04,,"Auth. For Hire, ","Intrastate Only (Non-HM), ","General Freight, Liquids/Gases, "
3365247,,CARRIER,NOT AUTHORIZED,None,DEEPWATER HEAVY HAUL LLC,,,"1310 W SHEPHERD ST
DENISON, TX   75020",(860) 840-9438,,,"1310 W SHEPHERD ST
DENISON, TX   75020-5213",1,1,2019-12-04,,"Auth. For Hire, ","Interstate, ","General Freight, Metal: sheets, coils, rolls, Garbage/Refuse, "
3365248,,CARRIER,ACTIVE,None,RDM TRANSPORT LLC,,,"930 THOMPSON RD
WEATHERFORD, TX   76087-8161",(817) 597-6816,,,"930 THOMPSON RD
WEATHERFORD, TX   76087-8161",1,1,2019-12-04,,"Auth. For Hire, ","Intrastate Only (Non-HM), ","OTHER, "
3365251,,CARRIER,ACTIVE,None,FERNANDO ERNESTO SALGADO,,,"5313 DOW RD
HOUSTON, TX   77040-6101",(832) 760-6984,,,"5313 DOW RD
HOUSTON, TX   77040-6101",3,3,2019-12-04,,"Auth. For Hire, ","Intrastate Only (Non-HM), ","AUTOMOBILES, "
3365265,,CARRIER,NOT AUTHORIZED,None,JOSE DE JESUS SANCHEZ CALVILLO,TRANSPORTES CALVILLO,,"ROBLE 407
REYNOSA , TA   88799",(899) 149-6903,,,"501 N BRIDGE ST STE 566
HIDALGO, TX   78557-2530",2,2,2019-12-04,,"Auth. For Hire, ","Interstate, ","General Freight, "
3365273,,CARRIER,ACTIVE,None,RHINO EXPORT LLC,,,"702 CLEO ST
FRESNO, TX   77545-7735",(832) 980-1616,,,"PO BOX 726
FRESNO, TX   77545-0726",1,2,2019-12-04,,"Auth. For Hire, ","Intrastate Only (Non-HM), ","OTHER, "
3365282,,CARRIER,NOT AUTHORIZED,None,BD & SR BOOKER FAMILY ENTERPRISE LLC,ABUNDANT TRANSPORTATION SERVICES,,"1609 CHACON CANYON DR
DESOTO, TX   75115",(469) 245-4372,,,"PO BOX 1642
CEDAR HILL, TX   75104-1642",1,1,2019-12-05,12 (2019),"Auth. For Hire, ","Interstate, ","General Freight, "
3365324,,CARRIER,ACTIVE,None,TRIANGLE RT TRANSPORT LLC,,,"1927 CR 1005
BATESVILLE, TX   78829",(956) 319-0081,,,"2007 DURANGO AVE
LAREDO, TX   78046-8771",1,1,2019-12-04,1 (2018),"Auth. For Hire, ","Intrastate Only (Non-HM), ","General Freight, OTHER, "
3365327,,CARRIER,ACTIVE,None,ANNIE ELEBY,,,"13725 CAMBURY DR APT 1204
HOUSTON, TX   77014-2642",(832) 602-5434,,,"13725 CAMBURY DR APT 1204
HOUSTON, TX   77014-2642",3,2,2019-12-04,,"Auth. For Hire, ","Intrastate Only (Non-HM), ","General Freight, OTHER, "
3365334,,CARRIER,NOT AUTHORIZED,None,GS EXPRESS LLC,,,"4228 RESERVE WAY APT 3133
IRVING, TX   75038",(214) 288-2217,,,"4228 RESERVE WAY APT 3133
IRVING, TX   75038-9083",1,1,2019-12-04,,"Auth. For Hire, ","Interstate, ","General Freight, "
3365344,,CARRIER,NOT AUTHORIZED,None,PHILLIPS INTERESTS LLC,TEXAS VETERANS TRANSPORT,,"7747 HIGH VILLAGE DR
HOUSTON, TX   77095",(832) 797-8828,,,"7747 HIGH VILLAGE DR
HOUSTON, TX   77095-1686",1,1,2019-12-04,,"Auth. For Hire, ","Interstate, ","General Freight, "
3365370,,CARRIER,ACTIVE,None,ERIC ALFREDO OLIVO,,,"19902 CHERRY OAKS LN
HUMBLE, TX   77346-2031",(832) 256-9720,,,"19902 CHERRY OAKS LN
HUMBLE, TX   77346-2031",1,1,2019-12-04,,"Auth. For Hire, ","Intrastate Only (Non-HM), ","OTHER, "
3365386,,CARRIER,ACTIVE,None,CHARLES PARKER,CLP TRANSPORTATION,,"1217 AIRWAY AVE
TYLER, TX   75704-7815",(903) 360-6181,,,"1217 AIRWAY AVE
TYLER, TX   75704-7815",1,1,2019-12-04,,"Auth. For Hire, ","Intrastate Only (Non-HM), ","General Freight, "
3365390,,CARRIER,ACTIVE,None,2 - H TRUCKING LLC,,,"10807 CORAL GARDEN LN
HOUSTON, TX   77075-2827",(832) 872-5605,,,"10807 CORAL GARDEN LN
HOUSTON, TX   77075-2827",1,1,2019-12-04,,"Auth. For Hire, ","Intrastate Only (Non-HM), ","General Freight, "
3365400,,CARRIER,ACTIVE,None,OMAR JIMENEZ,ALLEGIANCE MATERIALS,,"14003 LANTERN LN
HOUSTON, TX   77015-2431",(713) 292-7143,,,"14003 LANTERN LN
HOUSTON, TX   77015-2431",1,1,2019-12-04,,"Auth. For Hire, ","Intrastate Only (Non-HM), ","Building Materials, Construction, OTHER, "
3365432,,CARRIER,ACTIVE,None,SUNRISE HAULING LLC,,,"330 VALEK RD
ENNIS, TX   75119-0363",(847) 775-3587,,,"330 VALEK RD
ENNIS, TX   75119-0363",1,1,2019-12-04,,"Auth. For Hire, ","Intrastate Only (Non-HM), ","OTHER, "
3365465,,CARRIER,NOT AUTHORIZED,None,ROYAL PRO-SERVICES CORP,,,"20000 SAUMS RD APT 5101
KATY, TX   77449",(305) 900-9218,,,"20000 SAUMS RD APT 5101
KATY, TX   77449-3377",1,2,2019-12-04,,"Auth. For Hire, ","Interstate, ","General Freight, Metal: sheets, coils, rolls, Logs, Poles, Beams, Lumber, Building Materials, Commodities Dry Bulk, Agricultural/Farm Supplies, Construction, "
3365471,,CARRIER,ACTIVE,None,ROSA DALIA NARVAEZ ORDONEZ,DALIA TRANSPORTATION,,"8614 GREINER DR
HOUSTON, TX   77080-3504",(832) 385-9893,,,"8614 GREINER DR
HOUSTON, TX   77080-3504",1,1,2019-12-04,,"Auth. For Hire, ","Intrastate Only (Non-HM), ","General Freight, OTHER, "
3365479,,CARRIER,ACTIVE,None,JOSE M DEL SOL CANDEDO,M & Y,,"610 E WINKLER ST APT E
KERMIT, TX   79745-4418",(432) 557-7432,,,"610 E WINKLER ST APT E
KERMIT, TX   79745-4418",1,1,2019-12-04,,"Auth. For Hire, ","Intrastate Only (Non-HM), ","OTHER, "
3365484,,CARRIER,ACTIVE,None,BRISTOL OPERATING LLC,,,"3102 SHALLOW CREEK DR
CORP CHRISTI, TX   78410-2336",(713) 530-7146,,,"3102 SHALLOW CREEK DR
CORP CHRISTI, TX   78410-2336",1,2,2019-12-04,,"Auth. For Hire, ","Intrastate Only (Non-HM), ","General Freight, "
3365491,,CARRIER,NOT AUTHORIZED,None,GQB3D EXPRESS LLC,,,"170 MORNING GLORY RD
CLINT, TX   79836",(915) 202-4540,,,"170 MORNING GLORY RD
CLINT, TX   79836-5507",2,4,2019-12-04,,"Auth. For Hire, ","Interstate, ","General Freight, "
3365509,,CARRIER,ACTIVE,None,DFW FUN BUS LLC,,,"5900 BALCONES DR STE 100
AUSTIN, TX   78731-4298",(972) 657-0811,,,"2572 TAOS DR
GRAND PRAIRIE, TX   75051-5313",1,2,2019-12-04,,"Auth. For Hire, ","Intrastate Only (Non-HM), ","Passengers, "
3365571,,CARRIER,ACTIVE,None,PEREZ INTERPRISE,,,"5502 SARASOTA DR
ARLINGTON, TX   76017-3242",(830) 480-6679,,,"5502 SARASOTA DR
ARLINGTON, TX   76017-3242",1,2,2019-12-05,,"Auth. For Hire, ","Intrastate Only (Non-HM), ","General Freight, "
3365629,,CARRIER,ACTIVE,None,APODACA TRUCKING LLC,,,"6403 ALCOTT DR
ARLINGTON, TX   76001-7504",(817) 271-3085,,,"6403 ALCOTT DR
ARLINGTON, TX   76001-7504",1,1,2019-12-05,,"Auth. For Hire, ","Intrastate Only (Non-HM), ","DSG, "
3365684,,CARRIER,NOT AUTHORIZED,None,IN HONOR LOGISTICS,,,"10068 BULL RUN
FORT WORTH, TX   76177",(817) 564-1692,,,"10068 BULL RUN
FORT WORTH, TX   76177-7340",1,1,2019-12-05,10 (2018),"Auth. For Hire, ","Interstate, ","General Freight, Motor Vehicles, Drive/Tow away, Construction, "
3365705,,CARRIER,ACTIVE,None,J C HAULING,,,"3805 PLUM ST
SAN MARCOS, TX   78666-1913",(512) 557-0667,,,"3805 PLUM ST
SAN MARCOS, TX   78666-1913",1,1,2019-12-05,,"Auth. For Hire, ","Intrastate Only (Non-HM), ","General Freight, OTHER, "
3365708,,CARRIER,NOT AUTHORIZED,None,VTS CARRIERS LLC,,,"7100 SAN BERNARDO AVE STE 208
LAREDO, TX   78041",(956) 337-5035,,,"7100 SAN BERNARDO AVE STE 208
LAREDO, TX   78041-2266",5,5,2019-12-05,,"Auth. For Hire, ","Interstate, ","General Freight, Metal: sheets, coils, rolls, Building Materials, Beverages, "
3365716,,CARRIER,ACTIVE,None,JOSE P MATAMOROS,J&M TRANSPORT,,"10263 LUCKNOW RD
SOCORRO, TX   79927-5011",(915) 667-6641,,,"10263 LUCKNOW RD
SOCORRO, TX   79927-5011",1,1,2019-12-05,,"Auth. For Hire, ","Intrastate Only (Non-HM), ","Mobile Homes, "
3365748,,CARRIER,ACTIVE,None,MEREJILDO B RODRIQUEZ JR,JR'S SEPTIC,,"2405 RUNNELS ST
BIG SPRING, TX   79720-5546",(432) 270-8012,,,"PO BOX 3135
BIG SPRING, TX   79721-3135",1,1,2019-12-06,1 (2019),"Auth. For Hire, ","Intrastate Only (Non-HM), ","OTHER, "
3365762,,CARRIER,NOT AUTHORIZED,None,STRONG INTERNATIONAL TRANSPORT SA DE CV,,,"JOSEW DE ALCIBAR 297
CD JUAREZ, CI   32340",(656) 382-1473,,,"PO BOX 3607
EL PASO, TX   79923-3607",1,1,2019-12-05,,"Auth. For Hire, ","Interstate, ","General Freight, Commodities Dry Bulk, Paper Products, "
3365778,,CARRIER,NOT AUTHORIZED,None,CHAMPS EXPRESS LLC,,,"1513 ALOVERA LN
EL PASO, TX   79912",(915) 345-3424,,,"1513 ALOVERA LN
EL PASO, TX   79912-8502",1,2,2019-12-05,,"Auth. For Hire, ","Interstate, ","General Freight, "
3365784,,CARRIER,NOT AUTHORIZED,None,UNDERTERRA LLC,,,"3221 E HIGHWAY 90
DEL RIO, TX   78840",(830) 422-2880,,,"3221 E HIGHWAY 90
DEL RIO, TX   78840-7395",2,1,2019-12-05,,"Auth. For Hire, ","Interstate, ","General Freight, Chemicals, "
3365788,,CARRIER,NOT AUTHORIZED,None,RJA CARRIERS LLC,,,"10979 ODEN DR
EL PASO, TX   79927",(915) 526-6950,,,"10979 ODEN DR
EL PASO, TX   79927-3634",1,1,2019-12-05,,"Auth. For Hire, ","Interstate, ","General Freight, "
3365809,,CARRIER,ACTIVE,None,L&G TRADE & SERVICES INC,L&G TRADE|L&G TRADE AND SERVICES,,"667 EL PARQUE DR
EL PASO, TX   79912-2218",(915) 479-6320,,,"667 EL PARQUE DR
EL PASO, TX   79912-2218",1,1,2019-12-05,,"Auth. For Hire, ","Intrastate Only (Non-HM), ","General Freight, Construction, "
3365812,,CARRIER,ACTIVE,None,TEXCON ENTERPRISES LLC,S A I TRANSPORTATION,,"9123 SILVERTON STAR LN
HOUSTON, TX   77070-2141",(832) 933-6622,,,"9123 SILVERTON STAR LN
HOUSTON, TX   77070-2141",2,2,2019-12-05,,"Auth. For Hire, ","Intrastate Only (Non-HM), ","OTHER, "
3365824,,CARRIER,NOT AUTHORIZED,None,VLK LLC,,,"2365 APOLLO RD APT 901
GARLAND, TX   75044",(469) 336-0505,,,"2365 APOLLO RD APT 901
GARLAND, TX   75044-6331",1,1,2019-12-05,,"Auth. For Hire, ","Interstate, ","General Freight, "
3365826,,CARRIER,ACTIVE,None,DG & J GONZALEZ LLC,,,"18204 CHISHOLM TRL APT 921
HOUSTON, TX   77060-1131",(832) 597-4286,,,"18204 CHISHOLM TRL APT 921
HOUSTON, TX   77060-1131",1,2,2019-12-05,,"Auth. For Hire, ","Intrastate Only (Non-HM), ","Garbage/Refuse, "
3365835,,CARRIER,ACTIVE,None,PAULA & JULIA TRANSPORT LLC,J & P TRANSPORT,,"2233 SE MILITARY DR APT 204
SAN ANTONIO, TX   78223-3545",(210) 777-0680,,,"2233 SE MILITARY DR APT 204
SAN ANTONIO, TX   78223-3545",1,1,2019-12-05,1 (2018),"Auth. For Hire, ","Intrastate Only (Non-HM), ","DIRT SAND & GRAV, "
3365842,,CARRIER,NOT AUTHORIZED,None,3RS TOURISM LLC,,,"900 NE 2ND ST
ANDREWS, TX   79714",(432) 232-3029,,,"900 NE 2ND ST
ANDREWS, TX   79714-4106",1,6,2019-12-05,,"Auth. For Hire, ","Interstate, ","Passengers, "
3365847,,CARRIER,ACTIVE,None,BISMEL CASTELLANOS GUEVARA,CERBERUS TRUCKING,,"1201 E MAIN ST APT 231
ROUND ROCK, TX   78664-4584",(512) 487-2988,,,"1201 E MAIN ST APT 231
ROUND ROCK, TX   78664-4584",1,1,2019-12-05,,"Auth. For Hire, ","Intrastate Only (Non-HM), ","OTHER, "
3365885,,CARRIER,NOT AUTHORIZED,None,WING 7 LOGISTICS LLC,,,"2718 CLEBURNE STREET UNIT 2
HOUSTON, TX   77004",(405) 792-6946,,,"2718 CLEBURNE STREET UNIT 2
HOUSTON, TX   77004",1,2,2019-12-09,1 (2018),"Auth. For Hire, ","Interstate, ","General Freight, "
3365903,,CARRIER,NOT AUTHORIZED,None,ROOK MOVES LLC,GRA MATTER EXPRESS,,"1821 KENWOOD TER
ARLINGTON, TX   76013",(972) 805-3566,,,"1821 KENWOOD TER
ARLINGTON, TX   76013-6404",1,4,2019-12-05,,"Auth. For Hire, ","Interstate, ","General Freight, Motor Vehicles, "
3365936,,CARRIER,ACTIVE,None,COUTWAN GROUP,,,"3030 DUNVALE RD APT 10307
HOUSTON, TX   77063-4490",(832) 360-4380,,,"1415 S VOSS RD STE 110
HOUSTON, TX   77057-1000",1,2,2019-12-05,,"Auth. For Hire, ","Intrastate Only (Non-HM), ","General Freight, "
3366035,,CARRIER,NOT AUTHORIZED,None,COLE CARRIERS,,,"317 SWEETGUM DR
CEDAR HILL, TX   75104",(469) 623-6534,,,"317 SWEETGUM DR
CEDAR HILL, TX   75104-2988",1,2,2019-12-06,,"Auth. For Hire, ","Interstate, ","General Freight, Household Goods, Metal: sheets, coils, rolls, Fresh Produce, Grain, Feed, Hay, Meat, Commodities Dry Bulk, Refrigerated Food, Beverages, Paper Products, OTHER, "
3366074,,CARRIER,NOT AUTHORIZED,None,D BROOKS LOGISTICS LLC,,,"1420 MANTLEBROOK DR
DESOTO, TX   75115",(817) 908-9242,,,"1420 MANTLEBROOK DR
DESOTO, TX   75115-2952",1,2,2019-12-06,,"Auth. For Hire, ","Interstate, ","General Freight, "
3366133,,CARRIER,ACTIVE,None,JAMES BRUCE STEPTOE,STEPTOE TRUCKING,,"469 COUNTY ROAD 2799
SHELBYVILLE, TX   75973-4051",(936) 275-9571,,,"469 COUNTY ROAD 2799
SHELBYVILLE, TX   75973-4051",1,1,2019-12-06,1 (2019),"Auth. For Hire, ","Intrastate Only (Non-HM), ","General Freight, ROCK SAND GRAVEL, "
3366139,,CARRIER,ACTIVE,None,J I R TRANSPORT LLC,,,"7615 KITE HILL DR
HOUSTON, TX   77041-1571",(561) 729-6745,,,"7615 KITE HILL DR
HOUSTON, TX   77041-1571",1,1,2019-12-06,,"Auth. For Hire, ","Intrastate Only (Non-HM), ","OTHER, "
3366160,,CARRIER,ACTIVE,None,DADRIAN LAMON JOHNSON,GOLD RUSH TRUCKING,,"208 WALTERS ST
LONGVIEW, TX   75603-9473",(903) 931-3116,,,"208 WALTERS ST
LONGVIEW, TX   75603-9473",1,1,2019-12-06,,"Auth. For Hire, ","Intrastate Only (Non-HM), ","OTHER, "
3366176,,CARRIER,NOT AUTHORIZED,None,PACMAN TRANSPORT LLC,,,"1121 E OAK AVE
MIDLAND, TX   79705",(915) 261-6988,,,"1121 E OAK AVE
MIDLAND, TX   79705-6809",2,6,2019-12-06,,"Auth. For Hire, ","Interstate, ","General Freight, Mobile Homes, "
3366217,,CARRIER,NOT AUTHORIZED,None,C BYRD TRUCKING LLC,,,"4714 CAPULIN LN
AMARILLO, TX   79110",(806) 290-4337,,,"4714 CAPULIN LN
AMARILLO, TX   79110-2635",1,2,2019-12-06,,"Auth. For Hire, ","Interstate, ","General Freight, Fresh Produce, Meat, Refrigerated Food, Beverages, "
3366304,,CARRIER,ACTIVE,None,DELMA TRANSPORT COMPANY,,,"33687 PALOMA DR
SAN BENITO, TX   78586-6866",(956) 908-1500,,,"33687 PALOMA DR
SAN BENITO, TX   78586-6866",1,1,2019-12-06,,"Auth. For Hire, ","Intrastate Only (Non-HM), ","General Freight, "
3366385,,CARRIER,NOT AUTHORIZED,None,RAMON AND SONS,,,"3310 LONGMEADE DR
DALLAS, TX   75234-3748",(972) 825-9197,,,"3310 LONGMEADE DR
DALLAS, TX   75234-3748",2,2,2019-12-06,,"Auth. For Hire, ","Intrastate Only (Non-HM), ","General Freight, OTHER, "
3366401,,CARRIER,ACTIVE,None,RED LETTERS LOGISTICS LLC,,,"270 BEASLEY RD
COMBINE, TX   75159-5849",(214) 300-8767,,,"270 BEASLEY RD
COMBINE, TX   75159-5849",9,9,2019-12-06,,"Auth. For Hire, ","Intrastate Only (Non-HM), ","General Freight, "
3366406,,CARRIER,NOT AUTHORIZED,None,REDS TRANSPORTATION LLC,,,"3506 MAIN ST
TEXARKANA, TX   75503",(302) 470-1024,,,"3506 MAIN ST
TEXARKANA, TX   75503-3660",1,1,2019-12-06,,"Auth. For Hire, ","Interstate, ","General Freight, "
3366419,,CARRIER,NOT AUTHORIZED,None,TURPEN TRANSPORTATION LLC,TURPEN TRANSPORTATION,,"522 ASH ST
PLAINVIEW, TX   79072",(806) 729-5504,,,"522 ASH ST
PLAINVIEW, TX   79072-8018",1,1,2019-12-06,,"Auth. For Hire, ","Interstate, ","General Freight, "
3366423,,CARRIER,ACTIVE,None,L A M TRANSPORT LLC,,,"7901 LEONORA ST APT 43
HOUSTON, TX   77061-1038",(832) 960-9836,,,"7901 LEONORA ST APT 43
HOUSTON, TX   77061-1038",1,2,2019-12-06,,"Auth. For Hire, ","Intrastate Only (Non-HM), ","Building Materials, "
3366426,,CARRIER,ACTIVE,None,ARBRA JOE WILLIAMS JR,AJW TRANSPORTATION SERVICES,,"1307 CALVERT DR
CEDAR HILL, TX   75104-6510",(214) 884-5022,,,"1307 CALVERT DR
CEDAR HILL, TX   75104-6510",2,2,2019-12-06,,"Auth. For Hire, ","Intrastate Only (Non-HM), ","General Freight, "
3366430,,CARRIER,NOT AUTHORIZED,None,RIVE LOGISTICS LLC,,,"809 N 46TH ST
MCALLEN, TX   78501",(956) 867-2400,,,"809 N 46TH ST
MCALLEN, TX   78501-3742",4,3,2019-12-06,,"Auth. For Hire, ","Interstate, ","General Freight, Building Materials, Beverages, Paper Products, "
3366445,,CARRIER,ACTIVE,None,DARRELL CHILDERS,D & C TRUCKING,,"3944 POLK LN
CLEBURNE, TX   76031-8181",(817) 526-0687,,,"3944 POLK LN
CLEBURNE, TX   76031-8181",1,1,2019-12-06,,"Auth. For Hire, ","Intrastate Only (Non-HM), ","General Freight, "
3366446,,CARRIER,NOT AUTHORIZED,None,EJS TRANSPORT LLC,,,"3702 S FAIRMONT AVE APT A
PHARR, TX   78577",(956) 627-8684,,,"3702 S FAIRMONT AVE APT A
PHARR, TX   78577-4866",1,1,2019-12-06,,"Auth. For Hire, ","Interstate, ","General Freight, Refrigerated Food, "
3366475,,CARRIER,NOT AUTHORIZED,None,GUADALUPE CORREA FRANCO,FRANCO'S TRANSPORT,,"2904 CHILTON ST
WESLACO, TX   78596",(956) 420-2058,,,"2904 CHILTON ST
WESLACO, TX   78596",2,2,2019-12-06,,"Auth. For Hire, ","Interstate, ","General Freight, "
3366478,,CARRIER,ACTIVE,None,ORTIZ DELIVERY SERVICES LLC,,,"5505 FRANCHESCA AVE
EDINBURG, TX   78542-6559",(956) 579-5852,,,"5505 FRANCHESCA AVE
EDINBURG, TX   78542-6559",2,4,2019-12-06,,"Auth. For Hire, ","Intrastate Only (Non-HM), ","General Freight, "
3366573,,CARRIER,NOT AUTHORIZED,None,FLYWELL TRUCKING LLC,,,"5100 SUNNYSIDE DR
MIDLAND, TX   79703-5351",(432) 664-7301,,,"5100 SUNNYSIDE DR
MIDLAND, TX   79703-5351",2,2,2019-12-07,,"Auth. For Hire, ","Interstate, ","General Freight, Oilfield Equipment, "
3366579,,CARRIER,NOT AUTHORIZED,None,MOUNTAIN MOVERS,,,"940 W ROUND GROVE RD APT 916
LEWISVILLE, TX   75067",(903) 701-8929,,,"940 W ROUND GROVE RD APT 916
LEWISVILLE, TX   75067-7952",6,12,2019-12-07,,"Auth. For Hire, ","Interstate, ","General Freight, "
3366664,,CARRIER,NOT AUTHORIZED,None,CONFIDENT LOGISTICS LLC,CONFIDENT LOGISTICS,,"1847 CARRIAGE HOUSE CIR APT 2701
ARLINGTON, TX   76011",(469) 560-0473,,,"1847 CARRIAGE HOUSE CIR APT 2701
ARLINGTON, TX   76011-4441",1,1,2019-12-07,,"Auth. For Hire, ","Interstate, ","General Freight, "
3366673,,CARRIER,ACTIVE,None,RUDY GARICA MENDOZA JR,MENDOZA TRANSPORTATION,,"5602 FM 1294
LUBBOCK, TX   79415-7612",(806) 781-6100,,,"5602 FM 1294
LUBBOCK, TX   79415-7612",1,1,2019-12-09,,"Auth. For Hire, ","Intrastate Only (Non-HM), ","General Freight, Construction, "
3366677,,CARRIER,NOT AUTHORIZED,None,KINGSMEN TRANSPORT LLC,,,"14302 WRANGLER WAY
DALLAS, TX   75253",(972) 595-2377,,,"1515 N TOWN EAST BLVD STE 138
MESQUITE, TX   75150-4142",1,1,2019-12-08,,"Auth. For Hire, ","Interstate, ","General Freight, Motor Vehicles, "
3366719,,CARRIER,ACTIVE,None,RED TOP TRANSPORTATION,,,"14818 COBO DE BARA CIR
CORP CHRISTI, TX   78418-6908",(361) 815-5308,,,"PO BOX 18672
CORP CHRISTI, TX   78480-8672",1,2,2019-12-08,,"Auth. For Hire, ","Intrastate Only (Non-HM), ","General Freight, Oilfield Equipment, Construction, "
3366733,,CARRIER,NOT AUTHORIZED,None,TEXAS WESTERN XPRESS LLC,,,"2400 STATE HIGHWAY 121 APT 1207
EULESS, TX   76039",(972) 948-1705,,,"2400 STATE HIGHWAY 121 APT 1207
EULESS, TX   76039-4060",1,2,2019-12-08,,"Auth. For Hire, ","Interstate, ","General Freight, "
3366741,,CARRIER,NOT AUTHORIZED,None,428TRANSPORTERS LLC,428TRANSPORTERS,,"205 W LANETT DR
DESOTO, TX   75115",(214) 704-2592,,,"205 W LANETT DR
DESOTO, TX   75115-4925",1,4,2019-12-08,,"Auth. For Hire, ","Interstate, ","General Freight, "
3366769,,CARRIER,ACTIVE,None,BARKLEY LOGGING,,,"112 MOUNT ZION RD
NEW WAVERLY, TX   77358-3743",(936) 438-0117,,,"112 MOUNT ZION RD
NEW WAVERLY, TX   77358-3743",1,1,2019-12-08,,"Auth. For Hire, ","Intrastate Only (Non-HM), ","General Freight, Logs, Poles, Beams, Lumber, "
3366826,,CARRIER,NOT AUTHORIZED,None,DVM EXPEDITE TRANSPORTATION LLC,,,"3410 ALTURA AVE
EL PASO, TX   79930",(915) 282-4572,,,"8900 VISCOUNT BLVD #AN165
EL PASO, TX   79925",1,1,2019-12-09,,"Auth. For Hire, ","Interstate, ","General Freight, "
3366846,,CARRIER,ACTIVE,None,TWO J'S DELIVERY LLC,,,"2719 RUIZ ST
SAN ANTONIO, TX   78228-6452",(210) 325-3973,,,"2719 RUIZ ST
SAN ANTONIO, TX   78228-6452",1,1,2019-12-09,,"Auth. For Hire, ","Intrastate Only (Non-HM), ","Household Goods, "
3366909,,CARRIER,ACTIVE,None,CANO PRO TRUCKING LLC,,,"10401 N LAMAR BLVD APT Q202
AUSTIN, TX   78753-2681",(786) 641-9991,,,"10401 N LAMAR BLVD APT Q202
AUSTIN, TX   78753-2681",1,1,2019-12-09,,"Auth. For Hire, ","Intrastate Only (Non-HM), ","General Freight, OTHER, "
3366912,,CARRIER,ACTIVE,None,REYNALDO DAVID MATHIS,PROFESSIONAL REBAR POOL,,"7650 MOONMIST DR APT 33
HOUSTON, TX   77036-4140",(832) 884-0133,,,"7650 MOONMIST DR APT 33
HOUSTON, TX   77036-4140",1,1,2019-12-09,1 (2019),"Auth. For Hire, ","Intrastate Only (Non-HM), ","OTHER, "
3366921,,CARRIER,NOT AUTHORIZED,None,LED TRANSPORTATION INC,,,"2984 TEMPLE
LAREDO, TX   78043",(956) 516-4407,,,"2984 TEMPLE
LAREDO, TX   78043-9343",1,2,2019-12-09,,"Auth. For Hire, ","Interstate, ","General Freight, OTHER, "
3366941,,CARRIER,NOT AUTHORIZED,None,LAWSON GROUP LLC,,,"1032 BENTWATER PKWY
CEDAR HILL, TX   75104",(201) 951-0448,,,"PO BOX 292
CEDAR HILL, TX   75106-0292",1,2,2019-12-09,,"Auth. For Hire, ","Interstate, ","General Freight, Fresh Produce, Meat, Refrigerated Food, Paper Products, "
3366947,,CARRIER,ACTIVE,None,GALILEAN LOGISTIC SERVICES LLC,,,"105 E 15TH ST
DEL RIO, TX   78840-3531",(469) 233-0209,,,"105 E 15TH ST
DEL RIO, TX   78840-3531",1,1,2019-12-09,,"Auth. For Hire, ","Intrastate Only (Non-HM), ","General Freight, "
3366969,,CARRIER,ACTIVE,None,RICARDO ROQUE,ROQUE TRUCKING,,"1802 ESTRADA PKWY APT 1010
IRVING, TX   75061-1121",(214) 549-2374,,,"1802 ESTRADA PKWY APT 1010
IRVING, TX   75061-1121",1,1,2019-12-09,,"Auth. For Hire, ","Intrastate Only (Non-HM), ","OTHER, "
3366970,,CARRIER,NOT AUTHORIZED,None,JEWELL TRUCKING LLC,,,"1900 MCKINNEY AVE APT 2103
DALLAS, TX   75201",(469) 478-6222,,,"1900 MCKINNEY AVE APT 2103
DALLAS, TX   75201-1726",2,2,2019-12-09,,"Auth. For Hire, ","Interstate, ","General Freight, "
3366978,,CARRIER,ACTIVE,None,ELIESER CAINET LAMOTH,LAMOTH TRUCKING,,"7914 N BENTSEN PALM DR
MISSION, TX   78574-4371",(956) 655-0017,,,"7914 N BENTSEN PALM DR
MISSION, TX   78574-4371",1,1,2019-12-09,,"Auth. For Hire, ","Intrastate Only (Non-HM), ","Building Materials, CEMENT, "
3366998,,CARRIER,NOT AUTHORIZED,None,LONE STAR LOADS LLC,,,"930 S ROCKWALL AVE
TERRELL, TX   75160",(469) 652-6821,,,"930 S ROCKWALL AVE
TERRELL, TX   75160-4412",2,3,2019-12-09,,"Auth. For Hire, ","Interstate, ","General Freight, "
3367030,,CARRIER,ACTIVE,None,FALCON OILFIELD & TRUCKING SERVICES LLC,,,"2319 N CHADBOURNE ST
SAN ANGELO, TX   76903-2926",(325) 658-7989,,,"2319 N CHADBOURNE ST
SAN ANGELO, TX   76903-2926",1,1,2019-12-09,,"Auth. For Hire, ","Intrastate Only (Non-HM), ","General Freight, Liquids/Gases, "
3367034,,CARRIER,NOT AUTHORIZED,None,HKAN TRUCKING,,,"7503 EDGEVALE CT
HOUSTON, TX   77095",(281) 815-5539,,,"7503 EDGEVALE CT
HOUSTON, TX   77095-4088",1,4,2019-12-09,,"Auth. For Hire, ","Interstate, ","General Freight, Metal: sheets, coils, rolls, Motor Vehicles, Drive/Tow away, Logs, Poles, Beams, Lumber, Building Materials, Machinery, Large Objects, Oilfield Equipment, Commodities Dry Bulk, "
3367067,,CARRIER,NOT AUTHORIZED,None,DONALD BRITT JENKINS,DBJ LOGISTICS & SAFETY,,"4113 DAWN DR
BENBROOK, TX   76116",(817) 980-3095,,,"4113 DAWN DR
BENBROOK, TX   76116-7505",1,1,2019-12-09,,"Auth. For Hire, ","Interstate, ","General Freight, OTHER, "
3367091,,CARRIER,NOT AUTHORIZED,None,J&D EXPRESS TRUCKING LLC,,,"1032 VALLEY BROOK LN
GRAND PRAIRIE, TX   75052",(209) 416-8146,,,"1032 VALLEY BROOK LN
GRAND PRAIRIE, TX   75052-8841",73,8,2019-12-09,,"Auth. For Hire, ","Interstate, ","General Freight, "
3367147,,CARRIER,NOT AUTHORIZED,None,G3G TRANSPORTAION LLC,,,"1704 NOVEL CIR
GARLAND, TX   75040",(555) 555-5555,,,"1704 NOVEL CIR
GARLAND, TX   75040-8228",1,2,2019-12-09,,"Auth. For Hire, ","Interstate, ","General Freight, Metal: sheets, coils, rolls, Logs, Poles, Beams, Lumber, Building Materials, Machinery, Large Objects, Grain, Feed, Hay, Garbage/Refuse, Commodities Dry Bulk, Paper Products, Utilities, Construction, "
3367158,,CARRIER,ACTIVE,None,HERIBERTO RAMIREZ CUEVAS,,,"4312 FORNEY RD
MESQUITE, TX   75149-2727",(469) 888-0958,,,"4312 FORNEY RD
MESQUITE, TX   75149-2727",1,1,2019-12-09,,"Auth. For Hire, ","Intrastate Only (Non-HM), ","Building Materials, "
3367232,,CARRIER,NOT AUTHORIZED,None,IMELDA MORALES,TNT,,"3438 LIVINGSTON LN
CARROLLTON, TX   75007",(214) 791-8105,,,"3438 LIVINGSTON LN
CARROLLTON, TX   75007-3211",1,4,2019-12-09,,"Auth. For Hire, ","Interstate, ","General Freight, "
3367250,,CARRIER,ACTIVE,None,ZACARIAS YANEZ DBA RGV GREASE TRAPPERS,RGV GREASE TRAPPERS,,"25 W SAINT CHARLES ST
BROWNSVILLE, TX   78520-5510",(956) 639-5797,,,"25 W SAINT CHARLES ST
BROWNSVILLE, TX   78520-5510","100,010",2,2019-12-09,,"Auth. For Hire, ","Intrastate Only (Non-HM), ","General Freight, Liquids/Gases, "
3367252,,CARRIER,NOT AUTHORIZED,None,M & Y SERVICES LLC,,,"4105 BLANCA CIR
MISSION, TX   78574",(956) 358-9369,,,"4105 BLANCA CIR
MISSION, TX   78574-4775",1,1,2019-12-09,,"Auth. For Hire, ","Interstate, ","General Freight, Metal: sheets, coils, rolls, Logs, Poles, Beams, Lumber, Building Materials, Machinery, Large Objects, Construction, "
3367278,,CARRIER,ACTIVE,None,GLOBAL DELIVERYS LLC,,,"1614 S BROADWAY ST STE 200
CARROLLTON, TX   75006-8913",(855) 479-1382,,,"1614 S BROADWAY ST STE 200
CARROLLTON, TX   75006-8913",2,4,2019-12-09,,"Auth. For Hire, ","Intrastate Only (Non-HM), ","General Freight, "
3367279,,CARRIER,ACTIVE,None,GALLEGOS HOTSHOT LLC,,,"681 N SAGINAW BLVD APT 612
SAGINAW, TX   76179-1254",(361) 455-2938,,,"681 N SAGINAW BLVD APT 612
SAGINAW, TX   76179-1254",1,1,2019-12-09,1 (2018),"Auth. For Hire, ","Intrastate Only (Non-HM), ","General Freight, "
3367322,,CARRIER,ACTIVE,None,DEMYS G ZAMBRANO CENTENO,ZAMBRANO READY MIX,,"1002 KATY GAP RD APT 419
KATY, TX   77494-7882",(786) 927-4893,,,"1002 KATY GAP RD APT 419
KATY, TX   77494-7882",1,1,2019-12-09,,"Auth. For Hire, ","Intrastate Only (Non-HM), ","OTHER, "
3367328,,CARRIER,NOT AUTHORIZED,None,YOE AND SONS TRUCKING LLC,,,"8075 PORTWOOD RD
AZLE, TX   76020",(682) 225-4829,,,"8075 PORTWOOD RD
AZLE, TX   76020-5821",1,1,2019-12-09,,"Auth. For Hire, ","Interstate, ","General Freight, Motor Vehicles, "
3367402,,CARRIER,ACTIVE,None,VLP CHARTER LLC,,,"403 NORTHWOOD ST
HOUSTON, TX   77009-5320",(281) 948-1175,,,"403 NORTHWOOD ST
HOUSTON, TX   77009-5320",1,2,2019-12-09,,"Auth. For Hire, ","Intrastate Only (Non-HM), ","Passengers, "
3367458,,CARRIER,NOT AUTHORIZED,None,OH NATIONAL TRUCKING LLC,,,"9888 UNITED DR APT 2007
HOUSTON, TX   77036",(713) 504-4865,,,"9888 UNITED DR APT 2007
HOUSTON, TX   77036-3488",1,1,2019-12-09,,"Auth. For Hire, ","Interstate, ","General Freight, Beverages, Paper Products, "
3367516,,CARRIER,NOT AUTHORIZED,None,ROP LOGISTIC LLC,,,"411 MAIN ST E
MOUNT VERNON, TX   75457",(305) 785-9762,,,"411 MAIN ST E
MOUNT VERNON, TX   75457-2503",1,1,2019-12-11,,"Auth. For Hire, ","Interstate, ","General Freight, Beverages, Paper Products, Construction, "
